<?xml version="1.0" encoding="UTF-8"?>
<gpx xmlns:xsi="http://www.w3.org/2001/XMLSchema-instance" xmlns="http://www.topografix.com/GPX/1/1" xsi:schemaLocation="http://www.topografix.com/GPX/1/1 http://www.topografix.com/GPX/1/1/gpx.xsd http://www.garmin.com/xmlschemas/GpxExtensions/v3 http://www.garmin.com/xmlschemas/GpxExtensionsv3.xsd http://www.garmin.com/xmlschemas/TrackPointExtension/v1 http://www.garmin.com/xmlschemas/TrackPointExtensionv1.xsd http://www.topografix.com/GPX/gpx_style/0/2 http://www.topografix.com/GPX/gpx_style/0/2/gpx_style.xsd" xmlns:gpxtpx="http://www.garmin.com/xmlschemas/TrackPointExtension/v1" xmlns:gpxx="http://www.garmin.com/xmlschemas/GpxExtensions/v3" xmlns:gpx_style="http://www.topografix.com/GPX/gpx_style/0/2" version="1.1" creator="Wikiloc - https://www.wikiloc.com">
<metadata>
    <name>R24 - Sender Joan Maragall</name>
    <author>
        <name>gpx.studio</name>
        <link href="https://gpx.studio"></link>
    </author>
</metadata>
<wpt lat="42.15386853599293" lon="2.5177291094852894">
    <ele>572.3</ele>
    <name>Centre d&apos;informació Can Serra</name>
    <sym>Information</sym>
</wpt>
<wpt lat="42.1539467" lon="2.517831">
    <ele>572.7</ele>
    <name>WC</name>
    <cmt>amenity: toilets, fee: no, wheelchair: yes</cmt>
    <sym>Restroom</sym>
</wpt>
<wpt lat="42.15363094600518" lon="2.5169178843498234">
    <ele>573.9</ele>
    <name>Monòlit Joan Maragall</name>
    <sym>Geographic place name, Man-made</sym>
</wpt>
<wpt lat="42.15371387125522" lon="2.518021187145467">
    <ele>573.7</ele>
    <name>SP8</name>
    <cmt>Can Serra</cmt>
    <desc>Can Serra</desc>
    <sym>Flag, Green</sym>
</wpt>
<wpt lat="42.150298215705426" lon="2.5144106894731526">
    <ele>573.2</ele>
    <name>Tossol</name>
    <sym>Geographic place name, land</sym>
</wpt>
<trk>
    <name>Olot - Sender Joan Maragall</name>
    <type>Running</type>
    <extensions>
        <gpx_style:line>
        <color>0000ff</color>
        <opacity>0.7</opacity>
        <weight>3</weight>
        </gpx_style:line>
    </extensions>
    <trkseg>
    <trkpt lat="42.153947" lon="2.517814">
        <ele>590.0</ele>
        <time>2024-03-31T13:54:30.506Z</time>
    </trkpt>
    <trkpt lat="42.153948" lon="2.517815">
        <ele>588.0</ele>
        <time>2024-03-31T13:54:50.506Z</time>
    </trkpt>
    <trkpt lat="42.153921" lon="2.517799">
        <ele>585.1</ele>
        <time>2024-03-31T13:55:10.506Z</time>
    </trkpt>
    <trkpt lat="42.153906" lon="2.517795">
        <ele>588.5</ele>
        <time>2024-03-31T13:55:30.506Z</time>
    </trkpt>
    <trkpt lat="42.153879" lon="2.517797">
        <ele>589.0</ele>
        <time>2024-03-31T13:55:50.506Z</time>
    </trkpt>
    <trkpt lat="42.153843" lon="2.517813">
        <ele>586.1</ele>
        <time>2024-03-31T13:56:10.506Z</time>
    </trkpt>
    <trkpt lat="42.153808" lon="2.517821">
        <ele>590.0</ele>
        <time>2024-03-31T13:56:30.506Z</time>
    </trkpt>
    <trkpt lat="42.153795" lon="2.517823">
        <ele>588.0</ele>
        <time>2024-03-31T13:56:50.506Z</time>
    </trkpt>
    <trkpt lat="42.153782" lon="2.517826">
        <ele>588.0</ele>
        <time>2024-03-31T13:57:10.506Z</time>
    </trkpt>
    <trkpt lat="42.153734" lon="2.517863">
        <ele>587.5</ele>
        <time>2024-03-31T13:57:30.506Z</time>
    </trkpt>
    <trkpt lat="42.153582" lon="2.517675">
        <ele>586.5</ele>
        <time>2024-03-31T13:57:50.506Z</time>
    </trkpt>
    <trkpt lat="42.15348" lon="2.51754">
        <ele>585.7</ele>
        <time>2024-03-31T13:58:10.506Z</time>
    </trkpt>
    <trkpt lat="42.153468" lon="2.517528">
        <ele>586.1</ele>
        <time>2024-03-31T13:58:30.506Z</time>
    </trkpt>
    <trkpt lat="42.153438" lon="2.517445">
        <ele>583.2</ele>
        <time>2024-03-31T13:58:50.506Z</time>
    </trkpt>
    <trkpt lat="42.153445" lon="2.51743">
        <ele>586.1</ele>
        <time>2024-03-31T13:59:10.506Z</time>
    </trkpt>
    <trkpt lat="42.153452" lon="2.517412">
        <ele>585.7</ele>
        <time>2024-03-31T13:59:30.506Z</time>
    </trkpt>
    <trkpt lat="42.153514" lon="2.517312">
        <ele>588.1</ele>
        <time>2024-03-31T13:59:50.506Z</time>
    </trkpt>
    <trkpt lat="42.153523" lon="2.517291">
        <ele>586.5</ele>
        <time>2024-03-31T14:00:10.506Z</time>
    </trkpt>
    <trkpt lat="42.153551" lon="2.517129">
        <ele>591.0</ele>
        <time>2024-03-31T14:00:30.506Z</time>
    </trkpt>
    <trkpt lat="42.1535" lon="2.517069">
        <ele>588.1</ele>
        <time>2024-03-31T14:00:50.506Z</time>
    </trkpt>
    <trkpt lat="42.15338" lon="2.516993">
        <ele>588.0</ele>
        <time>2024-03-31T14:01:10.506Z</time>
    </trkpt>
    <trkpt lat="42.153415" lon="2.516801">
        <ele>585.7</ele>
        <time>2024-03-31T14:01:30.506Z</time>
    </trkpt>
    <trkpt lat="42.153305" lon="2.516867">
        <ele>583.3</ele>
        <time>2024-03-31T14:01:50.506Z</time>
    </trkpt>
    <trkpt lat="42.153215" lon="2.516854">
        <ele>580.9</ele>
        <time>2024-03-31T14:02:10.506Z</time>
    </trkpt>
    <trkpt lat="42.153124" lon="2.516656">
        <ele>579.8</ele>
        <time>2024-03-31T14:02:30.509Z</time>
    </trkpt>
    <trkpt lat="42.153042" lon="2.516557">
        <ele>580.8</ele>
        <time>2024-03-31T14:02:50.509Z</time>
    </trkpt>
    <trkpt lat="42.152895" lon="2.516502">
        <ele>579.9</ele>
        <time>2024-03-31T14:03:10.509Z</time>
    </trkpt>
    <trkpt lat="42.152738" lon="2.516514">
        <ele>578.5</ele>
        <time>2024-03-31T14:03:30.509Z</time>
    </trkpt>
    <trkpt lat="42.152581" lon="2.516567">
        <ele>576.0</ele>
        <time>2024-03-31T14:03:50.509Z</time>
    </trkpt>
    <trkpt lat="42.152514" lon="2.516505">
        <ele>576.4</ele>
        <time>2024-03-31T14:04:10.509Z</time>
    </trkpt>
    <trkpt lat="42.152423" lon="2.5165">
        <ele>578.0</ele>
        <time>2024-03-31T14:04:30.509Z</time>
    </trkpt>
    <trkpt lat="42.15237" lon="2.516495">
        <ele>576.4</ele>
        <time>2024-03-31T14:04:50.509Z</time>
    </trkpt>
    <trkpt lat="42.15232" lon="2.516415">
        <ele>575.5</ele>
        <time>2024-03-31T14:05:10.509Z</time>
    </trkpt>
    <trkpt lat="42.152204" lon="2.516311">
        <ele>574.5</ele>
        <time>2024-03-31T14:05:30.509Z</time>
    </trkpt>
    <trkpt lat="42.152033" lon="2.516213">
        <ele>574.6</ele>
        <time>2024-03-31T14:05:50.509Z</time>
    </trkpt>
    <trkpt lat="42.151941" lon="2.516065">
        <ele>576.9</ele>
        <time>2024-03-31T14:06:10.509Z</time>
    </trkpt>
    <trkpt lat="42.151861" lon="2.516028">
        <ele>577.4</ele>
        <time>2024-03-31T14:06:30.509Z</time>
    </trkpt>
    <trkpt lat="42.151793" lon="2.516026">
        <ele>575.6</ele>
        <time>2024-03-31T14:06:50.509Z</time>
    </trkpt>
    <trkpt lat="42.151659" lon="2.515898">
        <ele>575.1</ele>
        <time>2024-03-31T14:07:10.509Z</time>
    </trkpt>
    <trkpt lat="42.151543" lon="2.5158">
        <ele>576.1</ele>
        <time>2024-03-31T14:07:30.509Z</time>
    </trkpt>
    <trkpt lat="42.151476" lon="2.51557">
        <ele>576.4</ele>
        <time>2024-03-31T14:07:50.509Z</time>
    </trkpt>
    <trkpt lat="42.151445" lon="2.515468">
        <ele>575.0</ele>
        <time>2024-03-31T14:08:10.509Z</time>
    </trkpt>
    <trkpt lat="42.151304" lon="2.515329">
        <ele>577.0</ele>
        <time>2024-03-31T14:08:30.509Z</time>
    </trkpt>
    <trkpt lat="42.151205" lon="2.515258">
        <ele>576.0</ele>
        <time>2024-03-31T14:08:50.509Z</time>
    </trkpt>
    <trkpt lat="42.151203" lon="2.515043">
        <ele>575.0</ele>
        <time>2024-03-31T14:09:10.509Z</time>
    </trkpt>
    <trkpt lat="42.151177" lon="2.514769">
        <ele>576.4</ele>
        <time>2024-03-31T14:09:30.509Z</time>
    </trkpt>
    <trkpt lat="42.151173" lon="2.514741">
        <ele>576.4</ele>
        <time>2024-03-31T14:09:50.509Z</time>
    </trkpt>
    <trkpt lat="42.151076" lon="2.514541">
        <ele>575.5</ele>
        <time>2024-03-31T14:10:10.509Z</time>
    </trkpt>
    <trkpt lat="42.150914" lon="2.514658">
        <ele>576.1</ele>
        <time>2024-03-31T14:10:30.509Z</time>
    </trkpt>
    <trkpt lat="42.150758" lon="2.514514">
        <ele>576.5</ele>
        <time>2024-03-31T14:10:50.509Z</time>
    </trkpt>
    <trkpt lat="42.150657" lon="2.514499">
        <ele>576.9</ele>
        <time>2024-03-31T14:11:10.509Z</time>
    </trkpt>
    <trkpt lat="42.150643" lon="2.514497">
        <ele>576.4</ele>
        <time>2024-03-31T14:11:30.509Z</time>
    </trkpt>
    <trkpt lat="42.15059" lon="2.514509">
        <ele>576.1</ele>
        <time>2024-03-31T14:11:50.509Z</time>
    </trkpt>
    <trkpt lat="42.150571" lon="2.514518">
        <ele>575.1</ele>
        <time>2024-03-31T14:12:10.509Z</time>
    </trkpt>
    <trkpt lat="42.15055" lon="2.514522">
        <ele>576.4</ele>
        <time>2024-03-31T14:12:30.509Z</time>
    </trkpt>
    <trkpt lat="42.15045" lon="2.514596">
        <ele>575.0</ele>
        <time>2024-03-31T14:12:50.509Z</time>
    </trkpt>
    <trkpt lat="42.150425" lon="2.514595">
        <ele>577.0</ele>
        <time>2024-03-31T14:13:10.509Z</time>
    </trkpt>
    <trkpt lat="42.150384" lon="2.514562">
        <ele>576.9</ele>
        <time>2024-03-31T14:13:30.509Z</time>
    </trkpt>
    <trkpt lat="42.150354" lon="2.514449">
        <ele>576.9</ele>
        <time>2024-03-31T14:13:50.509Z</time>
    </trkpt>
    <trkpt lat="42.150279" lon="2.514348">
        <ele>576.1</ele>
        <time>2024-03-31T14:14:10.509Z</time>
    </trkpt>
    <trkpt lat="42.150291" lon="2.514347">
        <ele>577.5</ele>
        <time>2024-03-31T14:14:30.509Z</time>
    </trkpt>
    <trkpt lat="42.150294" lon="2.514352">
        <ele>576.0</ele>
        <time>2024-03-31T14:14:50.509Z</time>
    </trkpt>
    <trkpt lat="42.150297" lon="2.514362">
        <ele>577.5</ele>
        <time>2024-03-31T14:15:10.509Z</time>
    </trkpt>
    <trkpt lat="42.150274" lon="2.514356">
        <ele>575.0</ele>
        <time>2024-03-31T14:15:30.509Z</time>
    </trkpt>
    <trkpt lat="42.150271" lon="2.514354">
        <ele>576.5</ele>
        <time>2024-03-31T14:15:50.509Z</time>
    </trkpt>
    <trkpt lat="42.150257" lon="2.514351">
        <ele>574.6</ele>
        <time>2024-03-31T14:16:10.509Z</time>
    </trkpt>
    <trkpt lat="42.150284" lon="2.51409">
        <ele>576.9</ele>
        <time>2024-03-31T14:16:30.509Z</time>
    </trkpt>
    <trkpt lat="42.150248" lon="2.513976">
        <ele>575.0</ele>
        <time>2024-03-31T14:16:50.509Z</time>
    </trkpt>
    <trkpt lat="42.150207" lon="2.513906">
        <ele>575.0</ele>
        <time>2024-03-31T14:17:10.509Z</time>
    </trkpt>
    <trkpt lat="42.150142" lon="2.513841">
        <ele>576.9</ele>
        <time>2024-03-31T14:17:30.509Z</time>
    </trkpt>
    <trkpt lat="42.150127" lon="2.513827">
        <ele>576.1</ele>
        <time>2024-03-31T14:17:50.509Z</time>
    </trkpt>
    <trkpt lat="42.149987" lon="2.513656">
        <ele>575.1</ele>
        <time>2024-03-31T14:18:10.509Z</time>
    </trkpt>
    <trkpt lat="42.149953" lon="2.513658">
        <ele>575.5</ele>
        <time>2024-03-31T14:18:30.509Z</time>
    </trkpt>
    <trkpt lat="42.149844" lon="2.513736">
        <ele>577.5</ele>
        <time>2024-03-31T14:18:50.509Z</time>
    </trkpt>
    <trkpt lat="42.149717" lon="2.513895">
        <ele>578.5</ele>
        <time>2024-03-31T14:19:10.509Z</time>
    </trkpt>
    <trkpt lat="42.149569" lon="2.514021">
        <ele>578.5</ele>
        <time>2024-03-31T14:19:30.509Z</time>
    </trkpt>
    <trkpt lat="42.149519" lon="2.514138">
        <ele>577.0</ele>
        <time>2024-03-31T14:19:50.509Z</time>
    </trkpt>
    <trkpt lat="42.149437" lon="2.514132">
        <ele>576.4</ele>
        <time>2024-03-31T14:20:10.509Z</time>
    </trkpt>
    <trkpt lat="42.14946" lon="2.514107">
        <ele>575.5</ele>
        <time>2024-03-31T14:20:30.509Z</time>
    </trkpt>
    <trkpt lat="42.14933" lon="2.514462">
        <ele>575.5</ele>
        <time>2024-03-31T14:20:50.509Z</time>
    </trkpt>
    <trkpt lat="42.14929" lon="2.514665">
        <ele>576.0</ele>
        <time>2024-03-31T14:21:10.509Z</time>
    </trkpt>
    <trkpt lat="42.149382" lon="2.514798">
        <ele>575.6</ele>
        <time>2024-03-31T14:21:30.509Z</time>
    </trkpt>
    <trkpt lat="42.14959" lon="2.514928">
        <ele>574.6</ele>
        <time>2024-03-31T14:21:50.509Z</time>
    </trkpt>
    <trkpt lat="42.149741" lon="2.514865">
        <ele>575.5</ele>
        <time>2024-03-31T14:22:10.509Z</time>
    </trkpt>
    <trkpt lat="42.14999" lon="2.514772">
        <ele>576.1</ele>
        <time>2024-03-31T14:22:30.509Z</time>
    </trkpt>
    <trkpt lat="42.150083" lon="2.514738">
        <ele>574.5</ele>
        <time>2024-03-31T14:22:50.509Z</time>
    </trkpt>
    <trkpt lat="42.150124" lon="2.514679">
        <ele>573.6</ele>
        <time>2024-03-31T14:23:10.509Z</time>
    </trkpt>
    <trkpt lat="42.150171" lon="2.514537">
        <ele>577.4</ele>
        <time>2024-03-31T14:23:30.509Z</time>
    </trkpt>
    <trkpt lat="42.150202" lon="2.514431">
        <ele>575.0</ele>
        <time>2024-03-31T14:23:50.509Z</time>
    </trkpt>
    <trkpt lat="42.150317" lon="2.514376">
        <ele>576.1</ele>
        <time>2024-03-31T14:24:10.509Z</time>
    </trkpt>
    <trkpt lat="42.150328" lon="2.514384">
        <ele>576.4</ele>
        <time>2024-03-31T14:24:30.509Z</time>
    </trkpt>
    <trkpt lat="42.150454" lon="2.514632">
        <ele>575.5</ele>
        <time>2024-03-31T14:24:50.509Z</time>
    </trkpt>
    <trkpt lat="42.150567" lon="2.514525">
        <ele>575.5</ele>
        <time>2024-03-31T14:25:10.509Z</time>
    </trkpt>
    <trkpt lat="42.150794" lon="2.514541">
        <ele>575.6</ele>
        <time>2024-03-31T14:25:30.509Z</time>
    </trkpt>
    <trkpt lat="42.150821" lon="2.514586">
        <ele>574.0</ele>
        <time>2024-03-31T14:25:50.509Z</time>
    </trkpt>
    <trkpt lat="42.150917" lon="2.514656">
        <ele>573.7</ele>
        <time>2024-03-31T14:26:10.509Z</time>
    </trkpt>
    <trkpt lat="42.150985" lon="2.51464">
        <ele>574.5</ele>
        <time>2024-03-31T14:26:30.509Z</time>
    </trkpt>
    <trkpt lat="42.151093" lon="2.514593">
        <ele>574.1</ele>
        <time>2024-03-31T14:26:50.509Z</time>
    </trkpt>
    <trkpt lat="42.15121" lon="2.514792">
        <ele>573.7</ele>
        <time>2024-03-31T14:27:10.509Z</time>
    </trkpt>
    <trkpt lat="42.151231" lon="2.514885">
        <ele>574.1</ele>
        <time>2024-03-31T14:27:30.509Z</time>
    </trkpt>
    <trkpt lat="42.15124" lon="2.515105">
        <ele>574.6</ele>
        <time>2024-03-31T14:27:50.509Z</time>
    </trkpt>
    <trkpt lat="42.151298" lon="2.515359">
        <ele>572.6</ele>
        <time>2024-03-31T14:28:10.509Z</time>
    </trkpt>
    <trkpt lat="42.151493" lon="2.515454">
        <ele>573.1</ele>
        <time>2024-03-31T14:28:30.509Z</time>
    </trkpt>
    <trkpt lat="42.151564" lon="2.515652">
        <ele>574.0</ele>
        <time>2024-03-31T14:28:50.509Z</time>
    </trkpt>
    <trkpt lat="42.151644" lon="2.515859">
        <ele>574.0</ele>
        <time>2024-03-31T14:29:10.509Z</time>
    </trkpt>
    <trkpt lat="42.151755" lon="2.51599">
        <ele>573.2</ele>
        <time>2024-03-31T14:29:30.509Z</time>
    </trkpt>
    <trkpt lat="42.1519" lon="2.516092">
        <ele>575.0</ele>
        <time>2024-03-31T14:29:50.509Z</time>
    </trkpt>
    <trkpt lat="42.151962" lon="2.516141">
        <ele>575.1</ele>
        <time>2024-03-31T14:30:10.509Z</time>
    </trkpt>
    <trkpt lat="42.152067" lon="2.516299">
        <ele>573.2</ele>
        <time>2024-03-31T14:30:30.509Z</time>
    </trkpt>
    <trkpt lat="42.152148" lon="2.51632">
        <ele>572.1</ele>
        <time>2024-03-31T14:30:50.509Z</time>
    </trkpt>
    <trkpt lat="42.152288" lon="2.516379">
        <ele>573.2</ele>
        <time>2024-03-31T14:31:10.509Z</time>
    </trkpt>
    <trkpt lat="42.152399" lon="2.516619">
        <ele>574.5</ele>
        <time>2024-03-31T14:31:30.509Z</time>
    </trkpt>
    <trkpt lat="42.152545" lon="2.516638">
        <ele>574.0</ele>
        <time>2024-03-31T14:31:50.509Z</time>
    </trkpt>
    <trkpt lat="42.15266" lon="2.516618">
        <ele>575.0</ele>
        <time>2024-03-31T14:32:10.509Z</time>
    </trkpt>
    <trkpt lat="42.152812" lon="2.516518">
        <ele>577.9</ele>
        <time>2024-03-31T14:32:30.509Z</time>
    </trkpt>
    <trkpt lat="42.15288" lon="2.516509">
        <ele>576.9</ele>
        <time>2024-03-31T14:32:50.509Z</time>
    </trkpt>
    <trkpt lat="42.153015" lon="2.51659">
        <ele>577.9</ele>
        <time>2024-03-31T14:33:10.509Z</time>
    </trkpt>
    <trkpt lat="42.153161" lon="2.516777">
        <ele>578.0</ele>
        <time>2024-03-31T14:33:30.509Z</time>
    </trkpt>
    <trkpt lat="42.153167" lon="2.516791">
        <ele>577.9</ele>
        <time>2024-03-31T14:33:50.509Z</time>
    </trkpt>
    <trkpt lat="42.153252" lon="2.516923">
        <ele>579.0</ele>
        <time>2024-03-31T14:34:10.509Z</time>
    </trkpt>
    <trkpt lat="42.153296" lon="2.516891">
        <ele>582.3</ele>
        <time>2024-03-31T14:34:30.509Z</time>
    </trkpt>
    <trkpt lat="42.15342" lon="2.516831">
        <ele>582.3</ele>
        <time>2024-03-31T14:34:50.509Z</time>
    </trkpt>
    <trkpt lat="42.15342" lon="2.517041">
        <ele>585.1</ele>
        <time>2024-03-31T14:35:10.509Z</time>
    </trkpt>
    <trkpt lat="42.153559" lon="2.517137">
        <ele>583.7</ele>
        <time>2024-03-31T14:35:30.509Z</time>
    </trkpt>
    <trkpt lat="42.153574" lon="2.517155">
        <ele>583.2</ele>
        <time>2024-03-31T14:35:50.509Z</time>
    </trkpt>
    <trkpt lat="42.153569" lon="2.517153">
        <ele>582.2</ele>
        <time>2024-03-31T14:36:10.509Z</time>
    </trkpt>
    <trkpt lat="42.153531" lon="2.517179">
        <ele>584.2</ele>
        <time>2024-03-31T14:36:30.509Z</time>
    </trkpt>
    <trkpt lat="42.153525" lon="2.51718">
        <ele>583.8</ele>
        <time>2024-03-31T14:36:50.509Z</time>
    </trkpt>
    <trkpt lat="42.153525" lon="2.517179">
        <ele>585.2</ele>
        <time>2024-03-31T14:37:10.509Z</time>
    </trkpt>
    <trkpt lat="42.153507" lon="2.51718">
        <ele>581.8</ele>
        <time>2024-03-31T14:37:30.509Z</time>
    </trkpt>
    <trkpt lat="42.15351" lon="2.51718">
        <ele>584.7</ele>
        <time>2024-03-31T14:37:50.509Z</time>
    </trkpt>
    <trkpt lat="42.153511" lon="2.51718">
        <ele>584.2</ele>
        <time>2024-03-31T14:38:10.509Z</time>
    </trkpt>
    <trkpt lat="42.153511" lon="2.51718">
        <ele>582.7</ele>
        <time>2024-03-31T14:38:30.509Z</time>
    </trkpt>
    <trkpt lat="42.153511" lon="2.517179">
        <ele>582.8</ele>
        <time>2024-03-31T14:38:50.509Z</time>
    </trkpt>
    <trkpt lat="42.15349" lon="2.517361">
        <ele>581.7</ele>
        <time>2024-03-31T14:39:10.509Z</time>
    </trkpt>
    <trkpt lat="42.153441" lon="2.517515">
        <ele>579.8</ele>
        <time>2024-03-31T14:39:30.509Z</time>
    </trkpt>
    <trkpt lat="42.153438" lon="2.517544">
        <ele>579.8</ele>
        <time>2024-03-31T14:39:50.509Z</time>
    </trkpt>
    <trkpt lat="42.153508" lon="2.517662">
        <ele>581.8</ele>
        <time>2024-03-31T14:40:10.509Z</time>
    </trkpt>
    <trkpt lat="42.153576" lon="2.517703">
        <ele>581.8</ele>
        <time>2024-03-31T14:40:30.509Z</time>
    </trkpt>
    <trkpt lat="42.153734" lon="2.517862">
        <ele>583.2</ele>
        <time>2024-03-31T14:40:50.509Z</time>
    </trkpt>
    <trkpt lat="42.15387" lon="2.517858">
        <ele>583.3</ele>
        <time>2024-03-31T14:41:10.509Z</time>
    </trkpt>
    <trkpt lat="42.15401" lon="2.517839">
        <ele>583.7</ele>
        <time>2024-03-31T14:41:30.509Z</time>
    </trkpt>
    </trkseg>
</trk>
</gpx>