<?xml version="1.0" encoding="UTF-8"?>
<gpx xmlns:xsi="http://www.w3.org/2001/XMLSchema-instance" xmlns="http://www.topografix.com/GPX/1/1" xsi:schemaLocation="http://www.topografix.com/GPX/1/1 http://www.topografix.com/GPX/1/1/gpx.xsd http://www.garmin.com/xmlschemas/GpxExtensions/v3 http://www.garmin.com/xmlschemas/GpxExtensionsv3.xsd http://www.garmin.com/xmlschemas/TrackPointExtension/v1 http://www.garmin.com/xmlschemas/TrackPointExtensionv1.xsd http://www.topografix.com/GPX/gpx_style/0/2 http://www.topografix.com/GPX/gpx_style/0/2/gpx_style.xsd" xmlns:gpxtpx="http://www.garmin.com/xmlschemas/TrackPointExtension/v1" xmlns:gpxx="http://www.garmin.com/xmlschemas/GpxExtensions/v3" xmlns:gpx_style="http://www.topografix.com/GPX/gpx_style/0/2" version="1.1" creator="GoolTracking - http://www.GoolTracking.com">
<metadata>
    <name>R8 - Per la fageda fosca de Santa Pau</name>
    <author>
        <name>gpx.studio</name>
        <link href="https://gpx.studio"></link>
    </author>
</metadata>
<wpt lat="42.14569852107451" lon="2.5701785087585454">
    <ele>491.5</ele>
    <name>G29</name>
    <desc>Santa Pau</desc>
    <sym>Geographic place name, Man-made</sym>
</wpt>
<wpt lat="42.138675276486815" lon="2.5685051059413904">
    <ele>554.4</ele>
    <name>SP19</name>
    <desc>volcà d’en Simó</desc>
    <sym>Flag, Green</sym>
</wpt>
<wpt lat="42.13873769050684" lon="2.5681829452514653">
    <ele>557.3</ele>
    <name>SP20</name>
    <desc>Els Colls</desc>
    <sym>Flag, Green</sym>
</wpt>
<wpt lat="42.13205860021567" lon="2.567770821577198">
    <ele>622.2</ele>
    <name>SP21</name>
    <desc>Coll de Maria 1</desc>
    <sym>Flag, Green</sym>
</wpt>
<wpt lat="42.131851681846136" lon="2.567490935325623">
    <ele>623.2</ele>
    <name>SP22</name>
    <desc>Coll de Maria 2</desc>
    <sym>Flag, Green</sym>
</wpt>
<wpt lat="42.142759155111854" lon="2.565677762031555">
    <ele>510.4</ele>
    <name>SP23</name>
    <desc>Cambrafosca</desc>
    <sym>Flag, Green</sym>
</wpt>
<wpt lat="42.144501312709046" lon="2.569110989570618">
    <ele>491.0</ele>
    <name>SP10</name>
    <cmt>Santa Pau C/. Del Pont</cmt>
    <desc>Santa Pau C/. Del Pont</desc>
    <sym>Flag, Green</sym>
</wpt>
<wpt lat="42.1439068" lon="2.5709497">
    <ele>491.5</ele>
    <name>Font</name>
    <cmt>amenity: drinking_water</cmt>
    <sym>Drinking Water</sym>
</wpt>
<wpt lat="42.1442801" lon="2.5688667">
    <ele>489.4</ele>
    <name>Mirador</name>
    <cmt>tourism: viewpoint</cmt>
    <sym>Scenic Area</sym>
</wpt>
<wpt lat="42.1436858" lon="2.5698934">
    <ele>489.1</ele>
    <name>WC</name>
    <cmt>amenity: toilets</cmt>
    <sym>Restroom</sym>
</wpt>
<trk>
    <name> Itinerari Fageda Fosca </name>
    <type>Running</type>
    <extensions>
        <gpx_style:line>
        <color>1100ff</color>
        <opacity>0.7</opacity>
        <weight>3</weight>
        </gpx_style:line>
    </extensions>
    <trkseg>
    <trkpt lat="42.143879" lon="2.570904">
        <ele>498.0</ele>
    </trkpt>
    <trkpt lat="42.143866" lon="2.570702">
        <ele>504.0</ele>
    </trkpt>
    <trkpt lat="42.143743" lon="2.57076">
        <ele>502.0</ele>
    </trkpt>
    <trkpt lat="42.143662" lon="2.570703">
        <ele>494.0</ele>
    </trkpt>
    <trkpt lat="42.143588" lon="2.570598">
        <ele>495.0</ele>
    </trkpt>
    <trkpt lat="42.143503" lon="2.57052">
        <ele>497.0</ele>
    </trkpt>
    <trkpt lat="42.143405" lon="2.5705">
        <ele>498.0</ele>
    </trkpt>
    <trkpt lat="42.143309" lon="2.570489">
        <ele>500.0</ele>
    </trkpt>
    <trkpt lat="42.143204" lon="2.570498">
        <ele>500.0</ele>
    </trkpt>
    <trkpt lat="42.143098" lon="2.57052">
        <ele>501.0</ele>
    </trkpt>
    <trkpt lat="42.143004" lon="2.570556">
        <ele>499.0</ele>
    </trkpt>
    <trkpt lat="42.142911" lon="2.570505">
        <ele>498.0</ele>
    </trkpt>
    <trkpt lat="42.142833" lon="2.570429">
        <ele>500.0</ele>
    </trkpt>
    <trkpt lat="42.142735" lon="2.570378">
        <ele>501.0</ele>
    </trkpt>
    <trkpt lat="42.142636" lon="2.570329">
        <ele>505.0</ele>
    </trkpt>
    <trkpt lat="42.142662" lon="2.57045">
        <ele>509.0</ele>
    </trkpt>
    <trkpt lat="42.142688" lon="2.570584">
        <ele>509.0</ele>
    </trkpt>
    <trkpt lat="42.142641" lon="2.570692">
        <ele>511.0</ele>
    </trkpt>
    <trkpt lat="42.142542" lon="2.570709">
        <ele>510.0</ele>
    </trkpt>
    <trkpt lat="42.142447" lon="2.570708">
        <ele>511.0</ele>
    </trkpt>
    <trkpt lat="42.142355" lon="2.570725">
        <ele>513.0</ele>
    </trkpt>
    <trkpt lat="42.142253" lon="2.570735">
        <ele>515.0</ele>
    </trkpt>
    <trkpt lat="42.142158" lon="2.570725">
        <ele>509.0</ele>
    </trkpt>
    <trkpt lat="42.142069" lon="2.570701">
        <ele>510.0</ele>
    </trkpt>
    <trkpt lat="42.141971" lon="2.570699">
        <ele>509.0</ele>
    </trkpt>
    <trkpt lat="42.141868" lon="2.570702">
        <ele>510.0</ele>
    </trkpt>
    <trkpt lat="42.141778" lon="2.570726">
        <ele>510.0</ele>
    </trkpt>
    <trkpt lat="42.141688" lon="2.570762">
        <ele>511.0</ele>
    </trkpt>
    <trkpt lat="42.141601" lon="2.570791">
        <ele>511.0</ele>
    </trkpt>
    <trkpt lat="42.141507" lon="2.570795">
        <ele>512.0</ele>
    </trkpt>
    <trkpt lat="42.141407" lon="2.570787">
        <ele>512.0</ele>
    </trkpt>
    <trkpt lat="42.141309" lon="2.570769">
        <ele>510.0</ele>
    </trkpt>
    <trkpt lat="42.141218" lon="2.570768">
        <ele>506.0</ele>
    </trkpt>
    <trkpt lat="42.141127" lon="2.570749">
        <ele>509.0</ele>
    </trkpt>
    <trkpt lat="42.141036" lon="2.570752">
        <ele>507.0</ele>
    </trkpt>
    <trkpt lat="42.140928" lon="2.57076">
        <ele>506.0</ele>
    </trkpt>
    <trkpt lat="42.140839" lon="2.570799">
        <ele>507.0</ele>
    </trkpt>
    <trkpt lat="42.140744" lon="2.570841">
        <ele>507.0</ele>
    </trkpt>
    <trkpt lat="42.140661" lon="2.570885">
        <ele>508.0</ele>
    </trkpt>
    <trkpt lat="42.14058" lon="2.570976">
        <ele>508.0</ele>
    </trkpt>
    <trkpt lat="42.140509" lon="2.571051">
        <ele>512.0</ele>
    </trkpt>
    <trkpt lat="42.140434" lon="2.571136">
        <ele>514.0</ele>
    </trkpt>
    <trkpt lat="42.140353" lon="2.571203">
        <ele>515.0</ele>
    </trkpt>
    <trkpt lat="42.140267" lon="2.571283">
        <ele>518.0</ele>
    </trkpt>
    <trkpt lat="42.14017" lon="2.571318">
        <ele>518.0</ele>
    </trkpt>
    <trkpt lat="42.140061" lon="2.571336">
        <ele>516.0</ele>
    </trkpt>
    <trkpt lat="42.139969" lon="2.571353">
        <ele>515.0</ele>
    </trkpt>
    <trkpt lat="42.139876" lon="2.57135">
        <ele>515.0</ele>
    </trkpt>
    <trkpt lat="42.139786" lon="2.571323">
        <ele>512.0</ele>
    </trkpt>
    <trkpt lat="42.13969" lon="2.571308">
        <ele>512.0</ele>
    </trkpt>
    <trkpt lat="42.1396" lon="2.571273">
        <ele>511.0</ele>
    </trkpt>
    <trkpt lat="42.139507" lon="2.57121">
        <ele>508.0</ele>
    </trkpt>
    <trkpt lat="42.139425" lon="2.571138">
        <ele>513.0</ele>
    </trkpt>
    <trkpt lat="42.139336" lon="2.571096">
        <ele>514.0</ele>
    </trkpt>
    <trkpt lat="42.139255" lon="2.571004">
        <ele>513.0</ele>
    </trkpt>
    <trkpt lat="42.139182" lon="2.570921">
        <ele>515.0</ele>
    </trkpt>
    <trkpt lat="42.139105" lon="2.570812">
        <ele>516.0</ele>
    </trkpt>
    <trkpt lat="42.139049" lon="2.570693">
        <ele>513.0</ele>
    </trkpt>
    <trkpt lat="42.139002" lon="2.570589">
        <ele>511.0</ele>
    </trkpt>
    <trkpt lat="42.13895" lon="2.570489">
        <ele>513.0</ele>
    </trkpt>
    <trkpt lat="42.138941" lon="2.570367">
        <ele>516.0</ele>
    </trkpt>
    <trkpt lat="42.138929" lon="2.570245">
        <ele>521.0</ele>
    </trkpt>
    <trkpt lat="42.1389" lon="2.570129">
        <ele>523.0</ele>
    </trkpt>
    <trkpt lat="42.138878" lon="2.570009">
        <ele>522.0</ele>
    </trkpt>
    <trkpt lat="42.138846" lon="2.569874">
        <ele>525.0</ele>
    </trkpt>
    <trkpt lat="42.138806" lon="2.569762">
        <ele>529.0</ele>
    </trkpt>
    <trkpt lat="42.138738" lon="2.569659">
        <ele>531.0</ele>
    </trkpt>
    <trkpt lat="42.138661" lon="2.569576">
        <ele>532.0</ele>
    </trkpt>
    <trkpt lat="42.13861" lon="2.569449">
        <ele>531.0</ele>
    </trkpt>
    <trkpt lat="42.138554" lon="2.569349">
        <ele>529.0</ele>
    </trkpt>
    <trkpt lat="42.138489" lon="2.569254">
        <ele>531.0</ele>
    </trkpt>
    <trkpt lat="42.138416" lon="2.569166">
        <ele>531.0</ele>
    </trkpt>
    <trkpt lat="42.138327" lon="2.569123">
        <ele>534.0</ele>
    </trkpt>
    <trkpt lat="42.138228" lon="2.569104">
        <ele>535.0</ele>
    </trkpt>
    <trkpt lat="42.138137" lon="2.569101">
        <ele>536.0</ele>
    </trkpt>
    <trkpt lat="42.13804" lon="2.56909">
        <ele>541.0</ele>
    </trkpt>
    <trkpt lat="42.137947" lon="2.569031">
        <ele>539.0</ele>
    </trkpt>
    <trkpt lat="42.138025" lon="2.568951">
        <ele>542.0</ele>
    </trkpt>
    <trkpt lat="42.13811" lon="2.568898">
        <ele>544.0</ele>
    </trkpt>
    <trkpt lat="42.138203" lon="2.568887">
        <ele>545.0</ele>
    </trkpt>
    <trkpt lat="42.138304" lon="2.568843">
        <ele>545.0</ele>
    </trkpt>
    <trkpt lat="42.138404" lon="2.56879">
        <ele>545.0</ele>
    </trkpt>
    <trkpt lat="42.1385" lon="2.568768">
        <ele>548.0</ele>
    </trkpt>
    <trkpt lat="42.13859" lon="2.568736">
        <ele>549.0</ele>
    </trkpt>
    <trkpt lat="42.138664" lon="2.568667">
        <ele>549.0</ele>
    </trkpt>
    <trkpt lat="42.138702" lon="2.568548">
        <ele>547.0</ele>
    </trkpt>
    <trkpt lat="42.138637" lon="2.568448">
        <ele>548.0</ele>
    </trkpt>
    <trkpt lat="42.138548" lon="2.568406">
        <ele>551.0</ele>
    </trkpt>
    <trkpt lat="42.138453" lon="2.568387">
        <ele>552.0</ele>
    </trkpt>
    <trkpt lat="42.138358" lon="2.568387">
        <ele>555.0</ele>
    </trkpt>
    <trkpt lat="42.138259" lon="2.568383">
        <ele>555.0</ele>
    </trkpt>
    <trkpt lat="42.138153" lon="2.568393">
        <ele>554.0</ele>
    </trkpt>
    <trkpt lat="42.13806" lon="2.568382">
        <ele>556.0</ele>
    </trkpt>
    <trkpt lat="42.137969" lon="2.568407">
        <ele>559.0</ele>
    </trkpt>
    <trkpt lat="42.137871" lon="2.568403">
        <ele>560.0</ele>
    </trkpt>
    <trkpt lat="42.137774" lon="2.568431">
        <ele>563.0</ele>
    </trkpt>
    <trkpt lat="42.137684" lon="2.568437">
        <ele>566.0</ele>
    </trkpt>
    <trkpt lat="42.137591" lon="2.568431">
        <ele>565.0</ele>
    </trkpt>
    <trkpt lat="42.137482" lon="2.568469">
        <ele>574.0</ele>
    </trkpt>
    <trkpt lat="42.137395" lon="2.568517">
        <ele>576.0</ele>
    </trkpt>
    <trkpt lat="42.137306" lon="2.568559">
        <ele>579.0</ele>
    </trkpt>
    <trkpt lat="42.137198" lon="2.568573">
        <ele>583.0</ele>
    </trkpt>
    <trkpt lat="42.137098" lon="2.568619">
        <ele>578.0</ele>
    </trkpt>
    <trkpt lat="42.136997" lon="2.568671">
        <ele>580.0</ele>
    </trkpt>
    <trkpt lat="42.136912" lon="2.56871">
        <ele>580.0</ele>
    </trkpt>
    <trkpt lat="42.136845" lon="2.568793">
        <ele>582.0</ele>
    </trkpt>
    <trkpt lat="42.136742" lon="2.568832">
        <ele>582.0</ele>
    </trkpt>
    <trkpt lat="42.136649" lon="2.568883">
        <ele>583.0</ele>
    </trkpt>
    <trkpt lat="42.136593" lon="2.568988">
        <ele>584.0</ele>
    </trkpt>
    <trkpt lat="42.136536" lon="2.569089">
        <ele>584.0</ele>
    </trkpt>
    <trkpt lat="42.13644" lon="2.569108">
        <ele>585.0</ele>
    </trkpt>
    <trkpt lat="42.136317" lon="2.569179">
        <ele>588.0</ele>
    </trkpt>
    <trkpt lat="42.136205" lon="2.569178">
        <ele>587.0</ele>
    </trkpt>
    <trkpt lat="42.136106" lon="2.56915">
        <ele>586.0</ele>
    </trkpt>
    <trkpt lat="42.136017" lon="2.569176">
        <ele>595.0</ele>
    </trkpt>
    <trkpt lat="42.135901" lon="2.569216">
        <ele>594.0</ele>
    </trkpt>
    <trkpt lat="42.135805" lon="2.569167">
        <ele>594.0</ele>
    </trkpt>
    <trkpt lat="42.135702" lon="2.569203">
        <ele>598.0</ele>
    </trkpt>
    <trkpt lat="42.135617" lon="2.569257">
        <ele>599.0</ele>
    </trkpt>
    <trkpt lat="42.135552" lon="2.569348">
        <ele>603.0</ele>
    </trkpt>
    <trkpt lat="42.135453" lon="2.56935">
        <ele>603.0</ele>
    </trkpt>
    <trkpt lat="42.13537" lon="2.5693">
        <ele>602.0</ele>
    </trkpt>
    <trkpt lat="42.135257" lon="2.569291">
        <ele>604.0</ele>
    </trkpt>
    <trkpt lat="42.134924" lon="2.569026">
        <ele>587.0</ele>
    </trkpt>
    <trkpt lat="42.134833" lon="2.569063">
        <ele>597.0</ele>
    </trkpt>
    <trkpt lat="42.134743" lon="2.569067">
        <ele>602.0</ele>
    </trkpt>
    <trkpt lat="42.134656" lon="2.569015">
        <ele>596.0</ele>
    </trkpt>
    <trkpt lat="42.134579" lon="2.568949">
        <ele>597.0</ele>
    </trkpt>
    <trkpt lat="42.134484" lon="2.568953">
        <ele>600.0</ele>
    </trkpt>
    <trkpt lat="42.134395" lon="2.568916">
        <ele>601.0</ele>
    </trkpt>
    <trkpt lat="42.134304" lon="2.568901">
        <ele>604.0</ele>
    </trkpt>
    <trkpt lat="42.134194" lon="2.568912">
        <ele>604.0</ele>
    </trkpt>
    <trkpt lat="42.134105" lon="2.568893">
        <ele>602.0</ele>
    </trkpt>
    <trkpt lat="42.134017" lon="2.568861">
        <ele>603.0</ele>
    </trkpt>
    <trkpt lat="42.13393" lon="2.568815">
        <ele>604.0</ele>
    </trkpt>
    <trkpt lat="42.133799" lon="2.568771">
        <ele>604.0</ele>
    </trkpt>
    <trkpt lat="42.133705" lon="2.568783">
        <ele>609.0</ele>
    </trkpt>
    <trkpt lat="42.133617" lon="2.568811">
        <ele>613.0</ele>
    </trkpt>
    <trkpt lat="42.133528" lon="2.568859">
        <ele>610.0</ele>
    </trkpt>
    <trkpt lat="42.133426" lon="2.568858">
        <ele>609.0</ele>
    </trkpt>
    <trkpt lat="42.13334" lon="2.568814">
        <ele>607.0</ele>
    </trkpt>
    <trkpt lat="42.133241" lon="2.568801">
        <ele>606.0</ele>
    </trkpt>
    <trkpt lat="42.133163" lon="2.568731">
        <ele>604.0</ele>
    </trkpt>
    <trkpt lat="42.133096" lon="2.568646">
        <ele>602.0</ele>
    </trkpt>
    <trkpt lat="42.133012" lon="2.568551">
        <ele>603.0</ele>
    </trkpt>
    <trkpt lat="42.132927" lon="2.56849">
        <ele>607.0</ele>
    </trkpt>
    <trkpt lat="42.13285" lon="2.568418">
        <ele>608.0</ele>
    </trkpt>
    <trkpt lat="42.132748" lon="2.568397">
        <ele>610.0</ele>
    </trkpt>
    <trkpt lat="42.132653" lon="2.568362">
        <ele>608.0</ele>
    </trkpt>
    <trkpt lat="42.13259" lon="2.568264">
        <ele>608.0</ele>
    </trkpt>
    <trkpt lat="42.132499" lon="2.568258">
        <ele>610.0</ele>
    </trkpt>
    <trkpt lat="42.132396" lon="2.568256">
        <ele>613.0</ele>
    </trkpt>
    <trkpt lat="42.132318" lon="2.568195">
        <ele>613.0</ele>
    </trkpt>
    <trkpt lat="42.132229" lon="2.568137">
        <ele>614.0</ele>
    </trkpt>
    <trkpt lat="42.132142" lon="2.568088">
        <ele>613.0</ele>
    </trkpt>
    <trkpt lat="42.132096" lon="2.567978">
        <ele>616.0</ele>
    </trkpt>
    <trkpt lat="42.132087" lon="2.567835">
        <ele>620.0</ele>
    </trkpt>
    <trkpt lat="42.132036" lon="2.567718">
        <ele>621.0</ele>
    </trkpt>
    <trkpt lat="42.131973" lon="2.567615">
        <ele>614.0</ele>
    </trkpt>
    <trkpt lat="42.131901" lon="2.567522">
        <ele>613.0</ele>
    </trkpt>
    <trkpt lat="42.131818" lon="2.567471">
        <ele>618.0</ele>
    </trkpt>
    <trkpt lat="42.131719" lon="2.567463">
        <ele>617.0</ele>
    </trkpt>
    <trkpt lat="42.131634" lon="2.567423">
        <ele>618.0</ele>
    </trkpt>
    <trkpt lat="42.131577" lon="2.567532">
        <ele>622.0</ele>
    </trkpt>
    <trkpt lat="42.131512" lon="2.567619">
        <ele>628.0</ele>
    </trkpt>
    <trkpt lat="42.131422" lon="2.567639">
        <ele>632.0</ele>
    </trkpt>
    <trkpt lat="42.131342" lon="2.567719">
        <ele>632.0</ele>
    </trkpt>
    <trkpt lat="42.131292" lon="2.567822">
        <ele>634.0</ele>
    </trkpt>
    <trkpt lat="42.13124" lon="2.567922">
        <ele>638.0</ele>
    </trkpt>
    <trkpt lat="42.131147" lon="2.567939">
        <ele>642.0</ele>
    </trkpt>
    <trkpt lat="42.131065" lon="2.567993">
        <ele>645.0</ele>
    </trkpt>
    <trkpt lat="42.130979" lon="2.568037">
        <ele>648.0</ele>
    </trkpt>
    <trkpt lat="42.130894" lon="2.568116">
        <ele>647.0</ele>
    </trkpt>
    <trkpt lat="42.130808" lon="2.568044">
        <ele>649.0</ele>
    </trkpt>
    <trkpt lat="42.130732" lon="2.567976">
        <ele>652.0</ele>
    </trkpt>
    <trkpt lat="42.13067" lon="2.567883">
        <ele>655.0</ele>
    </trkpt>
    <trkpt lat="42.130604" lon="2.567787">
        <ele>660.0</ele>
    </trkpt>
    <trkpt lat="42.130509" lon="2.567809">
        <ele>661.0</ele>
    </trkpt>
    <trkpt lat="42.130419" lon="2.567838">
        <ele>662.0</ele>
    </trkpt>
    <trkpt lat="42.130329" lon="2.567819">
        <ele>661.0</ele>
    </trkpt>
    <trkpt lat="42.13023" lon="2.567839">
        <ele>657.0</ele>
    </trkpt>
    <trkpt lat="42.130142" lon="2.567885">
        <ele>656.0</ele>
    </trkpt>
    <trkpt lat="42.130041" lon="2.567899">
        <ele>659.0</ele>
    </trkpt>
    <trkpt lat="42.129952" lon="2.567918">
        <ele>663.0</ele>
    </trkpt>
    <trkpt lat="42.129862" lon="2.567896">
        <ele>668.0</ele>
    </trkpt>
    <trkpt lat="42.129774" lon="2.567848">
        <ele>667.0</ele>
    </trkpt>
    <trkpt lat="42.129686" lon="2.567783">
        <ele>669.0</ele>
    </trkpt>
    <trkpt lat="42.129611" lon="2.567713">
        <ele>670.0</ele>
    </trkpt>
    <trkpt lat="42.129515" lon="2.5677">
        <ele>669.0</ele>
    </trkpt>
    <trkpt lat="42.129426" lon="2.567747">
        <ele>671.0</ele>
    </trkpt>
    <trkpt lat="42.129341" lon="2.567802">
        <ele>675.0</ele>
    </trkpt>
    <trkpt lat="42.129274" lon="2.567898">
        <ele>677.0</ele>
    </trkpt>
    <trkpt lat="42.129204" lon="2.567989">
        <ele>679.0</ele>
    </trkpt>
    <trkpt lat="42.129128" lon="2.568065">
        <ele>683.0</ele>
    </trkpt>
    <trkpt lat="42.129042" lon="2.568108">
        <ele>684.0</ele>
    </trkpt>
    <trkpt lat="42.128953" lon="2.568126">
        <ele>684.0</ele>
    </trkpt>
    <trkpt lat="42.128927" lon="2.56825">
        <ele>688.0</ele>
    </trkpt>
    <trkpt lat="42.128863" lon="2.568353">
        <ele>690.0</ele>
    </trkpt>
    <trkpt lat="42.128806" lon="2.568452">
        <ele>692.0</ele>
    </trkpt>
    <trkpt lat="42.12873" lon="2.568527">
        <ele>696.0</ele>
    </trkpt>
    <trkpt lat="42.128667" lon="2.568632">
        <ele>700.0</ele>
    </trkpt>
    <trkpt lat="42.128568" lon="2.568643">
        <ele>703.0</ele>
    </trkpt>
    <trkpt lat="42.128478" lon="2.568667">
        <ele>707.0</ele>
    </trkpt>
    <trkpt lat="42.128389" lon="2.568721">
        <ele>711.0</ele>
    </trkpt>
    <trkpt lat="42.1283" lon="2.568771">
        <ele>711.0</ele>
    </trkpt>
    <trkpt lat="42.128225" lon="2.568691">
        <ele>712.0</ele>
    </trkpt>
    <trkpt lat="42.128156" lon="2.568613">
        <ele>719.0</ele>
    </trkpt>
    <trkpt lat="42.128072" lon="2.568681">
        <ele>727.0</ele>
    </trkpt>
    <trkpt lat="42.127982" lon="2.568736">
        <ele>731.0</ele>
    </trkpt>
    <trkpt lat="42.127934" lon="2.568625">
        <ele>732.0</ele>
    </trkpt>
    <trkpt lat="42.127853" lon="2.568566">
        <ele>733.0</ele>
    </trkpt>
    <trkpt lat="42.127916" lon="2.568461">
        <ele>733.0</ele>
    </trkpt>
    <trkpt lat="42.127937" lon="2.568332">
        <ele>731.0</ele>
    </trkpt>
    <trkpt lat="42.127955" lon="2.568199">
        <ele>731.0</ele>
    </trkpt>
    <trkpt lat="42.127937" lon="2.568063">
        <ele>731.0</ele>
    </trkpt>
    <trkpt lat="42.127918" lon="2.567932">
        <ele>730.0</ele>
    </trkpt>
    <trkpt lat="42.127862" lon="2.56782">
        <ele>727.0</ele>
    </trkpt>
    <trkpt lat="42.127834" lon="2.567699">
        <ele>728.0</ele>
    </trkpt>
    <trkpt lat="42.127766" lon="2.567609">
        <ele>728.0</ele>
    </trkpt>
    <trkpt lat="42.127751" lon="2.567484">
        <ele>728.0</ele>
    </trkpt>
    <trkpt lat="42.127745" lon="2.567362">
        <ele>727.0</ele>
    </trkpt>
    <trkpt lat="42.127771" lon="2.567235">
        <ele>728.0</ele>
    </trkpt>
    <trkpt lat="42.127756" lon="2.567108">
        <ele>725.0</ele>
    </trkpt>
    <trkpt lat="42.127747" lon="2.566978">
        <ele>719.0</ele>
    </trkpt>
    <trkpt lat="42.127732" lon="2.566856">
        <ele>721.0</ele>
    </trkpt>
    <trkpt lat="42.127723" lon="2.566731">
        <ele>721.0</ele>
    </trkpt>
    <trkpt lat="42.127657" lon="2.566639">
        <ele>721.0</ele>
    </trkpt>
    <trkpt lat="42.127621" lon="2.566524">
        <ele>718.0</ele>
    </trkpt>
    <trkpt lat="42.127604" lon="2.566392">
        <ele>714.0</ele>
    </trkpt>
    <trkpt lat="42.127524" lon="2.566318">
        <ele>709.0</ele>
    </trkpt>
    <trkpt lat="42.127486" lon="2.566207">
        <ele>707.0</ele>
    </trkpt>
    <trkpt lat="42.127432" lon="2.566104">
        <ele>705.0</ele>
    </trkpt>
    <trkpt lat="42.127405" lon="2.565979">
        <ele>705.0</ele>
    </trkpt>
    <trkpt lat="42.127377" lon="2.565852">
        <ele>699.0</ele>
    </trkpt>
    <trkpt lat="42.127401" lon="2.565732">
        <ele>698.0</ele>
    </trkpt>
    <trkpt lat="42.127372" lon="2.565586">
        <ele>700.0</ele>
    </trkpt>
    <trkpt lat="42.127384" lon="2.565442">
        <ele>701.0</ele>
    </trkpt>
    <trkpt lat="42.12742" lon="2.565329">
        <ele>702.0</ele>
    </trkpt>
    <trkpt lat="42.127428" lon="2.565202">
        <ele>703.0</ele>
    </trkpt>
    <trkpt lat="42.127413" lon="2.565069">
        <ele>701.0</ele>
    </trkpt>
    <trkpt lat="42.12743" lon="2.56494">
        <ele>701.0</ele>
    </trkpt>
    <trkpt lat="42.127454" lon="2.564822">
        <ele>704.0</ele>
    </trkpt>
    <trkpt lat="42.127432" lon="2.564696">
        <ele>705.0</ele>
    </trkpt>
    <trkpt lat="42.127445" lon="2.564576">
        <ele>707.0</ele>
    </trkpt>
    <trkpt lat="42.12749" lon="2.564469">
        <ele>705.0</ele>
    </trkpt>
    <trkpt lat="42.127575" lon="2.564409">
        <ele>707.0</ele>
    </trkpt>
    <trkpt lat="42.127577" lon="2.56428">
        <ele>703.0</ele>
    </trkpt>
    <trkpt lat="42.127585" lon="2.564152">
        <ele>698.0</ele>
    </trkpt>
    <trkpt lat="42.127575" lon="2.564025">
        <ele>693.0</ele>
    </trkpt>
    <trkpt lat="42.12765" lon="2.563939">
        <ele>695.0</ele>
    </trkpt>
    <trkpt lat="42.127742" lon="2.563924">
        <ele>693.0</ele>
    </trkpt>
    <trkpt lat="42.12785" lon="2.563936">
        <ele>691.0</ele>
    </trkpt>
    <trkpt lat="42.127936" lon="2.563981">
        <ele>695.0</ele>
    </trkpt>
    <trkpt lat="42.128016" lon="2.56392">
        <ele>688.0</ele>
    </trkpt>
    <trkpt lat="42.128094" lon="2.563855">
        <ele>684.0</ele>
    </trkpt>
    <trkpt lat="42.128172" lon="2.563781">
        <ele>680.0</ele>
    </trkpt>
    <trkpt lat="42.128259" lon="2.563715">
        <ele>677.0</ele>
    </trkpt>
    <trkpt lat="42.128336" lon="2.563638">
        <ele>672.0</ele>
    </trkpt>
    <trkpt lat="42.128427" lon="2.563596">
        <ele>670.0</ele>
    </trkpt>
    <trkpt lat="42.128438" lon="2.56372">
        <ele>673.0</ele>
    </trkpt>
    <trkpt lat="42.128453" lon="2.563846">
        <ele>667.0</ele>
    </trkpt>
    <trkpt lat="42.128477" lon="2.563972">
        <ele>670.0</ele>
    </trkpt>
    <trkpt lat="42.128478" lon="2.564096">
        <ele>666.0</ele>
    </trkpt>
    <trkpt lat="42.12853" lon="2.564204">
        <ele>668.0</ele>
    </trkpt>
    <trkpt lat="42.128593" lon="2.564297">
        <ele>667.0</ele>
    </trkpt>
    <trkpt lat="42.128643" lon="2.564411">
        <ele>663.0</ele>
    </trkpt>
    <trkpt lat="42.128666" lon="2.564534">
        <ele>665.0</ele>
    </trkpt>
    <trkpt lat="42.128728" lon="2.564625">
        <ele>660.0</ele>
    </trkpt>
    <trkpt lat="42.128812" lon="2.564678">
        <ele>657.0</ele>
    </trkpt>
    <trkpt lat="42.128895" lon="2.56474">
        <ele>655.0</ele>
    </trkpt>
    <trkpt lat="42.128979" lon="2.564818">
        <ele>653.0</ele>
    </trkpt>
    <trkpt lat="42.129072" lon="2.564806">
        <ele>648.0</ele>
    </trkpt>
    <trkpt lat="42.129164" lon="2.564813">
        <ele>647.0</ele>
    </trkpt>
    <trkpt lat="42.129259" lon="2.564808">
        <ele>644.0</ele>
    </trkpt>
    <trkpt lat="42.129335" lon="2.564739">
        <ele>638.0</ele>
    </trkpt>
    <trkpt lat="42.129387" lon="2.564634">
        <ele>636.0</ele>
    </trkpt>
    <trkpt lat="42.129419" lon="2.564517">
        <ele>635.0</ele>
    </trkpt>
    <trkpt lat="42.129429" lon="2.564392">
        <ele>635.0</ele>
    </trkpt>
    <trkpt lat="42.129411" lon="2.564238">
        <ele>636.0</ele>
    </trkpt>
    <trkpt lat="42.12943" lon="2.564117">
        <ele>634.0</ele>
    </trkpt>
    <trkpt lat="42.129521" lon="2.564127">
        <ele>634.0</ele>
    </trkpt>
    <trkpt lat="42.129614" lon="2.56408">
        <ele>632.0</ele>
    </trkpt>
    <trkpt lat="42.129712" lon="2.564053">
        <ele>630.0</ele>
    </trkpt>
    <trkpt lat="42.129812" lon="2.564051">
        <ele>626.0</ele>
    </trkpt>
    <trkpt lat="42.129901" lon="2.56407">
        <ele>623.0</ele>
    </trkpt>
    <trkpt lat="42.129983" lon="2.564131">
        <ele>621.0</ele>
    </trkpt>
    <trkpt lat="42.13006" lon="2.564203">
        <ele>620.0</ele>
    </trkpt>
    <trkpt lat="42.130142" lon="2.564257">
        <ele>619.0</ele>
    </trkpt>
    <trkpt lat="42.130227" lon="2.564323">
        <ele>617.0</ele>
    </trkpt>
    <trkpt lat="42.130326" lon="2.564359">
        <ele>615.0</ele>
    </trkpt>
    <trkpt lat="42.130422" lon="2.564372">
        <ele>614.0</ele>
    </trkpt>
    <trkpt lat="42.130513" lon="2.564388">
        <ele>612.0</ele>
    </trkpt>
    <trkpt lat="42.130604" lon="2.564381">
        <ele>608.0</ele>
    </trkpt>
    <trkpt lat="42.130693" lon="2.564334">
        <ele>605.0</ele>
    </trkpt>
    <trkpt lat="42.130785" lon="2.564329">
        <ele>606.0</ele>
    </trkpt>
    <trkpt lat="42.130863" lon="2.564398">
        <ele>605.0</ele>
    </trkpt>
    <trkpt lat="42.130928" lon="2.564486">
        <ele>606.0</ele>
    </trkpt>
    <trkpt lat="42.130995" lon="2.564575">
        <ele>606.0</ele>
    </trkpt>
    <trkpt lat="42.131008" lon="2.56471">
        <ele>605.0</ele>
    </trkpt>
    <trkpt lat="42.13099" lon="2.564843">
        <ele>605.0</ele>
    </trkpt>
    <trkpt lat="42.130946" lon="2.564959">
        <ele>604.0</ele>
    </trkpt>
    <trkpt lat="42.130878" lon="2.565043">
        <ele>604.0</ele>
    </trkpt>
    <trkpt lat="42.130815" lon="2.565142">
        <ele>603.0</ele>
    </trkpt>
    <trkpt lat="42.130808" lon="2.565269">
        <ele>601.0</ele>
    </trkpt>
    <trkpt lat="42.130807" lon="2.565391">
        <ele>601.0</ele>
    </trkpt>
    <trkpt lat="42.130822" lon="2.565516">
        <ele>600.0</ele>
    </trkpt>
    <trkpt lat="42.130858" lon="2.565628">
        <ele>603.0</ele>
    </trkpt>
    <trkpt lat="42.130938" lon="2.565703">
        <ele>604.0</ele>
    </trkpt>
    <trkpt lat="42.13103" lon="2.565756">
        <ele>605.0</ele>
    </trkpt>
    <trkpt lat="42.131123" lon="2.565753">
        <ele>602.0</ele>
    </trkpt>
    <trkpt lat="42.131195" lon="2.565828">
        <ele>602.0</ele>
    </trkpt>
    <trkpt lat="42.131248" lon="2.565926">
        <ele>601.0</ele>
    </trkpt>
    <trkpt lat="42.131281" lon="2.56604">
        <ele>600.0</ele>
    </trkpt>
    <trkpt lat="42.13133" lon="2.566163">
        <ele>601.0</ele>
    </trkpt>
    <trkpt lat="42.131367" lon="2.566275">
        <ele>602.0</ele>
    </trkpt>
    <trkpt lat="42.131404" lon="2.566394">
        <ele>605.0</ele>
    </trkpt>
    <trkpt lat="42.13145" lon="2.566509">
        <ele>603.0</ele>
    </trkpt>
    <trkpt lat="42.13151" lon="2.566602">
        <ele>602.0</ele>
    </trkpt>
    <trkpt lat="42.131511" lon="2.566732">
        <ele>606.0</ele>
    </trkpt>
    <trkpt lat="42.131568" lon="2.566827">
        <ele>609.0</ele>
    </trkpt>
    <trkpt lat="42.131617" lon="2.566933">
        <ele>608.0</ele>
    </trkpt>
    <trkpt lat="42.131678" lon="2.567024">
        <ele>613.0</ele>
    </trkpt>
    <trkpt lat="42.131743" lon="2.567122">
        <ele>614.0</ele>
    </trkpt>
    <trkpt lat="42.131791" lon="2.567241">
        <ele>617.0</ele>
    </trkpt>
    <trkpt lat="42.131821" lon="2.567372">
        <ele>622.0</ele>
    </trkpt>
    <trkpt lat="42.131844" lon="2.56749">
        <ele>628.0</ele>
    </trkpt>
    <trkpt lat="42.131924" lon="2.567572">
        <ele>626.0</ele>
    </trkpt>
    <trkpt lat="42.131988" lon="2.567664">
        <ele>627.0</ele>
    </trkpt>
    <trkpt lat="42.13207" lon="2.567744">
        <ele>628.0</ele>
    </trkpt>
    <trkpt lat="42.132151" lon="2.567821">
        <ele>626.0</ele>
    </trkpt>
    <trkpt lat="42.132244" lon="2.567831">
        <ele>627.0</ele>
    </trkpt>
    <trkpt lat="42.132344" lon="2.567818">
        <ele>627.0</ele>
    </trkpt>
    <trkpt lat="42.132436" lon="2.567789">
        <ele>630.0</ele>
    </trkpt>
    <trkpt lat="42.132526" lon="2.567786">
        <ele>632.0</ele>
    </trkpt>
    <trkpt lat="42.132621" lon="2.567769">
        <ele>634.0</ele>
    </trkpt>
    <trkpt lat="42.132677" lon="2.567673">
        <ele>636.0</ele>
    </trkpt>
    <trkpt lat="42.13268" lon="2.567549">
        <ele>636.0</ele>
    </trkpt>
    <trkpt lat="42.132731" lon="2.567449">
        <ele>635.0</ele>
    </trkpt>
    <trkpt lat="42.132819" lon="2.56741">
        <ele>639.0</ele>
    </trkpt>
    <trkpt lat="42.132905" lon="2.567448">
        <ele>640.0</ele>
    </trkpt>
    <trkpt lat="42.132966" lon="2.56754">
        <ele>640.0</ele>
    </trkpt>
    <trkpt lat="42.13305" lon="2.567591">
        <ele>644.0</ele>
    </trkpt>
    <trkpt lat="42.133121" lon="2.567672">
        <ele>644.0</ele>
    </trkpt>
    <trkpt lat="42.133206" lon="2.56761">
        <ele>648.0</ele>
    </trkpt>
    <trkpt lat="42.133281" lon="2.567681">
        <ele>647.0</ele>
    </trkpt>
    <trkpt lat="42.133364" lon="2.567753">
        <ele>648.0</ele>
    </trkpt>
    <trkpt lat="42.133442" lon="2.56782">
        <ele>645.0</ele>
    </trkpt>
    <trkpt lat="42.133535" lon="2.567841">
        <ele>643.0</ele>
    </trkpt>
    <trkpt lat="42.133631" lon="2.567889">
        <ele>640.0</ele>
    </trkpt>
    <trkpt lat="42.13372" lon="2.567926">
        <ele>639.0</ele>
    </trkpt>
    <trkpt lat="42.133812" lon="2.567926">
        <ele>639.0</ele>
    </trkpt>
    <trkpt lat="42.13391" lon="2.567933">
        <ele>639.0</ele>
    </trkpt>
    <trkpt lat="42.134008" lon="2.567951">
        <ele>639.0</ele>
    </trkpt>
    <trkpt lat="42.134109" lon="2.567931">
        <ele>642.0</ele>
    </trkpt>
    <trkpt lat="42.134202" lon="2.567937">
        <ele>640.0</ele>
    </trkpt>
    <trkpt lat="42.134295" lon="2.567977">
        <ele>639.0</ele>
    </trkpt>
    <trkpt lat="42.134385" lon="2.567947">
        <ele>640.0</ele>
    </trkpt>
    <trkpt lat="42.134476" lon="2.567997">
        <ele>638.0</ele>
    </trkpt>
    <trkpt lat="42.134572" lon="2.567961">
        <ele>637.0</ele>
    </trkpt>
    <trkpt lat="42.134658" lon="2.568005">
        <ele>638.0</ele>
    </trkpt>
    <trkpt lat="42.134755" lon="2.567969">
        <ele>636.0</ele>
    </trkpt>
    <trkpt lat="42.13483" lon="2.568036">
        <ele>636.0</ele>
    </trkpt>
    <trkpt lat="42.13492" lon="2.568099">
        <ele>638.0</ele>
    </trkpt>
    <trkpt lat="42.134976" lon="2.568202">
        <ele>636.0</ele>
    </trkpt>
    <trkpt lat="42.135063" lon="2.568235">
        <ele>636.0</ele>
    </trkpt>
    <trkpt lat="42.135155" lon="2.568249">
        <ele>635.0</ele>
    </trkpt>
    <trkpt lat="42.135242" lon="2.568317">
        <ele>637.0</ele>
    </trkpt>
    <trkpt lat="42.135349" lon="2.568328">
        <ele>636.0</ele>
    </trkpt>
    <trkpt lat="42.135431" lon="2.568269">
        <ele>639.0</ele>
    </trkpt>
    <trkpt lat="42.135523" lon="2.568266">
        <ele>637.0</ele>
    </trkpt>
    <trkpt lat="42.135602" lon="2.568203">
        <ele>634.0</ele>
    </trkpt>
    <trkpt lat="42.135703" lon="2.56824">
        <ele>632.0</ele>
    </trkpt>
    <trkpt lat="42.13579" lon="2.568278">
        <ele>628.0</ele>
    </trkpt>
    <trkpt lat="42.135889" lon="2.568304">
        <ele>626.0</ele>
    </trkpt>
    <trkpt lat="42.135982" lon="2.568304">
        <ele>624.0</ele>
    </trkpt>
    <trkpt lat="42.136074" lon="2.568301">
        <ele>622.0</ele>
    </trkpt>
    <trkpt lat="42.136167" lon="2.568282">
        <ele>616.0</ele>
    </trkpt>
    <trkpt lat="42.136198" lon="2.568396">
        <ele>617.0</ele>
    </trkpt>
    <trkpt lat="42.136201" lon="2.568528">
        <ele>618.0</ele>
    </trkpt>
    <trkpt lat="42.136293" lon="2.568579">
        <ele>611.0</ele>
    </trkpt>
    <trkpt lat="42.136389" lon="2.56856">
        <ele>610.0</ele>
    </trkpt>
    <trkpt lat="42.136449" lon="2.568465">
        <ele>609.0</ele>
    </trkpt>
    <trkpt lat="42.136518" lon="2.568382">
        <ele>605.0</ele>
    </trkpt>
    <trkpt lat="42.136532" lon="2.568255">
        <ele>604.0</ele>
    </trkpt>
    <trkpt lat="42.136536" lon="2.568134">
        <ele>603.0</ele>
    </trkpt>
    <trkpt lat="42.136635" lon="2.568142">
        <ele>596.0</ele>
    </trkpt>
    <trkpt lat="42.136724" lon="2.568119">
        <ele>595.0</ele>
    </trkpt>
    <trkpt lat="42.136785" lon="2.568022">
        <ele>593.0</ele>
    </trkpt>
    <trkpt lat="42.136879" lon="2.568033">
        <ele>591.0</ele>
    </trkpt>
    <trkpt lat="42.136954" lon="2.567957">
        <ele>588.0</ele>
    </trkpt>
    <trkpt lat="42.137022" lon="2.567868">
        <ele>586.0</ele>
    </trkpt>
    <trkpt lat="42.137095" lon="2.567791">
        <ele>585.0</ele>
    </trkpt>
    <trkpt lat="42.137163" lon="2.567698">
        <ele>583.0</ele>
    </trkpt>
    <trkpt lat="42.137229" lon="2.56761">
        <ele>581.0</ele>
    </trkpt>
    <trkpt lat="42.137312" lon="2.567542">
        <ele>580.0</ele>
    </trkpt>
    <trkpt lat="42.137403" lon="2.567497">
        <ele>579.0</ele>
    </trkpt>
    <trkpt lat="42.13748" lon="2.567434">
        <ele>579.0</ele>
    </trkpt>
    <trkpt lat="42.137511" lon="2.567313">
        <ele>578.0</ele>
    </trkpt>
    <trkpt lat="42.137498" lon="2.567183">
        <ele>575.0</ele>
    </trkpt>
    <trkpt lat="42.137454" lon="2.567052">
        <ele>578.0</ele>
    </trkpt>
    <trkpt lat="42.137421" lon="2.566911">
        <ele>575.0</ele>
    </trkpt>
    <trkpt lat="42.13739" lon="2.56679">
        <ele>574.0</ele>
    </trkpt>
    <trkpt lat="42.1374" lon="2.566658">
        <ele>574.0</ele>
    </trkpt>
    <trkpt lat="42.137409" lon="2.566531">
        <ele>574.0</ele>
    </trkpt>
    <trkpt lat="42.137476" lon="2.566432">
        <ele>576.0</ele>
    </trkpt>
    <trkpt lat="42.137519" lon="2.566312">
        <ele>569.0</ele>
    </trkpt>
    <trkpt lat="42.137587" lon="2.56623">
        <ele>567.0</ele>
    </trkpt>
    <trkpt lat="42.137639" lon="2.566129">
        <ele>563.0</ele>
    </trkpt>
    <trkpt lat="42.137724" lon="2.56609">
        <ele>564.0</ele>
    </trkpt>
    <trkpt lat="42.137718" lon="2.566225">
        <ele>567.0</ele>
    </trkpt>
    <trkpt lat="42.137699" lon="2.566344">
        <ele>567.0</ele>
    </trkpt>
    <trkpt lat="42.137722" lon="2.566473">
        <ele>566.0</ele>
    </trkpt>
    <trkpt lat="42.137737" lon="2.566613">
        <ele>566.0</ele>
    </trkpt>
    <trkpt lat="42.137761" lon="2.566742">
        <ele>563.0</ele>
    </trkpt>
    <trkpt lat="42.137824" lon="2.566838">
        <ele>562.0</ele>
    </trkpt>
    <trkpt lat="42.137869" lon="2.566947">
        <ele>561.0</ele>
    </trkpt>
    <trkpt lat="42.137906" lon="2.567074">
        <ele>560.0</ele>
    </trkpt>
    <trkpt lat="42.137975" lon="2.567167">
        <ele>557.0</ele>
    </trkpt>
    <trkpt lat="42.13805" lon="2.567255">
        <ele>558.0</ele>
    </trkpt>
    <trkpt lat="42.138122" lon="2.567345">
        <ele>560.0</ele>
    </trkpt>
    <trkpt lat="42.138188" lon="2.567451">
        <ele>557.0</ele>
    </trkpt>
    <trkpt lat="42.138256" lon="2.567553">
        <ele>557.0</ele>
    </trkpt>
    <trkpt lat="42.138311" lon="2.567651">
        <ele>558.0</ele>
    </trkpt>
    <trkpt lat="42.138369" lon="2.567746">
        <ele>554.0</ele>
    </trkpt>
    <trkpt lat="42.138429" lon="2.567843">
        <ele>554.0</ele>
    </trkpt>
    <trkpt lat="42.138505" lon="2.567926">
        <ele>554.0</ele>
    </trkpt>
    <trkpt lat="42.138572" lon="2.568026">
        <ele>553.0</ele>
    </trkpt>
    <trkpt lat="42.138637" lon="2.568127">
        <ele>553.0</ele>
    </trkpt>
    <trkpt lat="42.138676" lon="2.568242">
        <ele>552.0</ele>
    </trkpt>
    <trkpt lat="42.138673" lon="2.568372">
        <ele>552.0</ele>
    </trkpt>
    <trkpt lat="42.138733" lon="2.568282">
        <ele>556.0</ele>
    </trkpt>
    <trkpt lat="42.138819" lon="2.568231">
        <ele>551.0</ele>
    </trkpt>
    <trkpt lat="42.138854" lon="2.568101">
        <ele>547.0</ele>
    </trkpt>
    <trkpt lat="42.138937" lon="2.568025">
        <ele>544.0</ele>
    </trkpt>
    <trkpt lat="42.13902" lon="2.567955">
        <ele>545.0</ele>
    </trkpt>
    <trkpt lat="42.139097" lon="2.567879">
        <ele>549.0</ele>
    </trkpt>
    <trkpt lat="42.139174" lon="2.567812">
        <ele>542.0</ele>
    </trkpt>
    <trkpt lat="42.139256" lon="2.567744">
        <ele>543.0</ele>
    </trkpt>
    <trkpt lat="42.139307" lon="2.567643">
        <ele>543.0</ele>
    </trkpt>
    <trkpt lat="42.139365" lon="2.567527">
        <ele>541.0</ele>
    </trkpt>
    <trkpt lat="42.139425" lon="2.567428">
        <ele>539.0</ele>
    </trkpt>
    <trkpt lat="42.13948" lon="2.567325">
        <ele>537.0</ele>
    </trkpt>
    <trkpt lat="42.13953" lon="2.567224">
        <ele>536.0</ele>
    </trkpt>
    <trkpt lat="42.139562" lon="2.567108">
        <ele>535.0</ele>
    </trkpt>
    <trkpt lat="42.139605" lon="2.567">
        <ele>535.0</ele>
    </trkpt>
    <trkpt lat="42.139654" lon="2.566882">
        <ele>539.0</ele>
    </trkpt>
    <trkpt lat="42.139688" lon="2.566766">
        <ele>536.0</ele>
    </trkpt>
    <trkpt lat="42.139728" lon="2.566631">
        <ele>532.0</ele>
    </trkpt>
    <trkpt lat="42.139784" lon="2.566527">
        <ele>530.0</ele>
    </trkpt>
    <trkpt lat="42.139837" lon="2.566423">
        <ele>532.0</ele>
    </trkpt>
    <trkpt lat="42.139915" lon="2.566341">
        <ele>530.0</ele>
    </trkpt>
    <trkpt lat="42.139985" lon="2.56626">
        <ele>526.0</ele>
    </trkpt>
    <trkpt lat="42.140061" lon="2.566193">
        <ele>523.0</ele>
    </trkpt>
    <trkpt lat="42.140129" lon="2.566111">
        <ele>520.0</ele>
    </trkpt>
    <trkpt lat="42.140151" lon="2.565986">
        <ele>518.0</ele>
    </trkpt>
    <trkpt lat="42.140198" lon="2.565866">
        <ele>515.0</ele>
    </trkpt>
    <trkpt lat="42.140284" lon="2.565788">
        <ele>515.0</ele>
    </trkpt>
    <trkpt lat="42.140374" lon="2.565745">
        <ele>514.0</ele>
    </trkpt>
    <trkpt lat="42.140467" lon="2.565726">
        <ele>514.0</ele>
    </trkpt>
    <trkpt lat="42.140574" lon="2.565714">
        <ele>514.0</ele>
    </trkpt>
    <trkpt lat="42.140672" lon="2.565667">
        <ele>513.0</ele>
    </trkpt>
    <trkpt lat="42.140768" lon="2.565634">
        <ele>512.0</ele>
    </trkpt>
    <trkpt lat="42.140853" lon="2.565577">
        <ele>512.0</ele>
    </trkpt>
    <trkpt lat="42.140938" lon="2.565509">
        <ele>509.0</ele>
    </trkpt>
    <trkpt lat="42.141036" lon="2.565517">
        <ele>508.0</ele>
    </trkpt>
    <trkpt lat="42.141093" lon="2.565638">
        <ele>510.0</ele>
    </trkpt>
    <trkpt lat="42.14118" lon="2.565695">
        <ele>513.0</ele>
    </trkpt>
    <trkpt lat="42.141279" lon="2.565708">
        <ele>515.0</ele>
    </trkpt>
    <trkpt lat="42.141385" lon="2.56569">
        <ele>513.0</ele>
    </trkpt>
    <trkpt lat="42.141474" lon="2.565725">
        <ele>509.0</ele>
    </trkpt>
    <trkpt lat="42.141572" lon="2.565702">
        <ele>506.0</ele>
    </trkpt>
    <trkpt lat="42.141667" lon="2.565703">
        <ele>505.0</ele>
    </trkpt>
    <trkpt lat="42.141769" lon="2.565695">
        <ele>506.0</ele>
    </trkpt>
    <trkpt lat="42.141861" lon="2.565667">
        <ele>503.0</ele>
    </trkpt>
    <trkpt lat="42.141951" lon="2.565651">
        <ele>501.0</ele>
    </trkpt>
    <trkpt lat="42.142046" lon="2.565675">
        <ele>501.0</ele>
    </trkpt>
    <trkpt lat="42.142149" lon="2.565673">
        <ele>505.0</ele>
    </trkpt>
    <trkpt lat="42.14226" lon="2.56569">
        <ele>504.0</ele>
    </trkpt>
    <trkpt lat="42.142355" lon="2.565653">
        <ele>505.0</ele>
    </trkpt>
    <trkpt lat="42.142447" lon="2.565657">
        <ele>504.0</ele>
    </trkpt>
    <trkpt lat="42.142546" lon="2.565651">
        <ele>506.0</ele>
    </trkpt>
    <trkpt lat="42.142603" lon="2.565748">
        <ele>508.0</ele>
    </trkpt>
    <trkpt lat="42.142705" lon="2.565771">
        <ele>508.0</ele>
    </trkpt>
    <trkpt lat="42.142803" lon="2.565761">
        <ele>510.0</ele>
    </trkpt>
    <trkpt lat="42.142893" lon="2.565818">
        <ele>507.0</ele>
    </trkpt>
    <trkpt lat="42.142986" lon="2.565838">
        <ele>503.0</ele>
    </trkpt>
    <trkpt lat="42.143075" lon="2.565818">
        <ele>502.0</ele>
    </trkpt>
    <trkpt lat="42.143149" lon="2.565922">
        <ele>507.0</ele>
    </trkpt>
    <trkpt lat="42.143219" lon="2.566008">
        <ele>511.0</ele>
    </trkpt>
    <trkpt lat="42.143268" lon="2.56612">
        <ele>515.0</ele>
    </trkpt>
    <trkpt lat="42.143333" lon="2.566217">
        <ele>518.0</ele>
    </trkpt>
    <trkpt lat="42.14339" lon="2.566311">
        <ele>517.0</ele>
    </trkpt>
    <trkpt lat="42.143415" lon="2.566433">
        <ele>520.0</ele>
    </trkpt>
    <trkpt lat="42.143482" lon="2.566515">
        <ele>519.0</ele>
    </trkpt>
    <trkpt lat="42.143536" lon="2.566617">
        <ele>521.0</ele>
    </trkpt>
    <trkpt lat="42.143622" lon="2.566698">
        <ele>519.0</ele>
    </trkpt>
    <trkpt lat="42.143629" lon="2.566825">
        <ele>516.0</ele>
    </trkpt>
    <trkpt lat="42.143692" lon="2.566928">
        <ele>513.0</ele>
    </trkpt>
    <trkpt lat="42.143731" lon="2.567055">
        <ele>510.0</ele>
    </trkpt>
    <trkpt lat="42.143742" lon="2.567194">
        <ele>508.0</ele>
    </trkpt>
    <trkpt lat="42.14371" lon="2.567314">
        <ele>507.0</ele>
    </trkpt>
    <trkpt lat="42.143738" lon="2.567434">
        <ele>510.0</ele>
    </trkpt>
    <trkpt lat="42.143752" lon="2.567566">
        <ele>507.0</ele>
    </trkpt>
    <trkpt lat="42.143803" lon="2.567699">
        <ele>502.0</ele>
    </trkpt>
    <trkpt lat="42.143813" lon="2.567824">
        <ele>504.0</ele>
    </trkpt>
    <trkpt lat="42.143839" lon="2.567942">
        <ele>504.0</ele>
    </trkpt>
    <trkpt lat="42.143891" lon="2.568057">
        <ele>506.0</ele>
    </trkpt>
    <trkpt lat="42.143957" lon="2.568162">
        <ele>501.0</ele>
    </trkpt>
    <trkpt lat="42.144034" lon="2.568239">
        <ele>502.0</ele>
    </trkpt>
    <trkpt lat="42.14411" lon="2.568317">
        <ele>500.0</ele>
    </trkpt>
    <trkpt lat="42.144173" lon="2.568425">
        <ele>499.0</ele>
    </trkpt>
    <trkpt lat="42.144271" lon="2.568432">
        <ele>497.0</ele>
    </trkpt>
    <trkpt lat="42.144289" lon="2.568554">
        <ele>493.0</ele>
    </trkpt>
    <trkpt lat="42.144325" lon="2.568666">
        <ele>495.0</ele>
    </trkpt>
    <trkpt lat="42.144427" lon="2.56872">
        <ele>496.0</ele>
    </trkpt>
    <trkpt lat="42.144546" lon="2.568691">
        <ele>497.0</ele>
    </trkpt>
    <trkpt lat="42.144453" lon="2.568729">
        <ele>497.0</ele>
    </trkpt>
    <trkpt lat="42.144437" lon="2.56885">
        <ele>495.0</ele>
    </trkpt>
    <trkpt lat="42.144406" lon="2.568974">
        <ele>498.0</ele>
    </trkpt>
    <trkpt lat="42.144427" lon="2.569099">
        <ele>504.0</ele>
    </trkpt>
    <trkpt lat="42.144401" lon="2.569217">
        <ele>499.0</ele>
    </trkpt>
    <trkpt lat="42.144442" lon="2.569334">
        <ele>497.0</ele>
    </trkpt>
    <trkpt lat="42.144407" lon="2.569474">
        <ele>491.0</ele>
    </trkpt>
    <trkpt lat="42.144315" lon="2.569543">
        <ele>489.0</ele>
    </trkpt>
    <trkpt lat="42.144249" lon="2.56965">
        <ele>490.0</ele>
    </trkpt>
    <trkpt lat="42.144175" lon="2.569729">
        <ele>491.0</ele>
    </trkpt>
    <trkpt lat="42.144092" lon="2.569794">
        <ele>487.0</ele>
    </trkpt>
    <trkpt lat="42.144022" lon="2.569883">
        <ele>488.0</ele>
    </trkpt>
    <trkpt lat="42.143966" lon="2.56999">
        <ele>487.0</ele>
    </trkpt>
    <trkpt lat="42.14392" lon="2.570097">
        <ele>490.0</ele>
    </trkpt>
    <trkpt lat="42.143935" lon="2.570216">
        <ele>491.0</ele>
    </trkpt>
    <trkpt lat="42.143966" lon="2.570341">
        <ele>492.0</ele>
    </trkpt>
    <trkpt lat="42.14405" lon="2.570389">
        <ele>489.0</ele>
    </trkpt>
    <trkpt lat="42.144007" lon="2.570527">
        <ele>485.0</ele>
    </trkpt>
    <trkpt lat="42.144024" lon="2.570649">
        <ele>484.0</ele>
    </trkpt>
    <trkpt lat="42.143975" lon="2.570753">
        <ele>486.0</ele>
    </trkpt>
    <trkpt lat="42.143991" lon="2.570886">
        <ele>490.0</ele>
    </trkpt>
    <trkpt lat="42.14396" lon="2.570952">
        <ele>491.5</ele>
        <extensions>
        <gpxtpx:TrackPointExtension>
        <gpxtpx:Extensions>
            <surface>paving_stones</surface>
        </gpxtpx:Extensions>
        </gpxtpx:TrackPointExtension>
        </extensions>
    </trkpt>
    </trkseg>
</trk>
</gpx>