<?xml version="1.0" encoding="UTF-8"?>
<gpx xmlns:xsi="http://www.w3.org/2001/XMLSchema-instance" xmlns="http://www.topografix.com/GPX/1/1" xsi:schemaLocation="http://www.topografix.com/GPX/1/1 http://www.topografix.com/GPX/1/1/gpx.xsd http://www.garmin.com/xmlschemas/GpxExtensions/v3 http://www.garmin.com/xmlschemas/GpxExtensionsv3.xsd http://www.garmin.com/xmlschemas/TrackPointExtension/v1 http://www.garmin.com/xmlschemas/TrackPointExtensionv1.xsd http://www.topografix.com/GPX/gpx_style/0/2 http://www.topografix.com/GPX/gpx_style/0/2/gpx_style.xsd" xmlns:gpxtpx="http://www.garmin.com/xmlschemas/TrackPointExtension/v1" xmlns:gpxx="http://www.garmin.com/xmlschemas/GpxExtensions/v3" xmlns:gpx_style="http://www.topografix.com/GPX/gpx_style/0/2" version="1.1" creator="Wikiloc - https://www.wikiloc.com">
<metadata>
    <name>R9 - Torre òptica del Croscat (c)</name>
    <author>
        <name>gpx.studio</name>
        <link href="https://gpx.studio"></link>
    </author>
</metadata>
<wpt lat="42.154000703742064" lon="2.5359801700302014">
    <ele>780.6</ele>
    <name>Torre òptica del Croscat</name>
    <sym>Geographic place name, Man-made</sym>
</wpt>
<wpt lat="42.15410193842704" lon="2.5359099955274322">
    <ele>779.9</ele>
    <name>Volcà del Croscat</name>
    <sym>Summit</sym>
</wpt>
<wpt lat="42.15425841676978" lon="2.5369666784939997">
    <ele>751.2</ele>
    <name>Mirador</name>
    <sym>Scenic Area</sym>
</wpt>
<trk>
    <name>Volcà del Croscat i torre del Croscat (100 cim #31)</name>
    <type>Running</type>
    <extensions>
        <gpx_style:line>
        <color>db00a1</color>
        <opacity>0.7</opacity>
        <weight>3</weight>
        </gpx_style:line>
    </extensions>
    <trkseg>
    <trkpt lat="42.149441" lon="2.531699">
        <ele>618.4</ele>
        <time>2020-06-13T10:46:07.451Z</time>
    </trkpt>
    <trkpt lat="42.149366" lon="2.531861">
        <ele>621.8</ele>
        <time>2020-06-13T10:46:18.451Z</time>
    </trkpt>
    <trkpt lat="42.149349" lon="2.53192">
        <ele>622.8</ele>
        <time>2020-06-13T10:46:23.451Z</time>
    </trkpt>
    <trkpt lat="42.149324" lon="2.531985">
        <ele>624.1</ele>
        <time>2020-06-13T10:46:28.451Z</time>
    </trkpt>
    <trkpt lat="42.149312" lon="2.532057">
        <ele>624.9</ele>
        <time>2020-06-13T10:46:33.451Z</time>
    </trkpt>
    <trkpt lat="42.14928" lon="2.532156">
        <ele>626.4</ele>
        <time>2020-06-13T10:46:40.451Z</time>
    </trkpt>
    <trkpt lat="42.149239" lon="2.532208">
        <ele>627.4</ele>
        <time>2020-06-13T10:46:44.451Z</time>
    </trkpt>
    <trkpt lat="42.14921" lon="2.53227">
        <ele>627.7</ele>
        <time>2020-06-13T10:46:48.451Z</time>
    </trkpt>
    <trkpt lat="42.149217" lon="2.532339">
        <ele>627.0</ele>
        <time>2020-06-13T10:46:52.451Z</time>
    </trkpt>
    <trkpt lat="42.149267" lon="2.532455">
        <ele>625.8</ele>
        <time>2020-06-13T10:46:58.451Z</time>
    </trkpt>
    <trkpt lat="42.149267" lon="2.532529">
        <ele>625.6</ele>
        <time>2020-06-13T10:47:02.451Z</time>
    </trkpt>
    <trkpt lat="42.149261" lon="2.532596">
        <ele>625.7</ele>
        <time>2020-06-13T10:47:06.451Z</time>
    </trkpt>
    <trkpt lat="42.149255" lon="2.532672">
        <ele>625.7</ele>
        <time>2020-06-13T10:47:10.451Z</time>
    </trkpt>
    <trkpt lat="42.149265" lon="2.532746">
        <ele>625.7</ele>
        <time>2020-06-13T10:47:15.451Z</time>
    </trkpt>
    <trkpt lat="42.149289" lon="2.532823">
        <ele>625.8</ele>
        <time>2020-06-13T10:47:20.451Z</time>
    </trkpt>
    <trkpt lat="42.149294" lon="2.532898">
        <ele>625.9</ele>
        <time>2020-06-13T10:47:24.451Z</time>
    </trkpt>
    <trkpt lat="42.149315" lon="2.532979">
        <ele>626.2</ele>
        <time>2020-06-13T10:47:30.451Z</time>
    </trkpt>
    <trkpt lat="42.14932" lon="2.533043">
        <ele>626.6</ele>
        <time>2020-06-13T10:47:34.451Z</time>
    </trkpt>
    <trkpt lat="42.149319" lon="2.533113">
        <ele>627.0</ele>
        <time>2020-06-13T10:47:38.451Z</time>
    </trkpt>
    <trkpt lat="42.149323" lon="2.533177">
        <ele>627.3</ele>
        <time>2020-06-13T10:47:42.451Z</time>
    </trkpt>
    <trkpt lat="42.149364" lon="2.533304">
        <ele>628.6</ele>
        <time>2020-06-13T10:47:51.451Z</time>
    </trkpt>
    <trkpt lat="42.149364" lon="2.533373">
        <ele>628.7</ele>
        <time>2020-06-13T10:47:56.451Z</time>
    </trkpt>
    <trkpt lat="42.149396" lon="2.533499">
        <ele>628.4</ele>
        <time>2020-06-13T10:48:06.451Z</time>
    </trkpt>
    <trkpt lat="42.149374" lon="2.53356">
        <ele>627.9</ele>
        <time>2020-06-13T10:48:11.451Z</time>
    </trkpt>
    <trkpt lat="42.149406" lon="2.533622">
        <ele>627.7</ele>
        <time>2020-06-13T10:48:16.451Z</time>
    </trkpt>
    <trkpt lat="42.149422" lon="2.533685">
        <ele>627.5</ele>
        <time>2020-06-13T10:48:20.451Z</time>
    </trkpt>
    <trkpt lat="42.149404" lon="2.533756">
        <ele>627.0</ele>
        <time>2020-06-13T10:48:23.451Z</time>
    </trkpt>
    <trkpt lat="42.14938" lon="2.533811">
        <ele>626.6</ele>
        <time>2020-06-13T10:48:26.451Z</time>
    </trkpt>
    <trkpt lat="42.149407" lon="2.533864">
        <ele>626.6</ele>
        <time>2020-06-13T10:48:30.451Z</time>
    </trkpt>
    <trkpt lat="42.149417" lon="2.533929">
        <ele>627.0</ele>
        <time>2020-06-13T10:48:34.451Z</time>
    </trkpt>
    <trkpt lat="42.149387" lon="2.534047">
        <ele>627.2</ele>
        <time>2020-06-13T10:48:41.451Z</time>
    </trkpt>
    <trkpt lat="42.149401" lon="2.534116">
        <ele>627.9</ele>
        <time>2020-06-13T10:48:46.451Z</time>
    </trkpt>
    <trkpt lat="42.149433" lon="2.53417">
        <ele>628.9</ele>
        <time>2020-06-13T10:48:51.451Z</time>
    </trkpt>
    <trkpt lat="42.149472" lon="2.534219">
        <ele>629.7</ele>
        <time>2020-06-13T10:48:55.451Z</time>
    </trkpt>
    <trkpt lat="42.149529" lon="2.534315">
        <ele>630.6</ele>
        <time>2020-06-13T10:49:04.451Z</time>
    </trkpt>
    <trkpt lat="42.149547" lon="2.534376">
        <ele>631.0</ele>
        <time>2020-06-13T10:49:08.451Z</time>
    </trkpt>
    <trkpt lat="42.149545" lon="2.534438">
        <ele>631.3</ele>
        <time>2020-06-13T10:49:11.451Z</time>
    </trkpt>
    <trkpt lat="42.149518" lon="2.534556">
        <ele>631.7</ele>
        <time>2020-06-13T10:49:17.451Z</time>
    </trkpt>
    <trkpt lat="42.149517" lon="2.53462">
        <ele>631.8</ele>
        <time>2020-06-13T10:49:23.451Z</time>
    </trkpt>
    <trkpt lat="42.149521" lon="2.534742">
        <ele>631.9</ele>
        <time>2020-06-13T10:49:30.451Z</time>
    </trkpt>
    <trkpt lat="42.14945" lon="2.534816">
        <ele>632.9</ele>
        <time>2020-06-13T10:49:37.451Z</time>
    </trkpt>
    <trkpt lat="42.149424" lon="2.534876">
        <ele>633.1</ele>
        <time>2020-06-13T10:49:41.451Z</time>
    </trkpt>
    <trkpt lat="42.149491" lon="2.535034">
        <ele>632.0</ele>
        <time>2020-06-13T10:49:51.451Z</time>
    </trkpt>
    <trkpt lat="42.149488" lon="2.535103">
        <ele>632.0</ele>
        <time>2020-06-13T10:49:55.451Z</time>
    </trkpt>
    <trkpt lat="42.149457" lon="2.535231">
        <ele>632.7</ele>
        <time>2020-06-13T10:50:03.451Z</time>
    </trkpt>
    <trkpt lat="42.149484" lon="2.535303">
        <ele>632.0</ele>
        <time>2020-06-13T10:50:07.451Z</time>
    </trkpt>
    <trkpt lat="42.149539" lon="2.535401">
        <ele>630.2</ele>
        <time>2020-06-13T10:50:12.451Z</time>
    </trkpt>
    <trkpt lat="42.149533" lon="2.535473">
        <ele>630.1</ele>
        <time>2020-06-13T10:50:16.451Z</time>
    </trkpt>
    <trkpt lat="42.149525" lon="2.5356">
        <ele>629.5</ele>
        <time>2020-06-13T10:50:23.451Z</time>
    </trkpt>
    <trkpt lat="42.149504" lon="2.535663">
        <ele>629.2</ele>
        <time>2020-06-13T10:50:27.451Z</time>
    </trkpt>
    <trkpt lat="42.14947" lon="2.535787">
        <ele>628.2</ele>
        <time>2020-06-13T10:50:35.451Z</time>
    </trkpt>
    <trkpt lat="42.149476" lon="2.535849">
        <ele>627.2</ele>
        <time>2020-06-13T10:50:39.451Z</time>
    </trkpt>
    <trkpt lat="42.149456" lon="2.535909">
        <ele>626.8</ele>
        <time>2020-06-13T10:50:43.451Z</time>
    </trkpt>
    <trkpt lat="42.149424" lon="2.535961">
        <ele>626.9</ele>
        <time>2020-06-13T10:50:48.451Z</time>
    </trkpt>
    <trkpt lat="42.149373" lon="2.535994">
        <ele>628.3</ele>
        <time>2020-06-13T10:51:06.451Z</time>
    </trkpt>
    <trkpt lat="42.149327" lon="2.536101">
        <ele>628.9</ele>
        <time>2020-06-13T10:51:13.451Z</time>
    </trkpt>
    <trkpt lat="42.149308" lon="2.536164">
        <ele>628.7</ele>
        <time>2020-06-13T10:51:17.451Z</time>
    </trkpt>
    <trkpt lat="42.149299" lon="2.536225">
        <ele>628.2</ele>
        <time>2020-06-13T10:51:21.451Z</time>
    </trkpt>
    <trkpt lat="42.14934" lon="2.536353">
        <ele>624.8</ele>
        <time>2020-06-13T10:51:28.451Z</time>
    </trkpt>
    <trkpt lat="42.149356" lon="2.536458">
        <ele>622.8</ele>
        <time>2020-06-13T10:51:35.451Z</time>
    </trkpt>
    <trkpt lat="42.149321" lon="2.536518">
        <ele>623.5</ele>
        <time>2020-06-13T10:51:39.451Z</time>
    </trkpt>
    <trkpt lat="42.149256" lon="2.536597">
        <ele>625.0</ele>
        <time>2020-06-13T10:51:46.451Z</time>
    </trkpt>
    <trkpt lat="42.149234" lon="2.536662">
        <ele>624.9</ele>
        <time>2020-06-13T10:51:50.451Z</time>
    </trkpt>
    <trkpt lat="42.149216" lon="2.536799">
        <ele>623.0</ele>
        <time>2020-06-13T10:51:58.451Z</time>
    </trkpt>
    <trkpt lat="42.149185" lon="2.536878">
        <ele>622.1</ele>
        <time>2020-06-13T10:52:03.451Z</time>
    </trkpt>
    <trkpt lat="42.149164" lon="2.537002">
        <ele>620.6</ele>
        <time>2020-06-13T10:52:11.451Z</time>
    </trkpt>
    <trkpt lat="42.149134" lon="2.537195">
        <ele>619.4</ele>
        <time>2020-06-13T10:52:25.451Z</time>
    </trkpt>
    <trkpt lat="42.149117" lon="2.537278">
        <ele>618.9</ele>
        <time>2020-06-13T10:52:29.451Z</time>
    </trkpt>
    <trkpt lat="42.149088" lon="2.537338">
        <ele>619.1</ele>
        <time>2020-06-13T10:52:32.451Z</time>
    </trkpt>
    <trkpt lat="42.149039" lon="2.537512">
        <ele>618.3</ele>
        <time>2020-06-13T10:52:43.451Z</time>
    </trkpt>
    <trkpt lat="42.149019" lon="2.537569">
        <ele>618.1</ele>
        <time>2020-06-13T10:52:48.451Z</time>
    </trkpt>
    <trkpt lat="42.149" lon="2.537631">
        <ele>618.0</ele>
        <time>2020-06-13T10:53:05.451Z</time>
    </trkpt>
    <trkpt lat="42.148978" lon="2.537693">
        <ele>617.9</ele>
        <time>2020-06-13T10:53:12.451Z</time>
    </trkpt>
    <trkpt lat="42.148971" lon="2.537763">
        <ele>617.2</ele>
        <time>2020-06-13T10:53:15.451Z</time>
    </trkpt>
    <trkpt lat="42.148969" lon="2.537825">
        <ele>617.0</ele>
        <time>2020-06-13T10:53:18.451Z</time>
    </trkpt>
    <trkpt lat="42.148975" lon="2.537891">
        <ele>616.8</ele>
        <time>2020-06-13T10:53:22.451Z</time>
    </trkpt>
    <trkpt lat="42.148987" lon="2.538036">
        <ele>616.0</ele>
        <time>2020-06-13T10:53:35.451Z</time>
    </trkpt>
    <trkpt lat="42.149011" lon="2.538117">
        <ele>615.8</ele>
        <time>2020-06-13T10:53:41.451Z</time>
    </trkpt>
    <trkpt lat="42.149031" lon="2.538177">
        <ele>615.8</ele>
        <time>2020-06-13T10:53:45.451Z</time>
    </trkpt>
    <trkpt lat="42.149042" lon="2.538243">
        <ele>615.8</ele>
        <time>2020-06-13T10:53:49.451Z</time>
    </trkpt>
    <trkpt lat="42.14907" lon="2.538426">
        <ele>616.0</ele>
        <time>2020-06-13T10:54:00.451Z</time>
    </trkpt>
    <trkpt lat="42.149076" lon="2.538493">
        <ele>616.1</ele>
        <time>2020-06-13T10:54:04.451Z</time>
    </trkpt>
    <trkpt lat="42.149114" lon="2.538543">
        <ele>615.7</ele>
        <time>2020-06-13T10:54:08.451Z</time>
    </trkpt>
    <trkpt lat="42.149131" lon="2.538601">
        <ele>615.6</ele>
        <time>2020-06-13T10:54:12.451Z</time>
    </trkpt>
    <trkpt lat="42.149132" lon="2.538716">
        <ele>615.7</ele>
        <time>2020-06-13T10:54:19.451Z</time>
    </trkpt>
    <trkpt lat="42.149162" lon="2.538776">
        <ele>615.1</ele>
        <time>2020-06-13T10:54:24.451Z</time>
    </trkpt>
    <trkpt lat="42.149183" lon="2.538834">
        <ele>614.9</ele>
        <time>2020-06-13T10:54:28.451Z</time>
    </trkpt>
    <trkpt lat="42.149185" lon="2.538902">
        <ele>615.0</ele>
        <time>2020-06-13T10:54:32.451Z</time>
    </trkpt>
    <trkpt lat="42.149199" lon="2.538966">
        <ele>615.5</ele>
        <time>2020-06-13T10:54:36.451Z</time>
    </trkpt>
    <trkpt lat="42.149235" lon="2.539021">
        <ele>615.5</ele>
        <time>2020-06-13T10:54:40.451Z</time>
    </trkpt>
    <trkpt lat="42.149246" lon="2.53909">
        <ele>615.7</ele>
        <time>2020-06-13T10:54:44.451Z</time>
    </trkpt>
    <trkpt lat="42.149258" lon="2.539155">
        <ele>616.1</ele>
        <time>2020-06-13T10:54:48.451Z</time>
    </trkpt>
    <trkpt lat="42.149284" lon="2.539233">
        <ele>616.0</ele>
        <time>2020-06-13T10:54:53.451Z</time>
    </trkpt>
    <trkpt lat="42.149314" lon="2.539286">
        <ele>615.8</ele>
        <time>2020-06-13T10:54:57.451Z</time>
    </trkpt>
    <trkpt lat="42.149354" lon="2.53941">
        <ele>615.6</ele>
        <time>2020-06-13T10:55:05.451Z</time>
    </trkpt>
    <trkpt lat="42.149406" lon="2.539527">
        <ele>615.1</ele>
        <time>2020-06-13T10:55:13.451Z</time>
    </trkpt>
    <trkpt lat="42.149417" lon="2.539595">
        <ele>615.2</ele>
        <time>2020-06-13T10:55:17.451Z</time>
    </trkpt>
    <trkpt lat="42.149447" lon="2.539711">
        <ele>615.0</ele>
        <time>2020-06-13T10:55:24.451Z</time>
    </trkpt>
    <trkpt lat="42.149455" lon="2.539786">
        <ele>615.4</ele>
        <time>2020-06-13T10:55:28.451Z</time>
    </trkpt>
    <trkpt lat="42.149486" lon="2.539836">
        <ele>615.5</ele>
        <time>2020-06-13T10:55:32.451Z</time>
    </trkpt>
    <trkpt lat="42.149515" lon="2.539885">
        <ele>615.5</ele>
        <time>2020-06-13T10:55:36.451Z</time>
    </trkpt>
    <trkpt lat="42.149547" lon="2.539936">
        <ele>615.2</ele>
        <time>2020-06-13T10:55:40.451Z</time>
    </trkpt>
    <trkpt lat="42.149586" lon="2.539986">
        <ele>614.9</ele>
        <time>2020-06-13T10:55:44.451Z</time>
    </trkpt>
    <trkpt lat="42.149617" lon="2.540052">
        <ele>614.7</ele>
        <time>2020-06-13T10:55:48.451Z</time>
    </trkpt>
    <trkpt lat="42.14962" lon="2.540128">
        <ele>615.0</ele>
        <time>2020-06-13T10:55:52.451Z</time>
    </trkpt>
    <trkpt lat="42.14968" lon="2.54024">
        <ele>614.1</ele>
        <time>2020-06-13T10:55:59.451Z</time>
    </trkpt>
    <trkpt lat="42.149692" lon="2.540309">
        <ele>614.1</ele>
        <time>2020-06-13T10:56:03.451Z</time>
    </trkpt>
    <trkpt lat="42.149714" lon="2.540445">
        <ele>614.5</ele>
        <time>2020-06-13T10:56:11.451Z</time>
    </trkpt>
    <trkpt lat="42.149734" lon="2.54051">
        <ele>614.6</ele>
        <time>2020-06-13T10:56:15.451Z</time>
    </trkpt>
    <trkpt lat="42.149746" lon="2.540577">
        <ele>615.0</ele>
        <time>2020-06-13T10:56:19.451Z</time>
    </trkpt>
    <trkpt lat="42.149772" lon="2.54064">
        <ele>615.2</ele>
        <time>2020-06-13T10:56:23.451Z</time>
    </trkpt>
    <trkpt lat="42.149818" lon="2.540754">
        <ele>615.3</ele>
        <time>2020-06-13T10:56:31.451Z</time>
    </trkpt>
    <trkpt lat="42.149818" lon="2.540897">
        <ele>615.8</ele>
        <time>2020-06-13T10:56:39.451Z</time>
    </trkpt>
    <trkpt lat="42.149864" lon="2.54108">
        <ele>615.5</ele>
        <time>2020-06-13T10:56:51.451Z</time>
    </trkpt>
    <trkpt lat="42.149878" lon="2.541145">
        <ele>615.4</ele>
        <time>2020-06-13T10:56:55.451Z</time>
    </trkpt>
    <trkpt lat="42.149882" lon="2.541211">
        <ele>615.6</ele>
        <time>2020-06-13T10:56:59.451Z</time>
    </trkpt>
    <trkpt lat="42.149896" lon="2.541342">
        <ele>616.0</ele>
        <time>2020-06-13T10:57:06.451Z</time>
    </trkpt>
    <trkpt lat="42.149945" lon="2.541523">
        <ele>615.9</ele>
        <time>2020-06-13T10:57:17.451Z</time>
    </trkpt>
    <trkpt lat="42.149951" lon="2.541644">
        <ele>616.2</ele>
        <time>2020-06-13T10:57:24.451Z</time>
    </trkpt>
    <trkpt lat="42.149955" lon="2.541765">
        <ele>616.6</ele>
        <time>2020-06-13T10:57:31.451Z</time>
    </trkpt>
    <trkpt lat="42.149993" lon="2.541886">
        <ele>616.1</ele>
        <time>2020-06-13T10:57:39.451Z</time>
    </trkpt>
    <trkpt lat="42.150019" lon="2.54201">
        <ele>616.2</ele>
        <time>2020-06-13T10:57:47.451Z</time>
    </trkpt>
    <trkpt lat="42.150002" lon="2.542195">
        <ele>616.9</ele>
        <time>2020-06-13T10:57:58.451Z</time>
    </trkpt>
    <trkpt lat="42.150025" lon="2.542301">
        <ele>616.9</ele>
        <time>2020-06-13T10:58:04.451Z</time>
    </trkpt>
    <trkpt lat="42.15002" lon="2.542371">
        <ele>617.0</ele>
        <time>2020-06-13T10:58:08.451Z</time>
    </trkpt>
    <trkpt lat="42.149977" lon="2.542482">
        <ele>617.6</ele>
        <time>2020-06-13T10:58:15.451Z</time>
    </trkpt>
    <trkpt lat="42.150014" lon="2.542531">
        <ele>617.2</ele>
        <time>2020-06-13T10:58:20.451Z</time>
    </trkpt>
    <trkpt lat="42.150049" lon="2.542651">
        <ele>617.8</ele>
        <time>2020-06-13T10:58:28.451Z</time>
    </trkpt>
    <trkpt lat="42.150055" lon="2.542718">
        <ele>618.3</ele>
        <time>2020-06-13T10:58:32.451Z</time>
    </trkpt>
    <trkpt lat="42.150051" lon="2.542791">
        <ele>618.8</ele>
        <time>2020-06-13T10:58:37.451Z</time>
    </trkpt>
    <trkpt lat="42.150065" lon="2.542854">
        <ele>618.6</ele>
        <time>2020-06-13T10:58:42.451Z</time>
    </trkpt>
    <trkpt lat="42.150099" lon="2.542909">
        <ele>618.5</ele>
        <time>2020-06-13T10:58:47.451Z</time>
    </trkpt>
    <trkpt lat="42.150139" lon="2.542952">
        <ele>618.5</ele>
        <time>2020-06-13T10:58:51.451Z</time>
    </trkpt>
    <trkpt lat="42.150187" lon="2.542998">
        <ele>618.7</ele>
        <time>2020-06-13T10:58:55.451Z</time>
    </trkpt>
    <trkpt lat="42.150298" lon="2.543077">
        <ele>618.9</ele>
        <time>2020-06-13T10:59:05.451Z</time>
    </trkpt>
    <trkpt lat="42.150338" lon="2.543047">
        <ele>619.2</ele>
        <time>2020-06-13T10:59:09.451Z</time>
    </trkpt>
    <trkpt lat="42.150359" lon="2.542922">
        <ele>618.9</ele>
        <time>2020-06-13T10:59:18.451Z</time>
    </trkpt>
    <trkpt lat="42.150354" lon="2.542881">
        <ele>618.7</ele>
        <time>2020-06-13T10:59:24.451Z</time>
    </trkpt>
    <trkpt lat="42.150354" lon="2.542881">
        <ele>618.7</ele>
        <time>2020-06-13T10:59:24.451Z</time>
    </trkpt>
    <trkpt lat="42.150354" lon="2.542881">
        <ele>618.6</ele>
        <time>2020-06-13T10:59:26.451Z</time>
    </trkpt>
    <trkpt lat="42.150406" lon="2.542971">
        <ele>619.3</ele>
        <time>2020-06-13T09:28:27.000Z</time>
    </trkpt>
    <trkpt lat="42.150406" lon="2.542971">
        <ele>619.2</ele>
        <time>2020-06-13T09:28:31.000Z</time>
    </trkpt>
    <trkpt lat="42.15046" lon="2.542958">
        <ele>619.3</ele>
        <time>2020-06-13T09:28:36.000Z</time>
    </trkpt>
    <trkpt lat="42.150511" lon="2.54293">
        <ele>619.4</ele>
        <time>2020-06-13T09:28:42.000Z</time>
    </trkpt>
    <trkpt lat="42.150603" lon="2.542888">
        <ele>619.8</ele>
        <time>2020-06-13T09:28:50.000Z</time>
    </trkpt>
    <trkpt lat="42.15065" lon="2.542893">
        <ele>620.1</ele>
        <time>2020-06-13T09:28:56.000Z</time>
    </trkpt>
    <trkpt lat="42.150691" lon="2.542864">
        <ele>620.2</ele>
        <time>2020-06-13T09:29:05.000Z</time>
    </trkpt>
    <trkpt lat="42.150735" lon="2.542844">
        <ele>620.2</ele>
        <time>2020-06-13T09:29:09.000Z</time>
    </trkpt>
    <trkpt lat="42.15083" lon="2.542822">
        <ele>620.5</ele>
        <time>2020-06-13T09:29:18.000Z</time>
    </trkpt>
    <trkpt lat="42.150953" lon="2.542753">
        <ele>620.7</ele>
        <time>2020-06-13T09:29:30.000Z</time>
    </trkpt>
    <trkpt lat="42.151037" lon="2.542701">
        <ele>621.1</ele>
        <time>2020-06-13T09:29:39.000Z</time>
    </trkpt>
    <trkpt lat="42.151089" lon="2.542688">
        <ele>621.2</ele>
        <time>2020-06-13T09:29:44.000Z</time>
    </trkpt>
    <trkpt lat="42.151145" lon="2.542666">
        <ele>621.1</ele>
        <time>2020-06-13T09:29:49.000Z</time>
    </trkpt>
    <trkpt lat="42.151283" lon="2.542645">
        <ele>620.4</ele>
        <time>2020-06-13T09:30:01.000Z</time>
    </trkpt>
    <trkpt lat="42.151418" lon="2.542619">
        <ele>619.7</ele>
        <time>2020-06-13T09:30:12.000Z</time>
    </trkpt>
    <trkpt lat="42.151555" lon="2.542593">
        <ele>618.9</ele>
        <time>2020-06-13T09:30:24.000Z</time>
    </trkpt>
    <trkpt lat="42.151602" lon="2.542586">
        <ele>618.6</ele>
        <time>2020-06-13T09:30:28.000Z</time>
    </trkpt>
    <trkpt lat="42.15165" lon="2.542578">
        <ele>618.4</ele>
        <time>2020-06-13T09:30:32.000Z</time>
    </trkpt>
    <trkpt lat="42.151708" lon="2.542565">
        <ele>618.3</ele>
        <time>2020-06-13T09:30:37.000Z</time>
    </trkpt>
    <trkpt lat="42.151852" lon="2.542529">
        <ele>618.2</ele>
        <time>2020-06-13T09:30:49.000Z</time>
    </trkpt>
    <trkpt lat="42.151901" lon="2.54252">
        <ele>618.2</ele>
        <time>2020-06-13T09:30:53.000Z</time>
    </trkpt>
    <trkpt lat="42.151958" lon="2.542504">
        <ele>618.1</ele>
        <time>2020-06-13T09:30:58.000Z</time>
    </trkpt>
    <trkpt lat="42.152101" lon="2.542468">
        <ele>617.8</ele>
        <time>2020-06-13T09:31:10.000Z</time>
    </trkpt>
    <trkpt lat="42.152149" lon="2.54246">
        <ele>617.8</ele>
        <time>2020-06-13T09:31:14.000Z</time>
    </trkpt>
    <trkpt lat="42.152284" lon="2.542414">
        <ele>617.8</ele>
        <time>2020-06-13T09:31:26.000Z</time>
    </trkpt>
    <trkpt lat="42.15233" lon="2.542406">
        <ele>617.9</ele>
        <time>2020-06-13T09:31:30.000Z</time>
    </trkpt>
    <trkpt lat="42.152467" lon="2.542396">
        <ele>618.0</ele>
        <time>2020-06-13T09:31:42.000Z</time>
    </trkpt>
    <trkpt lat="42.15251" lon="2.54237">
        <ele>618.1</ele>
        <time>2020-06-13T09:31:46.000Z</time>
    </trkpt>
    <trkpt lat="42.152544" lon="2.542319">
        <ele>618.1</ele>
        <time>2020-06-13T09:31:50.000Z</time>
    </trkpt>
    <trkpt lat="42.152589" lon="2.542148">
        <ele>618.8</ele>
        <time>2020-06-13T09:32:02.000Z</time>
    </trkpt>
    <trkpt lat="42.152606" lon="2.542039">
        <ele>619.2</ele>
        <time>2020-06-13T09:32:09.000Z</time>
    </trkpt>
    <trkpt lat="42.152616" lon="2.541924">
        <ele>619.6</ele>
        <time>2020-06-13T09:32:16.000Z</time>
    </trkpt>
    <trkpt lat="42.152637" lon="2.541738">
        <ele>621.0</ele>
        <time>2020-06-13T09:32:27.000Z</time>
    </trkpt>
    <trkpt lat="42.152644" lon="2.541665">
        <ele>621.5</ele>
        <time>2020-06-13T09:32:32.000Z</time>
    </trkpt>
    <trkpt lat="42.152659" lon="2.5416">
        <ele>622.3</ele>
        <time>2020-06-13T09:32:37.000Z</time>
    </trkpt>
    <trkpt lat="42.152683" lon="2.541487">
        <ele>623.2</ele>
        <time>2020-06-13T09:32:45.000Z</time>
    </trkpt>
    <trkpt lat="42.152712" lon="2.541298">
        <ele>624.9</ele>
        <time>2020-06-13T09:32:58.000Z</time>
    </trkpt>
    <trkpt lat="42.152742" lon="2.541112">
        <ele>627.0</ele>
        <time>2020-06-13T09:33:10.000Z</time>
    </trkpt>
    <trkpt lat="42.152752" lon="2.540926">
        <ele>628.3</ele>
        <time>2020-06-13T09:33:23.000Z</time>
    </trkpt>
    <trkpt lat="42.152761" lon="2.540732">
        <ele>630.1</ele>
        <time>2020-06-13T09:33:36.000Z</time>
    </trkpt>
    <trkpt lat="42.152749" lon="2.540549">
        <ele>632.1</ele>
        <time>2020-06-13T09:33:50.000Z</time>
    </trkpt>
    <trkpt lat="42.152745" lon="2.540485">
        <ele>632.7</ele>
        <time>2020-06-13T09:33:56.000Z</time>
    </trkpt>
    <trkpt lat="42.152748" lon="2.540414">
        <ele>633.5</ele>
        <time>2020-06-13T09:34:03.000Z</time>
    </trkpt>
    <trkpt lat="42.152775" lon="2.540234">
        <ele>635.6</ele>
        <time>2020-06-13T09:34:17.000Z</time>
    </trkpt>
    <trkpt lat="42.152789" lon="2.540167">
        <ele>636.7</ele>
        <time>2020-06-13T09:34:23.000Z</time>
    </trkpt>
    <trkpt lat="42.152794" lon="2.539979">
        <ele>639.4</ele>
        <time>2020-06-13T09:34:40.000Z</time>
    </trkpt>
    <trkpt lat="42.15281" lon="2.539905">
        <ele>640.7</ele>
        <time>2020-06-13T09:34:45.000Z</time>
    </trkpt>
    <trkpt lat="42.15288" lon="2.539896">
        <ele>641.0</ele>
        <time>2020-06-13T09:36:03.000Z</time>
    </trkpt>
    <trkpt lat="42.152881" lon="2.539835">
        <ele>642.0</ele>
        <time>2020-06-13T09:36:12.000Z</time>
    </trkpt>
    <trkpt lat="42.152889" lon="2.53977">
        <ele>643.2</ele>
        <time>2020-06-13T09:36:20.000Z</time>
    </trkpt>
    <trkpt lat="42.152887" lon="2.539705">
        <ele>644.4</ele>
        <time>2020-06-13T09:36:27.000Z</time>
    </trkpt>
    <trkpt lat="42.152919" lon="2.539651">
        <ele>645.4</ele>
        <time>2020-06-13T09:36:35.000Z</time>
    </trkpt>
    <trkpt lat="42.152932" lon="2.539592">
        <ele>646.7</ele>
        <time>2020-06-13T09:36:41.000Z</time>
    </trkpt>
    <trkpt lat="42.152896" lon="2.539551">
        <ele>647.4</ele>
        <time>2020-06-13T09:36:48.000Z</time>
    </trkpt>
    <trkpt lat="42.152936" lon="2.539596">
        <ele>646.6</ele>
        <time>2020-06-13T09:37:05.000Z</time>
    </trkpt>
    <trkpt lat="42.15302" lon="2.539647">
        <ele>645.8</ele>
        <time>2020-06-13T09:37:13.000Z</time>
    </trkpt>
    <trkpt lat="42.153073" lon="2.539634">
        <ele>646.6</ele>
        <time>2020-06-13T09:37:18.000Z</time>
    </trkpt>
    <trkpt lat="42.153101" lon="2.539585">
        <ele>648.2</ele>
        <time>2020-06-13T09:37:28.000Z</time>
    </trkpt>
    <trkpt lat="42.153076" lon="2.539532">
        <ele>649.1</ele>
        <time>2020-06-13T09:37:37.000Z</time>
    </trkpt>
    <trkpt lat="42.153057" lon="2.539468">
        <ele>650.5</ele>
        <time>2020-06-13T09:37:46.000Z</time>
    </trkpt>
    <trkpt lat="42.153017" lon="2.539428">
        <ele>651.1</ele>
        <time>2020-06-13T09:37:51.000Z</time>
    </trkpt>
    <trkpt lat="42.152978" lon="2.539386">
        <ele>651.9</ele>
        <time>2020-06-13T09:37:58.000Z</time>
    </trkpt>
    <trkpt lat="42.15295" lon="2.539329">
        <ele>653.1</ele>
        <time>2020-06-13T09:38:03.000Z</time>
    </trkpt>
    <trkpt lat="42.152913" lon="2.539275">
        <ele>654.0</ele>
        <time>2020-06-13T09:38:09.000Z</time>
    </trkpt>
    <trkpt lat="42.152824" lon="2.539221">
        <ele>654.4</ele>
        <time>2020-06-13T09:38:17.000Z</time>
    </trkpt>
    <trkpt lat="42.152777" lon="2.539195">
        <ele>654.3</ele>
        <time>2020-06-13T09:38:21.000Z</time>
    </trkpt>
    <trkpt lat="42.152733" lon="2.539154">
        <ele>654.7</ele>
        <time>2020-06-13T09:38:26.000Z</time>
    </trkpt>
    <trkpt lat="42.152685" lon="2.539128">
        <ele>654.6</ele>
        <time>2020-06-13T09:38:30.000Z</time>
    </trkpt>
    <trkpt lat="42.152654" lon="2.539074">
        <ele>655.4</ele>
        <time>2020-06-13T09:38:37.000Z</time>
    </trkpt>
    <trkpt lat="42.152615" lon="2.539019">
        <ele>656.2</ele>
        <time>2020-06-13T09:38:43.000Z</time>
    </trkpt>
    <trkpt lat="42.152577" lon="2.538976">
        <ele>656.5</ele>
        <time>2020-06-13T09:38:48.000Z</time>
    </trkpt>
    <trkpt lat="42.152597" lon="2.538921">
        <ele>658.1</ele>
        <time>2020-06-13T09:38:54.000Z</time>
    </trkpt>
    <trkpt lat="42.152652" lon="2.538905">
        <ele>659.5</ele>
        <time>2020-06-13T09:39:10.000Z</time>
    </trkpt>
    <trkpt lat="42.152749" lon="2.538899">
        <ele>661.3</ele>
        <time>2020-06-13T09:39:21.000Z</time>
    </trkpt>
    <trkpt lat="42.152853" lon="2.538905">
        <ele>663.2</ele>
        <time>2020-06-13T09:39:35.000Z</time>
    </trkpt>
    <trkpt lat="42.152901" lon="2.538923">
        <ele>663.8</ele>
        <time>2020-06-13T09:39:44.000Z</time>
    </trkpt>
    <trkpt lat="42.153039" lon="2.538907">
        <ele>667.2</ele>
        <time>2020-06-13T09:40:00.000Z</time>
    </trkpt>
    <trkpt lat="42.153094" lon="2.53892">
        <ele>667.9</ele>
        <time>2020-06-13T09:40:06.000Z</time>
    </trkpt>
    <trkpt lat="42.153193" lon="2.538928">
        <ele>669.7</ele>
        <time>2020-06-13T09:40:18.000Z</time>
    </trkpt>
    <trkpt lat="42.153329" lon="2.538941">
        <ele>672.2</ele>
        <time>2020-06-13T09:40:33.000Z</time>
    </trkpt>
    <trkpt lat="42.153377" lon="2.538961">
        <ele>672.5</ele>
        <time>2020-06-13T09:40:38.000Z</time>
    </trkpt>
    <trkpt lat="42.153512" lon="2.538959">
        <ele>674.9</ele>
        <time>2020-06-13T09:40:54.000Z</time>
    </trkpt>
    <trkpt lat="42.153607" lon="2.538932">
        <ele>677.5</ele>
        <time>2020-06-13T09:41:05.000Z</time>
    </trkpt>
    <trkpt lat="42.153656" lon="2.538902">
        <ele>679.2</ele>
        <time>2020-06-13T09:41:11.000Z</time>
    </trkpt>
    <trkpt lat="42.153705" lon="2.538881">
        <ele>680.4</ele>
        <time>2020-06-13T09:41:17.000Z</time>
    </trkpt>
    <trkpt lat="42.153751" lon="2.538887">
        <ele>680.6</ele>
        <time>2020-06-13T09:41:23.000Z</time>
    </trkpt>
    <trkpt lat="42.153812" lon="2.538876">
        <ele>681.6</ele>
        <time>2020-06-13T09:41:30.000Z</time>
    </trkpt>
    <trkpt lat="42.153812" lon="2.538811">
        <ele>683.8</ele>
        <time>2020-06-13T09:41:35.000Z</time>
    </trkpt>
    <trkpt lat="42.153785" lon="2.538761">
        <ele>685.1</ele>
        <time>2020-06-13T09:41:42.000Z</time>
    </trkpt>
    <trkpt lat="42.153694" lon="2.538624">
        <ele>688.5</ele>
        <time>2020-06-13T09:41:58.000Z</time>
    </trkpt>
    <trkpt lat="42.153634" lon="2.538525">
        <ele>691.6</ele>
        <time>2020-06-13T09:42:12.000Z</time>
    </trkpt>
    <trkpt lat="42.153593" lon="2.53849">
        <ele>692.6</ele>
        <time>2020-06-13T09:42:18.000Z</time>
    </trkpt>
    <trkpt lat="42.153554" lon="2.538442">
        <ele>693.7</ele>
        <time>2020-06-13T09:42:26.000Z</time>
    </trkpt>
    <trkpt lat="42.153527" lon="2.538383">
        <ele>695.6</ele>
        <time>2020-06-13T09:42:31.000Z</time>
    </trkpt>
    <trkpt lat="42.153486" lon="2.538356">
        <ele>695.9</ele>
        <time>2020-06-13T09:42:35.000Z</time>
    </trkpt>
    <trkpt lat="42.153449" lon="2.538315">
        <ele>696.9</ele>
        <time>2020-06-13T09:42:41.000Z</time>
    </trkpt>
    <trkpt lat="42.153402" lon="2.53829">
        <ele>696.9</ele>
        <time>2020-06-13T09:42:50.000Z</time>
    </trkpt>
    <trkpt lat="42.15332" lon="2.538227">
        <ele>697.5</ele>
        <time>2020-06-13T09:43:04.000Z</time>
    </trkpt>
    <trkpt lat="42.153285" lon="2.538161">
        <ele>699.2</ele>
        <time>2020-06-13T09:43:13.000Z</time>
    </trkpt>
    <trkpt lat="42.153245" lon="2.538118">
        <ele>699.9</ele>
        <time>2020-06-13T09:43:18.000Z</time>
    </trkpt>
    <trkpt lat="42.153244" lon="2.538055">
        <ele>702.1</ele>
        <time>2020-06-13T09:43:31.000Z</time>
    </trkpt>
    <trkpt lat="42.153293" lon="2.538032">
        <ele>704.0</ele>
        <time>2020-06-13T09:43:38.000Z</time>
    </trkpt>
    <trkpt lat="42.153338" lon="2.538053">
        <ele>704.2</ele>
        <time>2020-06-13T09:43:43.000Z</time>
    </trkpt>
    <trkpt lat="42.153383" lon="2.538067">
        <ele>704.7</ele>
        <time>2020-06-13T09:43:48.000Z</time>
    </trkpt>
    <trkpt lat="42.153477" lon="2.538087">
        <ele>706.0</ele>
        <time>2020-06-13T09:44:01.000Z</time>
    </trkpt>
    <trkpt lat="42.153575" lon="2.538085">
        <ele>708.1</ele>
        <time>2020-06-13T09:44:11.000Z</time>
    </trkpt>
    <trkpt lat="42.153674" lon="2.538096">
        <ele>708.9</ele>
        <time>2020-06-13T09:44:22.000Z</time>
    </trkpt>
    <trkpt lat="42.153812" lon="2.538073">
        <ele>710.8</ele>
        <time>2020-06-13T09:44:36.000Z</time>
    </trkpt>
    <trkpt lat="42.153906" lon="2.538078">
        <ele>711.2</ele>
        <time>2020-06-13T09:44:48.000Z</time>
    </trkpt>
    <trkpt lat="42.154016" lon="2.538069">
        <ele>711.1</ele>
        <time>2020-06-13T09:45:02.000Z</time>
    </trkpt>
    <trkpt lat="42.154034" lon="2.53801">
        <ele>713.3</ele>
        <time>2020-06-13T09:45:10.000Z</time>
    </trkpt>
    <trkpt lat="42.154012" lon="2.537955">
        <ele>715.4</ele>
        <time>2020-06-13T09:45:20.000Z</time>
    </trkpt>
    <trkpt lat="42.153964" lon="2.537928">
        <ele>716.8</ele>
        <time>2020-06-13T09:45:26.000Z</time>
    </trkpt>
    <trkpt lat="42.153874" lon="2.537856">
        <ele>719.9</ele>
        <time>2020-06-13T09:45:39.000Z</time>
    </trkpt>
    <trkpt lat="42.153829" lon="2.537836">
        <ele>720.1</ele>
        <time>2020-06-13T09:45:46.000Z</time>
    </trkpt>
    <trkpt lat="42.153786" lon="2.537817">
        <ele>720.5</ele>
        <time>2020-06-13T09:45:53.000Z</time>
    </trkpt>
    <trkpt lat="42.153706" lon="2.537736">
        <ele>722.7</ele>
        <time>2020-06-13T09:46:06.000Z</time>
    </trkpt>
    <trkpt lat="42.153678" lon="2.537658">
        <ele>725.5</ele>
        <time>2020-06-13T09:46:17.000Z</time>
    </trkpt>
    <trkpt lat="42.153685" lon="2.537597">
        <ele>728.0</ele>
        <time>2020-06-13T09:46:24.000Z</time>
    </trkpt>
    <trkpt lat="42.153668" lon="2.537536">
        <ele>730.2</ele>
        <time>2020-06-13T09:46:32.000Z</time>
    </trkpt>
    <trkpt lat="42.15365" lon="2.537479">
        <ele>732.2</ele>
        <time>2020-06-13T09:46:37.000Z</time>
    </trkpt>
    <trkpt lat="42.153608" lon="2.537452">
        <ele>732.7</ele>
        <time>2020-06-13T09:46:42.000Z</time>
    </trkpt>
    <trkpt lat="42.153572" lon="2.537409">
        <ele>733.4</ele>
        <time>2020-06-13T09:46:50.000Z</time>
    </trkpt>
    <trkpt lat="42.153514" lon="2.537347">
        <ele>734.5</ele>
        <time>2020-06-13T09:47:00.000Z</time>
    </trkpt>
    <trkpt lat="42.153474" lon="2.537307">
        <ele>735.1</ele>
        <time>2020-06-13T09:47:09.000Z</time>
    </trkpt>
    <trkpt lat="42.153442" lon="2.537265">
        <ele>735.8</ele>
        <time>2020-06-13T09:47:21.000Z</time>
    </trkpt>
    <trkpt lat="42.153411" lon="2.537218">
        <ele>736.9</ele>
        <time>2020-06-13T09:47:27.000Z</time>
    </trkpt>
    <trkpt lat="42.153379" lon="2.537171">
        <ele>737.8</ele>
        <time>2020-06-13T09:47:33.000Z</time>
    </trkpt>
    <trkpt lat="42.153385" lon="2.53711">
        <ele>739.8</ele>
        <time>2020-06-13T09:47:38.000Z</time>
    </trkpt>
    <trkpt lat="42.153385" lon="2.537047">
        <ele>742.0</ele>
        <time>2020-06-13T09:47:51.000Z</time>
    </trkpt>
    <trkpt lat="42.153433" lon="2.537052">
        <ele>742.9</ele>
        <time>2020-06-13T09:47:58.000Z</time>
    </trkpt>
    <trkpt lat="42.153478" lon="2.537031">
        <ele>744.8</ele>
        <time>2020-06-13T09:48:03.000Z</time>
    </trkpt>
    <trkpt lat="42.153525" lon="2.537019">
        <ele>746.2</ele>
        <time>2020-06-13T09:48:09.000Z</time>
    </trkpt>
    <trkpt lat="42.153576" lon="2.537034">
        <ele>746.9</ele>
        <time>2020-06-13T09:48:15.000Z</time>
    </trkpt>
    <trkpt lat="42.153623" lon="2.537054">
        <ele>747.3</ele>
        <time>2020-06-13T09:48:22.000Z</time>
    </trkpt>
    <trkpt lat="42.153662" lon="2.537096">
        <ele>746.3</ele>
        <time>2020-06-13T09:48:28.000Z</time>
    </trkpt>
    <trkpt lat="42.153717" lon="2.537167">
        <ele>745.3</ele>
        <time>2020-06-13T09:49:18.425Z</time>
    </trkpt>
    <trkpt lat="42.153753" lon="2.537176">
        <ele>744.5</ele>
        <time>2020-06-13T09:49:42.676Z</time>
    </trkpt>
    <trkpt lat="42.15382" lon="2.537183">
        <ele>745.4</ele>
        <time>2020-06-13T09:50:27.187Z</time>
    </trkpt>
    <trkpt lat="42.153873" lon="2.537167">
        <ele>746.8</ele>
        <time>2020-06-13T09:50:31.187Z</time>
    </trkpt>
    <trkpt lat="42.153934" lon="2.537154">
        <ele>747.0</ele>
        <time>2020-06-13T09:50:36.187Z</time>
    </trkpt>
    <trkpt lat="42.153982" lon="2.537151">
        <ele>746.7</ele>
        <time>2020-06-13T09:50:40.187Z</time>
    </trkpt>
    <trkpt lat="42.154075" lon="2.537123">
        <ele>746.7</ele>
        <time>2020-06-13T09:50:49.187Z</time>
    </trkpt>
    <trkpt lat="42.154209" lon="2.537051">
        <ele>748.0</ele>
        <time>2020-06-13T09:51:10.097Z</time>
    </trkpt>
    <trkpt lat="42.154277" lon="2.536981">
        <ele>748.0</ele>
        <time>2020-06-13T09:51:22.497Z</time>
    </trkpt>
    <trkpt lat="42.154287" lon="2.536972">
        <ele>748.0</ele>
        <time>2020-06-13T09:51:24.239Z</time>
    </trkpt>
    <trkpt lat="42.154206" lon="2.536957">
        <ele>752.3</ele>
        <time>2020-06-13T09:51:36.091Z</time>
    </trkpt>
    <trkpt lat="42.15416" lon="2.536787">
        <ele>763.3</ele>
        <time>2020-06-13T09:51:55.540Z</time>
    </trkpt>
    <trkpt lat="42.15412" lon="2.536752">
        <ele>757.8</ele>
        <time>2020-06-13T09:52:02.451Z</time>
    </trkpt>
    <trkpt lat="42.154107" lon="2.536693">
        <ele>759.6</ele>
        <time>2020-06-13T09:52:15.451Z</time>
    </trkpt>
    <trkpt lat="42.154086" lon="2.536628">
        <ele>761.4</ele>
        <time>2020-06-13T09:52:23.451Z</time>
    </trkpt>
    <trkpt lat="42.154023" lon="2.5366">
        <ele>763.7</ele>
        <time>2020-06-13T09:52:40.451Z</time>
    </trkpt>
    <trkpt lat="42.153966" lon="2.536523">
        <ele>767.5</ele>
        <time>2020-06-13T09:53:00.451Z</time>
    </trkpt>
    <trkpt lat="42.154003" lon="2.53648">
        <ele>767.0</ele>
        <time>2020-06-13T09:53:06.451Z</time>
    </trkpt>
    <trkpt lat="42.153978" lon="2.536429">
        <ele>769.4</ele>
        <time>2020-06-13T09:53:14.451Z</time>
    </trkpt>
    <trkpt lat="42.154007" lon="2.536375">
        <ele>769.6</ele>
        <time>2020-06-13T09:53:21.451Z</time>
    </trkpt>
    <trkpt lat="42.154003" lon="2.536314">
        <ele>772.1</ele>
        <time>2020-06-13T09:53:33.451Z</time>
    </trkpt>
    <trkpt lat="42.153934" lon="2.536298">
        <ele>776.1</ele>
        <time>2020-06-13T09:53:41.451Z</time>
    </trkpt>
    <trkpt lat="42.153896" lon="2.536222">
        <ele>780.8</ele>
        <time>2020-06-13T09:53:53.451Z</time>
    </trkpt>
    <trkpt lat="42.154045" lon="2.535918">
        <ele>781.9</ele>
        <time>2020-06-13T10:11:04.451Z</time>
    </trkpt>
    <trkpt lat="42.15408" lon="2.535875">
        <ele>782.6</ele>
        <time>2020-06-13T10:11:14.451Z</time>
    </trkpt>
    <trkpt lat="42.15413" lon="2.535847">
        <ele>783.5</ele>
        <time>2020-06-13T10:11:20.451Z</time>
    </trkpt>
    <trkpt lat="42.154192" lon="2.535785">
        <ele>782.0</ele>
        <time>2020-06-13T10:11:31.451Z</time>
    </trkpt>
    <trkpt lat="42.154228" lon="2.535746">
        <ele>780.1</ele>
        <time>2020-06-13T10:11:35.451Z</time>
    </trkpt>
    <trkpt lat="42.154273" lon="2.535712">
        <ele>778.4</ele>
        <time>2020-06-13T10:11:42.451Z</time>
    </trkpt>
    <trkpt lat="42.154312" lon="2.535658">
        <ele>777.1</ele>
        <time>2020-06-13T10:11:47.451Z</time>
    </trkpt>
    <trkpt lat="42.154345" lon="2.535612">
        <ele>776.6</ele>
        <time>2020-06-13T10:11:52.451Z</time>
    </trkpt>
    <trkpt lat="42.154426" lon="2.535479">
        <ele>775.5</ele>
        <time>2020-06-13T10:12:05.451Z</time>
    </trkpt>
    <trkpt lat="42.15444" lon="2.535417">
        <ele>775.0</ele>
        <time>2020-06-13T10:12:11.451Z</time>
    </trkpt>
    <trkpt lat="42.154455" lon="2.53536">
        <ele>774.1</ele>
        <time>2020-06-13T10:12:17.451Z</time>
    </trkpt>
    <trkpt lat="42.154502" lon="2.535189">
        <ele>769.5</ele>
        <time>2020-06-13T10:12:31.451Z</time>
    </trkpt>
    <trkpt lat="42.15453" lon="2.535137">
        <ele>767.6</ele>
        <time>2020-06-13T10:12:36.451Z</time>
    </trkpt>
    <trkpt lat="42.154577" lon="2.535128">
        <ele>766.3</ele>
        <time>2020-06-13T10:12:41.451Z</time>
    </trkpt>
    <trkpt lat="42.154624" lon="2.535097">
        <ele>764.9</ele>
        <time>2020-06-13T10:12:51.451Z</time>
    </trkpt>
    <trkpt lat="42.154643" lon="2.535039">
        <ele>763.9</ele>
        <time>2020-06-13T10:13:02.451Z</time>
    </trkpt>
    <trkpt lat="42.154678" lon="2.534991">
        <ele>763.1</ele>
        <time>2020-06-13T10:13:22.451Z</time>
    </trkpt>
    <trkpt lat="42.154708" lon="2.534946">
        <ele>762.1</ele>
        <time>2020-06-13T10:13:29.451Z</time>
    </trkpt>
    <trkpt lat="42.154804" lon="2.534913">
        <ele>757.9</ele>
        <time>2020-06-13T10:13:50.451Z</time>
    </trkpt>
    <trkpt lat="42.154864" lon="2.534822">
        <ele>754.6</ele>
        <time>2020-06-13T10:14:00.451Z</time>
    </trkpt>
    <trkpt lat="42.154924" lon="2.534699">
        <ele>751.9</ele>
        <time>2020-06-13T10:14:13.451Z</time>
    </trkpt>
    <trkpt lat="42.154987" lon="2.534574">
        <ele>749.6</ele>
        <time>2020-06-13T10:14:23.451Z</time>
    </trkpt>
    <trkpt lat="42.155002" lon="2.534466">
        <ele>749.0</ele>
        <time>2020-06-13T10:14:33.451Z</time>
    </trkpt>
    <trkpt lat="42.155" lon="2.534401">
        <ele>748.2</ele>
        <time>2020-06-13T10:14:42.451Z</time>
    </trkpt>
    <trkpt lat="42.155041" lon="2.53435">
        <ele>745.1</ele>
        <time>2020-06-13T10:14:50.451Z</time>
    </trkpt>
    <trkpt lat="42.155086" lon="2.534236">
        <ele>741.3</ele>
        <time>2020-06-13T10:15:10.451Z</time>
    </trkpt>
    <trkpt lat="42.155108" lon="2.534182">
        <ele>739.6</ele>
        <time>2020-06-13T10:15:16.451Z</time>
    </trkpt>
    <trkpt lat="42.155117" lon="2.534123">
        <ele>738.3</ele>
        <time>2020-06-13T10:15:22.451Z</time>
    </trkpt>
    <trkpt lat="42.155117" lon="2.534049">
        <ele>737.2</ele>
        <time>2020-06-13T10:15:27.451Z</time>
    </trkpt>
    <trkpt lat="42.155152" lon="2.533997">
        <ele>735.2</ele>
        <time>2020-06-13T10:15:31.451Z</time>
    </trkpt>
    <trkpt lat="42.155177" lon="2.533935">
        <ele>733.7</ele>
        <time>2020-06-13T10:15:37.451Z</time>
    </trkpt>
    <trkpt lat="42.155185" lon="2.533806">
        <ele>732.3</ele>
        <time>2020-06-13T10:15:50.451Z</time>
    </trkpt>
    <trkpt lat="42.155159" lon="2.533732">
        <ele>732.1</ele>
        <time>2020-06-13T10:15:55.451Z</time>
    </trkpt>
    <trkpt lat="42.155167" lon="2.533668">
        <ele>731.3</ele>
        <time>2020-06-13T10:16:01.451Z</time>
    </trkpt>
    <trkpt lat="42.155177" lon="2.533609">
        <ele>730.8</ele>
        <time>2020-06-13T10:16:09.451Z</time>
    </trkpt>
    <trkpt lat="42.155169" lon="2.533529">
        <ele>729.6</ele>
        <time>2020-06-13T10:16:17.451Z</time>
    </trkpt>
    <trkpt lat="42.155206" lon="2.533415">
        <ele>728.3</ele>
        <time>2020-06-13T10:16:29.451Z</time>
    </trkpt>
    <trkpt lat="42.15519" lon="2.533355">
        <ele>727.3</ele>
        <time>2020-06-13T10:16:34.451Z</time>
    </trkpt>
    <trkpt lat="42.155199" lon="2.53329">
        <ele>726.4</ele>
        <time>2020-06-13T10:16:41.451Z</time>
    </trkpt>
    <trkpt lat="42.155208" lon="2.533222">
        <ele>725.5</ele>
        <time>2020-06-13T10:16:50.451Z</time>
    </trkpt>
    <trkpt lat="42.155215" lon="2.533154">
        <ele>724.5</ele>
        <time>2020-06-13T10:16:57.451Z</time>
    </trkpt>
    <trkpt lat="42.155206" lon="2.533089">
        <ele>723.4</ele>
        <time>2020-06-13T10:17:02.451Z</time>
    </trkpt>
    <trkpt lat="42.155219" lon="2.532967">
        <ele>721.6</ele>
        <time>2020-06-13T10:17:14.451Z</time>
    </trkpt>
    <trkpt lat="42.155244" lon="2.532911">
        <ele>721.1</ele>
        <time>2020-06-13T10:17:25.451Z</time>
    </trkpt>
    <trkpt lat="42.155235" lon="2.532851">
        <ele>719.9</ele>
        <time>2020-06-13T10:17:34.451Z</time>
    </trkpt>
    <trkpt lat="42.155257" lon="2.532792">
        <ele>719.6</ele>
        <time>2020-06-13T10:17:40.451Z</time>
    </trkpt>
    <trkpt lat="42.155275" lon="2.53273">
        <ele>719.1</ele>
        <time>2020-06-13T10:17:46.451Z</time>
    </trkpt>
    <trkpt lat="42.155262" lon="2.532669">
        <ele>717.7</ele>
        <time>2020-06-13T10:17:52.451Z</time>
    </trkpt>
    <trkpt lat="42.15523" lon="2.532618">
        <ele>715.9</ele>
        <time>2020-06-13T10:17:59.451Z</time>
    </trkpt>
    <trkpt lat="42.155249" lon="2.53256">
        <ele>715.4</ele>
        <time>2020-06-13T10:18:08.451Z</time>
    </trkpt>
    <trkpt lat="42.155232" lon="2.532447">
        <ele>712.5</ele>
        <time>2020-06-13T10:18:20.451Z</time>
    </trkpt>
    <trkpt lat="42.155225" lon="2.532377">
        <ele>710.6</ele>
        <time>2020-06-13T10:18:28.451Z</time>
    </trkpt>
    <trkpt lat="42.155205" lon="2.53229">
        <ele>707.9</ele>
        <time>2020-06-13T10:18:38.451Z</time>
    </trkpt>
    <trkpt lat="42.155172" lon="2.532239">
        <ele>706.2</ele>
        <time>2020-06-13T10:18:45.451Z</time>
    </trkpt>
    <trkpt lat="42.155177" lon="2.532174">
        <ele>704.6</ele>
        <time>2020-06-13T10:18:54.451Z</time>
    </trkpt>
    <trkpt lat="42.155198" lon="2.532114">
        <ele>703.0</ele>
        <time>2020-06-13T10:19:02.451Z</time>
    </trkpt>
    <trkpt lat="42.155169" lon="2.532062">
        <ele>701.3</ele>
        <time>2020-06-13T10:19:13.451Z</time>
    </trkpt>
    <trkpt lat="42.155142" lon="2.531989">
        <ele>699.2</ele>
        <time>2020-06-13T10:19:24.451Z</time>
    </trkpt>
    <trkpt lat="42.155167" lon="2.53193">
        <ele>697.5</ele>
        <time>2020-06-13T10:19:33.451Z</time>
    </trkpt>
    <trkpt lat="42.155122" lon="2.531897">
        <ele>696.2</ele>
        <time>2020-06-13T10:19:44.451Z</time>
    </trkpt>
    <trkpt lat="42.155121" lon="2.531832">
        <ele>693.8</ele>
        <time>2020-06-13T10:19:52.451Z</time>
    </trkpt>
    <trkpt lat="42.155087" lon="2.531768">
        <ele>691.8</ele>
        <time>2020-06-13T10:20:15.451Z</time>
    </trkpt>
    <trkpt lat="42.155046" lon="2.531741">
        <ele>691.1</ele>
        <time>2020-06-13T10:20:24.451Z</time>
    </trkpt>
    <trkpt lat="42.155057" lon="2.531677">
        <ele>688.7</ele>
        <time>2020-06-13T10:20:35.451Z</time>
    </trkpt>
    <trkpt lat="42.155034" lon="2.531618">
        <ele>686.9</ele>
        <time>2020-06-13T10:20:48.451Z</time>
    </trkpt>
    <trkpt lat="42.155017" lon="2.531552">
        <ele>684.6</ele>
        <time>2020-06-13T10:21:05.451Z</time>
    </trkpt>
    <trkpt lat="42.154982" lon="2.531505">
        <ele>682.4</ele>
        <time>2020-06-13T10:21:23.451Z</time>
    </trkpt>
    <trkpt lat="42.154927" lon="2.531489">
        <ele>679.5</ele>
        <time>2020-06-13T10:21:39.451Z</time>
    </trkpt>
    <trkpt lat="42.154971" lon="2.53147">
        <ele>680.8</ele>
        <time>2020-06-13T10:21:58.451Z</time>
    </trkpt>
    <trkpt lat="42.154986" lon="2.531385">
        <ele>678.3</ele>
        <time>2020-06-13T10:22:19.451Z</time>
    </trkpt>
    <trkpt lat="42.154964" lon="2.53132">
        <ele>674.7</ele>
        <time>2020-06-13T10:22:27.451Z</time>
    </trkpt>
    <trkpt lat="42.154914" lon="2.531315">
        <ele>672.7</ele>
        <time>2020-06-13T10:22:36.451Z</time>
    </trkpt>
    <trkpt lat="42.154965" lon="2.531293">
        <ele>673.6</ele>
        <time>2020-06-13T10:23:04.451Z</time>
    </trkpt>
    <trkpt lat="42.154974" lon="2.53123">
        <ele>671.3</ele>
        <time>2020-06-13T10:23:22.451Z</time>
    </trkpt>
    <trkpt lat="42.154976" lon="2.531168">
        <ele>668.7</ele>
        <time>2020-06-13T10:23:32.451Z</time>
    </trkpt>
    <trkpt lat="42.154974" lon="2.531106">
        <ele>666.2</ele>
        <time>2020-06-13T10:23:48.451Z</time>
    </trkpt>
    <trkpt lat="42.154947" lon="2.531054">
        <ele>663.4</ele>
        <time>2020-06-13T10:23:56.451Z</time>
    </trkpt>
    <trkpt lat="42.154966" lon="2.530998">
        <ele>661.6</ele>
        <time>2020-06-13T10:24:09.451Z</time>
    </trkpt>
    <trkpt lat="42.154948" lon="2.530936">
        <ele>658.9</ele>
        <time>2020-06-13T10:24:24.451Z</time>
    </trkpt>
    <trkpt lat="42.154982" lon="2.530891">
        <ele>657.9</ele>
        <time>2020-06-13T10:24:36.451Z</time>
    </trkpt>
    <trkpt lat="42.154989" lon="2.530816">
        <ele>655.1</ele>
        <time>2020-06-13T10:25:03.451Z</time>
    </trkpt>
    <trkpt lat="42.154958" lon="2.530751">
        <ele>651.8</ele>
        <time>2020-06-13T10:25:16.451Z</time>
    </trkpt>
    <trkpt lat="42.154961" lon="2.530684">
        <ele>648.9</ele>
        <time>2020-06-13T10:25:29.451Z</time>
    </trkpt>
    <trkpt lat="42.15497" lon="2.530621">
        <ele>646.4</ele>
        <time>2020-06-13T10:25:49.451Z</time>
    </trkpt>
    <trkpt lat="42.154971" lon="2.530551">
        <ele>643.6</ele>
        <time>2020-06-13T10:26:00.451Z</time>
    </trkpt>
    <trkpt lat="42.154944" lon="2.530494">
        <ele>641.0</ele>
        <time>2020-06-13T10:26:12.451Z</time>
    </trkpt>
    <trkpt lat="42.1549" lon="2.530479">
        <ele>640.2</ele>
        <time>2020-06-13T10:26:19.451Z</time>
    </trkpt>
    <trkpt lat="42.154952" lon="2.530379">
        <ele>636.8</ele>
        <time>2020-06-13T10:26:31.451Z</time>
    </trkpt>
    <trkpt lat="42.154913" lon="2.530349">
        <ele>635.4</ele>
        <time>2020-06-13T10:26:39.451Z</time>
    </trkpt>
    <trkpt lat="42.154903" lon="2.530284">
        <ele>632.9</ele>
        <time>2020-06-13T10:27:35.451Z</time>
    </trkpt>
    <trkpt lat="42.154895" lon="2.530214">
        <ele>630.7</ele>
        <time>2020-06-13T10:27:56.451Z</time>
    </trkpt>
    <trkpt lat="42.154886" lon="2.530153">
        <ele>628.8</ele>
        <time>2020-06-13T10:28:10.451Z</time>
    </trkpt>
    <trkpt lat="42.154918" lon="2.530039">
        <ele>625.3</ele>
        <time>2020-06-13T10:28:31.451Z</time>
    </trkpt>
    <trkpt lat="42.154904" lon="2.52996">
        <ele>622.5</ele>
        <time>2020-06-13T10:28:42.451Z</time>
    </trkpt>
    <trkpt lat="42.1549" lon="2.529899">
        <ele>620.4</ele>
        <time>2020-06-13T10:28:55.451Z</time>
    </trkpt>
    <trkpt lat="42.154809" lon="2.529929">
        <ele>621.8</ele>
        <time>2020-06-13T10:29:04.451Z</time>
    </trkpt>
    <trkpt lat="42.154716" lon="2.529981">
        <ele>623.3</ele>
        <time>2020-06-13T10:29:14.451Z</time>
    </trkpt>
    <trkpt lat="42.154688" lon="2.530037">
        <ele>624.0</ele>
        <time>2020-06-13T10:29:19.451Z</time>
    </trkpt>
    <trkpt lat="42.154659" lon="2.530083">
        <ele>624.3</ele>
        <time>2020-06-13T10:29:23.451Z</time>
    </trkpt>
    <trkpt lat="42.154631" lon="2.530143">
        <ele>624.9</ele>
        <time>2020-06-13T10:29:28.451Z</time>
    </trkpt>
    <trkpt lat="42.15457" lon="2.530247">
        <ele>624.8</ele>
        <time>2020-06-13T10:29:37.451Z</time>
    </trkpt>
    <trkpt lat="42.154541" lon="2.530295">
        <ele>624.7</ele>
        <time>2020-06-13T10:29:41.451Z</time>
    </trkpt>
    <trkpt lat="42.154498" lon="2.530352">
        <ele>624.1</ele>
        <time>2020-06-13T10:29:46.451Z</time>
    </trkpt>
    <trkpt lat="42.154451" lon="2.530363">
        <ele>622.2</ele>
        <time>2020-06-13T10:29:52.451Z</time>
    </trkpt>
    <trkpt lat="42.154415" lon="2.530402">
        <ele>622.1</ele>
        <time>2020-06-13T10:29:57.451Z</time>
    </trkpt>
    <trkpt lat="42.154369" lon="2.530431">
        <ele>621.8</ele>
        <time>2020-06-13T10:30:02.451Z</time>
    </trkpt>
    <trkpt lat="42.154279" lon="2.530511">
        <ele>620.9</ele>
        <time>2020-06-13T10:30:22.451Z</time>
    </trkpt>
    <trkpt lat="42.154236" lon="2.530544">
        <ele>619.9</ele>
        <time>2020-06-13T10:30:27.451Z</time>
    </trkpt>
    <trkpt lat="42.154159" lon="2.530616">
        <ele>618.5</ele>
        <time>2020-06-13T10:30:36.451Z</time>
    </trkpt>
    <trkpt lat="42.154079" lon="2.530687">
        <ele>617.8</ele>
        <time>2020-06-13T10:30:44.451Z</time>
    </trkpt>
    <trkpt lat="42.15403" lon="2.530712">
        <ele>617.3</ele>
        <time>2020-06-13T10:30:49.451Z</time>
    </trkpt>
    <trkpt lat="42.153986" lon="2.53074">
        <ele>616.8</ele>
        <time>2020-06-13T10:30:53.451Z</time>
    </trkpt>
    <trkpt lat="42.153954" lon="2.53079">
        <ele>616.7</ele>
        <time>2020-06-13T10:31:00.451Z</time>
    </trkpt>
    <trkpt lat="42.153923" lon="2.530844">
        <ele>616.7</ele>
        <time>2020-06-13T10:31:04.451Z</time>
    </trkpt>
    <trkpt lat="42.153883" lon="2.530872">
        <ele>616.3</ele>
        <time>2020-06-13T10:31:13.451Z</time>
    </trkpt>
    <trkpt lat="42.153852" lon="2.530922">
        <ele>616.0</ele>
        <time>2020-06-13T10:31:17.451Z</time>
    </trkpt>
    <trkpt lat="42.153743" lon="2.531048">
        <ele>614.1</ele>
        <time>2020-06-13T10:31:28.451Z</time>
    </trkpt>
    <trkpt lat="42.153704" lon="2.531092">
        <ele>613.4</ele>
        <time>2020-06-13T10:31:31.451Z</time>
    </trkpt>
    <trkpt lat="42.153667" lon="2.531169">
        <ele>612.9</ele>
        <time>2020-06-13T10:31:38.451Z</time>
    </trkpt>
    <trkpt lat="42.153595" lon="2.531248">
        <ele>612.2</ele>
        <time>2020-06-13T10:31:47.451Z</time>
    </trkpt>
    <trkpt lat="42.153543" lon="2.531247">
        <ele>612.7</ele>
        <time>2020-06-13T10:31:52.451Z</time>
    </trkpt>
    <trkpt lat="42.153454" lon="2.531212">
        <ele>613.2</ele>
        <time>2020-06-13T10:32:00.451Z</time>
    </trkpt>
    <trkpt lat="42.153421" lon="2.531168">
        <ele>613.3</ele>
        <time>2020-06-13T10:32:10.451Z</time>
    </trkpt>
    <trkpt lat="42.153522" lon="2.531157">
        <ele>612.3</ele>
        <time>2020-06-13T10:32:23.451Z</time>
    </trkpt>
    <trkpt lat="42.153504" lon="2.531087">
        <ele>612.2</ele>
        <time>2020-06-13T10:32:28.451Z</time>
    </trkpt>
    <trkpt lat="42.153509" lon="2.531017">
        <ele>612.2</ele>
        <time>2020-06-13T10:32:33.451Z</time>
    </trkpt>
    <trkpt lat="42.153503" lon="2.530946">
        <ele>612.4</ele>
        <time>2020-06-13T10:32:39.451Z</time>
    </trkpt>
    <trkpt lat="42.153472" lon="2.530882">
        <ele>612.9</ele>
        <time>2020-06-13T10:32:44.451Z</time>
    </trkpt>
    <trkpt lat="42.153479" lon="2.530812">
        <ele>613.0</ele>
        <time>2020-06-13T10:32:50.451Z</time>
    </trkpt>
    <trkpt lat="42.15347" lon="2.530684">
        <ele>613.3</ele>
        <time>2020-06-13T10:32:59.451Z</time>
    </trkpt>
    <trkpt lat="42.153517" lon="2.530562">
        <ele>612.7</ele>
        <time>2020-06-13T10:33:07.451Z</time>
    </trkpt>
    <trkpt lat="42.153537" lon="2.530503">
        <ele>612.5</ele>
        <time>2020-06-13T10:33:11.451Z</time>
    </trkpt>
    <trkpt lat="42.153544" lon="2.530368">
        <ele>612.5</ele>
        <time>2020-06-13T10:33:21.451Z</time>
    </trkpt>
    <trkpt lat="42.153581" lon="2.530226">
        <ele>611.8</ele>
        <time>2020-06-13T10:33:32.451Z</time>
    </trkpt>
    <trkpt lat="42.153574" lon="2.530163">
        <ele>612.1</ele>
        <time>2020-06-13T10:33:37.451Z</time>
    </trkpt>
    <trkpt lat="42.153615" lon="2.530117">
        <ele>611.5</ele>
        <time>2020-06-13T10:33:41.451Z</time>
    </trkpt>
    <trkpt lat="42.153618" lon="2.530055">
        <ele>611.7</ele>
        <time>2020-06-13T10:33:45.451Z</time>
    </trkpt>
    <trkpt lat="42.153594" lon="2.529995">
        <ele>612.4</ele>
        <time>2020-06-13T10:33:49.451Z</time>
    </trkpt>
    <trkpt lat="42.153556" lon="2.529951">
        <ele>612.9</ele>
        <time>2020-06-13T10:33:54.451Z</time>
    </trkpt>
    <trkpt lat="42.153542" lon="2.529884">
        <ele>613.2</ele>
        <time>2020-06-13T10:34:02.451Z</time>
    </trkpt>
    <trkpt lat="42.153515" lon="2.52976">
        <ele>613.5</ele>
        <time>2020-06-13T10:34:11.451Z</time>
    </trkpt>
    <trkpt lat="42.153535" lon="2.529693">
        <ele>613.2</ele>
        <time>2020-06-13T10:34:15.451Z</time>
    </trkpt>
    <trkpt lat="42.153553" lon="2.529623">
        <ele>612.5</ele>
        <time>2020-06-13T10:34:19.451Z</time>
    </trkpt>
    <trkpt lat="42.153564" lon="2.529549">
        <ele>612.0</ele>
        <time>2020-06-13T10:34:23.451Z</time>
    </trkpt>
    <trkpt lat="42.153582" lon="2.529488">
        <ele>611.4</ele>
        <time>2020-06-13T10:34:27.451Z</time>
    </trkpt>
    <trkpt lat="42.153563" lon="2.529426">
        <ele>611.2</ele>
        <time>2020-06-13T10:34:30.451Z</time>
    </trkpt>
    <trkpt lat="42.153559" lon="2.529362">
        <ele>611.0</ele>
        <time>2020-06-13T10:34:34.451Z</time>
    </trkpt>
    <trkpt lat="42.153547" lon="2.529296">
        <ele>610.7</ele>
        <time>2020-06-13T10:34:39.451Z</time>
    </trkpt>
    <trkpt lat="42.153524" lon="2.52924">
        <ele>610.6</ele>
        <time>2020-06-13T10:34:42.451Z</time>
    </trkpt>
    <trkpt lat="42.153482" lon="2.529201">
        <ele>610.7</ele>
        <time>2020-06-13T10:34:46.451Z</time>
    </trkpt>
    <trkpt lat="42.153395" lon="2.52913">
        <ele>610.7</ele>
        <time>2020-06-13T10:34:53.451Z</time>
    </trkpt>
    <trkpt lat="42.153329" lon="2.529027">
        <ele>610.7</ele>
        <time>2020-06-13T10:35:02.451Z</time>
    </trkpt>
    <trkpt lat="42.153247" lon="2.528954">
        <ele>611.3</ele>
        <time>2020-06-13T10:35:11.451Z</time>
    </trkpt>
    <trkpt lat="42.15321" lon="2.528907">
        <ele>611.5</ele>
        <time>2020-06-13T10:35:17.451Z</time>
    </trkpt>
    <trkpt lat="42.153183" lon="2.528852">
        <ele>611.7</ele>
        <time>2020-06-13T10:35:24.451Z</time>
    </trkpt>
    <trkpt lat="42.153092" lon="2.528714">
        <ele>612.1</ele>
        <time>2020-06-13T10:35:37.451Z</time>
    </trkpt>
    <trkpt lat="42.153077" lon="2.528653">
        <ele>612.1</ele>
        <time>2020-06-13T10:35:42.451Z</time>
    </trkpt>
    <trkpt lat="42.153085" lon="2.52859">
        <ele>611.9</ele>
        <time>2020-06-13T10:35:47.451Z</time>
    </trkpt>
    <trkpt lat="42.153044" lon="2.528562">
        <ele>612.4</ele>
        <time>2020-06-13T10:35:50.451Z</time>
    </trkpt>
    <trkpt lat="42.152943" lon="2.528517">
        <ele>613.0</ele>
        <time>2020-06-13T10:35:57.451Z</time>
    </trkpt>
    <trkpt lat="42.1529" lon="2.528479">
        <ele>613.1</ele>
        <time>2020-06-13T10:36:02.451Z</time>
    </trkpt>
    <trkpt lat="42.152834" lon="2.528315">
        <ele>612.3</ele>
        <time>2020-06-13T10:36:14.451Z</time>
    </trkpt>
    <trkpt lat="42.152792" lon="2.52828">
        <ele>612.2</ele>
        <time>2020-06-13T10:36:19.451Z</time>
    </trkpt>
    <trkpt lat="42.152739" lon="2.528195">
        <ele>612.4</ele>
        <time>2020-06-13T10:36:40.451Z</time>
    </trkpt>
    <trkpt lat="42.152702" lon="2.528151">
        <ele>612.4</ele>
        <time>2020-06-13T10:36:59.451Z</time>
    </trkpt>
    <trkpt lat="42.15269" lon="2.528088">
        <ele>612.2</ele>
        <time>2020-06-13T10:37:04.451Z</time>
    </trkpt>
    <trkpt lat="42.152656" lon="2.528028">
        <ele>611.6</ele>
        <time>2020-06-13T10:37:09.451Z</time>
    </trkpt>
    <trkpt lat="42.15262" lon="2.527985">
        <ele>611.2</ele>
        <time>2020-06-13T10:37:13.451Z</time>
    </trkpt>
    <trkpt lat="42.15262" lon="2.527919">
        <ele>611.2</ele>
        <time>2020-06-13T10:37:18.451Z</time>
    </trkpt>
    <trkpt lat="42.152596" lon="2.527866">
        <ele>610.9</ele>
        <time>2020-06-13T10:37:23.451Z</time>
    </trkpt>
    <trkpt lat="42.152492" lon="2.527744">
        <ele>609.8</ele>
        <time>2020-06-13T10:37:35.451Z</time>
    </trkpt>
    <trkpt lat="42.152445" lon="2.527745">
        <ele>609.7</ele>
        <time>2020-06-13T10:37:39.451Z</time>
    </trkpt>
    <trkpt lat="42.152378" lon="2.52776">
        <ele>609.5</ele>
        <time>2020-06-13T10:37:44.451Z</time>
    </trkpt>
    <trkpt lat="42.152329" lon="2.527754">
        <ele>609.3</ele>
        <time>2020-06-13T10:37:48.451Z</time>
    </trkpt>
    <trkpt lat="42.152281" lon="2.527732">
        <ele>609.0</ele>
        <time>2020-06-13T10:37:52.451Z</time>
    </trkpt>
    <trkpt lat="42.152237" lon="2.527702">
        <ele>608.9</ele>
        <time>2020-06-13T10:37:56.451Z</time>
    </trkpt>
    <trkpt lat="42.152192" lon="2.527685">
        <ele>608.4</ele>
        <time>2020-06-13T10:38:01.451Z</time>
    </trkpt>
    <trkpt lat="42.152102" lon="2.527635">
        <ele>607.4</ele>
        <time>2020-06-13T10:38:09.451Z</time>
    </trkpt>
    <trkpt lat="42.152015" lon="2.527589">
        <ele>606.7</ele>
        <time>2020-06-13T10:38:20.451Z</time>
    </trkpt>
    <trkpt lat="42.151973" lon="2.52755">
        <ele>606.3</ele>
        <time>2020-06-13T10:38:24.451Z</time>
    </trkpt>
    <trkpt lat="42.151835" lon="2.527501">
        <ele>606.5</ele>
        <time>2020-06-13T10:38:36.451Z</time>
    </trkpt>
    <trkpt lat="42.151751" lon="2.527441">
        <ele>607.1</ele>
        <time>2020-06-13T10:38:45.451Z</time>
    </trkpt>
    <trkpt lat="42.151707" lon="2.527403">
        <ele>607.3</ele>
        <time>2020-06-13T10:38:49.451Z</time>
    </trkpt>
    <trkpt lat="42.15166" lon="2.527408">
        <ele>607.0</ele>
        <time>2020-06-13T10:38:52.451Z</time>
    </trkpt>
    <trkpt lat="42.151525" lon="2.527356">
        <ele>606.0</ele>
        <time>2020-06-13T10:39:03.451Z</time>
    </trkpt>
    <trkpt lat="42.151466" lon="2.527353">
        <ele>605.6</ele>
        <time>2020-06-13T10:39:07.451Z</time>
    </trkpt>
    <trkpt lat="42.151383" lon="2.527299">
        <ele>604.5</ele>
        <time>2020-06-13T10:39:16.451Z</time>
    </trkpt>
    <trkpt lat="42.151295" lon="2.527242">
        <ele>603.1</ele>
        <time>2020-06-13T10:39:24.451Z</time>
    </trkpt>
    <trkpt lat="42.151242" lon="2.527224">
        <ele>602.4</ele>
        <time>2020-06-13T10:39:28.451Z</time>
    </trkpt>
    <trkpt lat="42.151192" lon="2.527123">
        <ele>602.1</ele>
        <time>2020-06-13T10:39:36.451Z</time>
    </trkpt>
    <trkpt lat="42.151129" lon="2.527036">
        <ele>601.3</ele>
        <time>2020-06-13T10:39:43.451Z</time>
    </trkpt>
    <trkpt lat="42.151051" lon="2.526952">
        <ele>601.2</ele>
        <time>2020-06-13T10:39:50.451Z</time>
    </trkpt>
    <trkpt lat="42.150998" lon="2.52692">
        <ele>601.2</ele>
        <time>2020-06-13T10:39:57.451Z</time>
    </trkpt>
    <trkpt lat="42.150956" lon="2.526951">
        <ele>601.7</ele>
        <time>2020-06-13T10:40:02.451Z</time>
    </trkpt>
    <trkpt lat="42.150928" lon="2.527003">
        <ele>601.8</ele>
        <time>2020-06-13T10:40:08.451Z</time>
    </trkpt>
    <trkpt lat="42.150904" lon="2.527065">
        <ele>602.1</ele>
        <time>2020-06-13T10:40:14.451Z</time>
    </trkpt>
    <trkpt lat="42.150886" lon="2.527121">
        <ele>602.4</ele>
        <time>2020-06-13T10:40:18.451Z</time>
    </trkpt>
    <trkpt lat="42.150845" lon="2.52724">
        <ele>603.3</ele>
        <time>2020-06-13T10:40:27.451Z</time>
    </trkpt>
    <trkpt lat="42.150814" lon="2.527302">
        <ele>604.3</ele>
        <time>2020-06-13T10:40:32.451Z</time>
    </trkpt>
    <trkpt lat="42.150758" lon="2.527403">
        <ele>605.5</ele>
        <time>2020-06-13T10:40:40.451Z</time>
    </trkpt>
    <trkpt lat="42.150704" lon="2.527511">
        <ele>606.6</ele>
        <time>2020-06-13T10:40:47.451Z</time>
    </trkpt>
    <trkpt lat="42.150646" lon="2.527592">
        <ele>607.2</ele>
        <time>2020-06-13T10:40:54.451Z</time>
    </trkpt>
    <trkpt lat="42.150615" lon="2.527642">
        <ele>607.5</ele>
        <time>2020-06-13T10:40:58.451Z</time>
    </trkpt>
    <trkpt lat="42.150581" lon="2.527701">
        <ele>608.1</ele>
        <time>2020-06-13T10:41:03.451Z</time>
    </trkpt>
    <trkpt lat="42.150544" lon="2.527744">
        <ele>608.7</ele>
        <time>2020-06-13T10:41:08.451Z</time>
    </trkpt>
    <trkpt lat="42.150514" lon="2.527799">
        <ele>609.1</ele>
        <time>2020-06-13T10:41:13.451Z</time>
    </trkpt>
    <trkpt lat="42.150419" lon="2.527936">
        <ele>609.4</ele>
        <time>2020-06-13T10:41:25.451Z</time>
    </trkpt>
    <trkpt lat="42.150354" lon="2.528102">
        <ele>609.7</ele>
        <time>2020-06-13T10:41:36.451Z</time>
    </trkpt>
    <trkpt lat="42.150308" lon="2.528164">
        <ele>609.4</ele>
        <time>2020-06-13T10:41:42.451Z</time>
    </trkpt>
    <trkpt lat="42.150244" lon="2.528262">
        <ele>609.4</ele>
        <time>2020-06-13T10:41:51.451Z</time>
    </trkpt>
    <trkpt lat="42.150207" lon="2.528314">
        <ele>609.9</ele>
        <time>2020-06-13T10:41:56.451Z</time>
    </trkpt>
    <trkpt lat="42.150177" lon="2.528363">
        <ele>610.1</ele>
        <time>2020-06-13T10:42:01.451Z</time>
    </trkpt>
    <trkpt lat="42.15015" lon="2.528412">
        <ele>610.4</ele>
        <time>2020-06-13T10:42:05.451Z</time>
    </trkpt>
    <trkpt lat="42.150119" lon="2.528472">
        <ele>610.6</ele>
        <time>2020-06-13T10:42:09.451Z</time>
    </trkpt>
    <trkpt lat="42.150101" lon="2.528537">
        <ele>610.7</ele>
        <time>2020-06-13T10:42:14.451Z</time>
    </trkpt>
    <trkpt lat="42.150032" lon="2.528708">
        <ele>611.6</ele>
        <time>2020-06-13T10:42:26.451Z</time>
    </trkpt>
    <trkpt lat="42.14999" lon="2.528752">
        <ele>612.0</ele>
        <time>2020-06-13T10:42:34.451Z</time>
    </trkpt>
    <trkpt lat="42.149986" lon="2.528818">
        <ele>612.5</ele>
        <time>2020-06-13T10:42:38.451Z</time>
    </trkpt>
    <trkpt lat="42.149937" lon="2.528987">
        <ele>612.9</ele>
        <time>2020-06-13T10:42:52.451Z</time>
    </trkpt>
    <trkpt lat="42.149917" lon="2.529042">
        <ele>612.9</ele>
        <time>2020-06-13T10:42:57.451Z</time>
    </trkpt>
    <trkpt lat="42.149894" lon="2.52911">
        <ele>612.7</ele>
        <time>2020-06-13T10:43:02.451Z</time>
    </trkpt>
    <trkpt lat="42.149866" lon="2.529176">
        <ele>612.8</ele>
        <time>2020-06-13T10:43:07.451Z</time>
    </trkpt>
    <trkpt lat="42.149827" lon="2.529244">
        <ele>613.5</ele>
        <time>2020-06-13T10:43:12.451Z</time>
    </trkpt>
    <trkpt lat="42.149805" lon="2.529304">
        <ele>614.0</ele>
        <time>2020-06-13T10:43:16.451Z</time>
    </trkpt>
    <trkpt lat="42.149789" lon="2.529362">
        <ele>614.3</ele>
        <time>2020-06-13T10:43:20.451Z</time>
    </trkpt>
    <trkpt lat="42.149771" lon="2.529428">
        <ele>614.7</ele>
        <time>2020-06-13T10:43:25.451Z</time>
    </trkpt>
    <trkpt lat="42.149752" lon="2.529492">
        <ele>615.2</ele>
        <time>2020-06-13T10:43:30.451Z</time>
    </trkpt>
    <trkpt lat="42.149704" lon="2.529599">
        <ele>616.2</ele>
        <time>2020-06-13T10:43:38.451Z</time>
    </trkpt>
    <trkpt lat="42.149664" lon="2.529676">
        <ele>616.6</ele>
        <time>2020-06-13T10:43:44.451Z</time>
    </trkpt>
    <trkpt lat="42.149634" lon="2.529727">
        <ele>616.9</ele>
        <time>2020-06-13T10:43:48.451Z</time>
    </trkpt>
    <trkpt lat="42.14961" lon="2.529789">
        <ele>617.4</ele>
        <time>2020-06-13T10:43:52.451Z</time>
    </trkpt>
    <trkpt lat="42.149572" lon="2.52984">
        <ele>617.5</ele>
        <time>2020-06-13T10:43:56.451Z</time>
    </trkpt>
    <trkpt lat="42.149535" lon="2.529875">
        <ele>617.3</ele>
        <time>2020-06-13T10:44:00.451Z</time>
    </trkpt>
    <trkpt lat="42.149498" lon="2.529921">
        <ele>617.2</ele>
        <time>2020-06-13T10:44:04.451Z</time>
    </trkpt>
    <trkpt lat="42.149447" lon="2.530024">
        <ele>617.1</ele>
        <time>2020-06-13T10:44:13.451Z</time>
    </trkpt>
    <trkpt lat="42.149393" lon="2.530194">
        <ele>616.5</ele>
        <time>2020-06-13T10:44:25.451Z</time>
    </trkpt>
    <trkpt lat="42.149385" lon="2.53033">
        <ele>616.0</ele>
        <time>2020-06-13T10:44:34.451Z</time>
    </trkpt>
    <trkpt lat="42.149372" lon="2.530407">
        <ele>615.2</ele>
        <time>2020-06-13T10:44:39.451Z</time>
    </trkpt>
    <trkpt lat="42.149372" lon="2.530469">
        <ele>614.7</ele>
        <time>2020-06-13T10:44:44.451Z</time>
    </trkpt>
    <trkpt lat="42.149376" lon="2.53053">
        <ele>614.2</ele>
        <time>2020-06-13T10:44:48.451Z</time>
    </trkpt>
    <trkpt lat="42.149401" lon="2.530597">
        <ele>613.9</ele>
        <time>2020-06-13T10:44:52.451Z</time>
    </trkpt>
    <trkpt lat="42.149396" lon="2.530665">
        <ele>613.9</ele>
        <time>2020-06-13T10:44:55.451Z</time>
    </trkpt>
    <trkpt lat="42.149395" lon="2.53073">
        <ele>613.8</ele>
        <time>2020-06-13T10:44:59.451Z</time>
    </trkpt>
    <trkpt lat="42.149395" lon="2.530794">
        <ele>613.6</ele>
        <time>2020-06-13T10:45:03.451Z</time>
    </trkpt>
    <trkpt lat="42.149414" lon="2.53086">
        <ele>613.6</ele>
        <time>2020-06-13T10:45:08.451Z</time>
    </trkpt>
    <trkpt lat="42.149433" lon="2.530988">
        <ele>614.3</ele>
        <time>2020-06-13T10:45:16.451Z</time>
    </trkpt>
    <trkpt lat="42.149428" lon="2.531177">
        <ele>615.7</ele>
        <time>2020-06-13T10:45:29.451Z</time>
    </trkpt>
    <trkpt lat="42.149424" lon="2.531243">
        <ele>615.9</ele>
        <time>2020-06-13T10:45:33.451Z</time>
    </trkpt>
    <trkpt lat="42.14945" lon="2.531307">
        <ele>615.7</ele>
        <time>2020-06-13T10:45:38.451Z</time>
    </trkpt>
    <trkpt lat="42.149439" lon="2.531382">
        <ele>616.2</ele>
        <time>2020-06-13T10:45:43.451Z</time>
    </trkpt>
    <trkpt lat="42.149452" lon="2.531518">
        <ele>616.9</ele>
        <time>2020-06-13T10:45:52.451Z</time>
    </trkpt>
    <trkpt lat="42.149422" lon="2.531573">
        <ele>617.8</ele>
        <time>2020-06-13T10:45:56.451Z</time>
    </trkpt>
    <trkpt lat="42.149422" lon="2.531637">
        <ele>618.3</ele>
        <time>2020-06-13T10:46:02.451Z</time>
    </trkpt>
    <trkpt lat="42.149441" lon="2.531699">
        <ele>618.4</ele>
        <time>2020-06-13T10:46:07.451Z</time>
    </trkpt>
    </trkseg>
</trk>
</gpx>