<?xml version="1.0" encoding="UTF-8"?>
<gpx xmlns:xsi="http://www.w3.org/2001/XMLSchema-instance" xmlns="http://www.topografix.com/GPX/1/1" xsi:schemaLocation="http://www.topografix.com/GPX/1/1 http://www.topografix.com/GPX/1/1/gpx.xsd http://www.garmin.com/xmlschemas/GpxExtensions/v3 http://www.garmin.com/xmlschemas/GpxExtensionsv3.xsd http://www.garmin.com/xmlschemas/TrackPointExtension/v1 http://www.garmin.com/xmlschemas/TrackPointExtensionv1.xsd http://www.topografix.com/GPX/gpx_style/0/2 http://www.topografix.com/GPX/gpx_style/0/2/gpx_style.xsd" xmlns:gpxtpx="http://www.garmin.com/xmlschemas/TrackPointExtension/v1" xmlns:gpxx="http://www.garmin.com/xmlschemas/GpxExtensions/v3" xmlns:gpx_style="http://www.topografix.com/GPX/gpx_style/0/2" version="1.1" creator="GoolTracking - http://www.GoolTracking.com">
<metadata>
    <name>R5 - Per les terres dels barons de Santa Pau</name>
    <author>
        <name>gpx.studio</name>
        <link href="https://gpx.studio"></link>
    </author>
</metadata>
<wpt lat="42.14449733523489" lon="2.569110989570618">
    <ele>490.9</ele>
    <name>SP10</name>
    <cmt>Santa Pau C/. Del Pont</cmt>
    <desc>Santa Pau C/. Del Pont</desc>
    <sym>Flag, Green</sym>
</wpt>
<wpt lat="42.14469223117496" lon="2.577779889106751">
    <ele>451.1</ele>
    <name>SP1</name>
    <cmt>El Pujol</cmt>
    <desc>El Pujol</desc>
    <sym>Flag, Green</sym>
</wpt>
<wpt lat="42.1447518930775" lon="2.5776726007461552">
    <ele>450.6</ele>
    <name>SP16</name>
    <cmt>Pont d&apos;Instints</cmt>
    <desc>Pont d&apos;Instints</desc>
    <sym>Bridge</sym>
</wpt>
<wpt lat="42.14122776695134" lon="2.585263252258301">
    <ele>446.8</ele>
    <name>Els Arcs</name>
    <cmt>Casa de colònies / església</cmt>
    <desc>Casa de colònies / església</desc>
    <sym>Church</sym>
</wpt>
<wpt lat="42.13396601677145" lon="2.5882638931274387">
    <ele>471.8</ele>
    <name>SP11</name>
    <cmt>El Carrer</cmt>
    <desc>El Carrer</desc>
    <sym>Flag, Green</sym>
</wpt>
<wpt lat="42.113847458200524" lon="2.591410875320435">
    <ele>855.1</ele>
    <name>G991</name>
    <cmt>Fageda de Finestres</cmt>
    <desc>Fageda de Finestres</desc>
    <sym>Flag, Green</sym>
</wpt>
<wpt lat="42.11190548161137" lon="2.5930349528789525">
    <ele>852.2</ele>
    <name>Església de Santa Maria de Finestres</name>
    <sym>Church</sym>
</wpt>
<wpt lat="42.1134155" lon="2.5958543">
    <ele>913.5</ele>
    <name>Mirador</name>
    <cmt>direction: 0-360, name: Castell de Finestres, name:ca: Castell de Finestres, tourism: viewpoint</cmt>
    <sym>Scenic Area</sym>
</wpt>
<wpt lat="42.11389919036976" lon="2.596075236797333">
    <ele>880.1</ele>
    <name>Castell de Finestres</name>
    <sym>Geographic place name, Man-made</sym>
</wpt>
<wpt lat="42.14391264381487" lon="2.5709509849548344">
    <ele>491.5</ele>
    <name>Font</name>
    <sym>Drinking Water</sym>
</wpt>
<wpt lat="42.1442801" lon="2.5688667">
    <ele>489.4</ele>
    <name>Mirador</name>
    <cmt>tourism: viewpoint</cmt>
    <sym>Scenic Area</sym>
</wpt>
<wpt lat="42.1436858" lon="2.5698934">
    <ele>489.1</ele>
    <name>WC</name>
    <cmt>amenity: toilets</cmt>
    <sym>Restroom</sym>
</wpt>
<wpt lat="42.114470251174275" lon="2.590069538800899">
    <ele>846.2</ele>
    <name>G990</name>
    <cmt>Fageda de Finestres</cmt>
    <desc>Fageda de Finestres</desc>
    <sym>Flag, Green</sym>
</wpt>
<wpt lat="42.1134155" lon="2.5958543">
    <ele>913.5</ele>
    <name>Mirador</name>
    <cmt>direction: 0-360, name: Castell de Finestres, name:ca: Castell de Finestres, tourism: viewpoint</cmt>
    <sym>Scenic Area</sym>
</wpt>
<trk>
    <name>Per les terres dels barons de Santa Pau (Tram) </name>
    <type>Running</type>
    <extensions>
        <gpx_style:line>
        <color>1100ff</color>
        <opacity>0.7</opacity>
        <weight>3</weight>
        </gpx_style:line>
    </extensions>
    <trkseg>
    <trkpt lat="42.1444888" lon="2.56917">
        <ele>490.0</ele>
    </trkpt>
    <trkpt lat="42.1442908" lon="2.5694897">
        <ele>485.0</ele>
    </trkpt>
    <trkpt lat="42.144119" lon="2.5697299">
        <ele>482.0</ele>
    </trkpt>
    <trkpt lat="42.1439699" lon="2.56997">
        <ele>480.0</ele>
    </trkpt>
    <trkpt lat="42.1439019" lon="2.57006">
        <ele>482.0</ele>
    </trkpt>
    <trkpt lat="42.1439508" lon="2.5703099">
        <ele>484.0</ele>
    </trkpt>
    <trkpt lat="42.1439778" lon="2.5703797">
        <ele>484.0</ele>
    </trkpt>
    <trkpt lat="42.1440509" lon="2.5704898">
        <ele>484.0</ele>
    </trkpt>
    <trkpt lat="42.1440197" lon="2.5707297">
        <ele>487.0</ele>
    </trkpt>
    <trkpt lat="42.1439699" lon="2.5708499">
        <ele>487.0</ele>
    </trkpt>
    <trkpt lat="42.1439399" lon="2.5710197">
        <ele>488.0</ele>
    </trkpt>
    <trkpt lat="42.1439289" lon="2.5715897">
        <ele>485.0</ele>
    </trkpt>
    <trkpt lat="42.1439699" lon="2.57184">
        <ele>481.0</ele>
    </trkpt>
    <trkpt lat="42.1440388" lon="2.5720398">
        <ele>479.0</ele>
    </trkpt>
    <trkpt lat="42.1441309" lon="2.5721799">
        <ele>477.0</ele>
    </trkpt>
    <trkpt lat="42.1441988" lon="2.5723">
        <ele>476.0</ele>
    </trkpt>
    <trkpt lat="42.1442598" lon="2.5724498">
        <ele>475.0</ele>
    </trkpt>
    <trkpt lat="42.1443099" lon="2.5726699">
        <ele>472.0</ele>
    </trkpt>
    <trkpt lat="42.1443478" lon="2.5727699">
        <ele>472.0</ele>
    </trkpt>
    <trkpt lat="42.1445199" lon="2.5731497">
        <ele>467.0</ele>
    </trkpt>
    <trkpt lat="42.1445498" lon="2.5732299">
        <ele>466.0</ele>
    </trkpt>
    <trkpt lat="42.1444589" lon="2.5733199">
        <ele>465.0</ele>
    </trkpt>
    <trkpt lat="42.144241" lon="2.5733299">
        <ele>464.0</ele>
    </trkpt>
    <trkpt lat="42.1440197" lon="2.5732099">
        <ele>464.0</ele>
    </trkpt>
    <trkpt lat="42.1439289" lon="2.5731797">
        <ele>464.0</ele>
    </trkpt>
    <trkpt lat="42.1438217" lon="2.5731697">
        <ele>464.0</ele>
    </trkpt>
    <trkpt lat="42.1436997" lon="2.57319">
        <ele>464.0</ele>
    </trkpt>
    <trkpt lat="42.1435698" lon="2.57319">
        <ele>464.0</ele>
    </trkpt>
    <trkpt lat="42.1434399" lon="2.5731298">
        <ele>464.0</ele>
    </trkpt>
    <trkpt lat="42.1434098" lon="2.5730498">
        <ele>465.0</ele>
    </trkpt>
    <trkpt lat="42.1433597" lon="2.5728297">
        <ele>465.0</ele>
    </trkpt>
    <trkpt lat="42.1433108" lon="2.5727499">
        <ele>466.0</ele>
    </trkpt>
    <trkpt lat="42.1432498" lon="2.5727298">
        <ele>467.0</ele>
    </trkpt>
    <trkpt lat="42.1431389" lon="2.5727298">
        <ele>467.0</ele>
    </trkpt>
    <trkpt lat="42.1429787" lon="2.5726897">
        <ele>468.0</ele>
    </trkpt>
    <trkpt lat="42.14286" lon="2.5726399">
        <ele>469.0</ele>
    </trkpt>
    <trkpt lat="42.1426997" lon="2.57265">
        <ele>469.0</ele>
    </trkpt>
    <trkpt lat="42.1425589" lon="2.5726998">
        <ele>469.0</ele>
    </trkpt>
    <trkpt lat="42.1425207" lon="2.5727999">
        <ele>467.0</ele>
    </trkpt>
    <trkpt lat="42.1425018" lon="2.5729298">
        <ele>466.0</ele>
    </trkpt>
    <trkpt lat="42.1423908" lon="2.5730198">
        <ele>466.0</ele>
    </trkpt>
    <trkpt lat="42.1423298" lon="2.5730999">
        <ele>465.0</ele>
    </trkpt>
    <trkpt lat="42.1422687" lon="2.5732597">
        <ele>464.0</ele>
    </trkpt>
    <trkpt lat="42.1421998" lon="2.5736198">
        <ele>462.0</ele>
    </trkpt>
    <trkpt lat="42.1420587" lon="2.574">
        <ele>459.0</ele>
    </trkpt>
    <trkpt lat="42.141991" lon="2.5741497">
        <ele>457.0</ele>
    </trkpt>
    <trkpt lat="42.1419408" lon="2.57429">
        <ele>456.0</ele>
    </trkpt>
    <trkpt lat="42.1418989" lon="2.5743597">
        <ele>455.0</ele>
    </trkpt>
    <trkpt lat="42.1418419" lon="2.5744997">
        <ele>454.0</ele>
    </trkpt>
    <trkpt lat="42.141762" lon="2.57457">
        <ele>454.0</ele>
    </trkpt>
    <trkpt lat="42.1415598" lon="2.5745498">
        <ele>453.0</ele>
    </trkpt>
    <trkpt lat="42.1414909" lon="2.5745299">
        <ele>455.0</ele>
    </trkpt>
    <trkpt lat="42.1414299" lon="2.5744898">
        <ele>456.0</ele>
    </trkpt>
    <trkpt lat="42.1411707" lon="2.5743797">
        <ele>456.0</ele>
    </trkpt>
    <trkpt lat="42.141048" lon="2.57434">
        <ele>455.0</ele>
    </trkpt>
    <trkpt lat="42.1409187" lon="2.5743498">
        <ele>456.0</ele>
    </trkpt>
    <trkpt lat="42.1407697" lon="2.5744898">
        <ele>458.0</ele>
    </trkpt>
    <trkpt lat="42.1406777" lon="2.5746197">
        <ele>460.0</ele>
    </trkpt>
    <trkpt lat="42.1405178" lon="2.5748999">
        <ele>463.0</ele>
    </trkpt>
    <trkpt lat="42.1403808" lon="2.5752398">
        <ele>465.0</ele>
    </trkpt>
    <trkpt lat="42.1403077" lon="2.5753599">
        <ele>467.0</ele>
    </trkpt>
    <trkpt lat="42.140209" lon="2.5754197">
        <ele>467.0</ele>
    </trkpt>
    <trkpt lat="42.1398809" lon="2.5754499">
        <ele>471.0</ele>
    </trkpt>
    <trkpt lat="42.1398009" lon="2.57544">
        <ele>472.0</ele>
    </trkpt>
    <trkpt lat="42.1396598" lon="2.57532">
        <ele>474.0</ele>
    </trkpt>
    <trkpt lat="42.1394687" lon="2.57532">
        <ele>476.0</ele>
    </trkpt>
    <trkpt lat="42.1393887" lon="2.5752398">
        <ele>474.0</ele>
    </trkpt>
    <trkpt lat="42.1392209" lon="2.5752997">
        <ele>478.0</ele>
    </trkpt>
    <trkpt lat="42.1391408" lon="2.5753399">
        <ele>480.0</ele>
    </trkpt>
    <trkpt lat="42.1389009" lon="2.5753798">
        <ele>483.0</ele>
    </trkpt>
    <trkpt lat="42.1387287" lon="2.5754797">
        <ele>485.0</ele>
    </trkpt>
    <trkpt lat="42.1385378" lon="2.57567">
        <ele>488.0</ele>
    </trkpt>
    <trkpt lat="42.1384198" lon="2.57575">
        <ele>489.0</ele>
    </trkpt>
    <trkpt lat="42.1383289" lon="2.5759">
        <ele>491.0</ele>
    </trkpt>
    <trkpt lat="42.1382097" lon="2.5761099">
        <ele>495.0</ele>
    </trkpt>
    <trkpt lat="42.138142" lon="2.57621">
        <ele>495.0</ele>
    </trkpt>
    <trkpt lat="42.1380997" lon="2.5763897">
        <ele>496.0</ele>
    </trkpt>
    <trkpt lat="42.1380997" lon="2.5765699">
        <ele>497.0</ele>
    </trkpt>
    <trkpt lat="42.1380877" lon="2.5766297">
        <ele>497.0</ele>
    </trkpt>
    <trkpt lat="42.1380877" lon="2.5769298">
        <ele>499.0</ele>
    </trkpt>
    <trkpt lat="42.1380997" lon="2.5771398">
        <ele>503.0</ele>
    </trkpt>
    <trkpt lat="42.1380199" lon="2.5773398">
        <ele>506.0</ele>
    </trkpt>
    <trkpt lat="42.137878" lon="2.5776297">
        <ele>508.0</ele>
    </trkpt>
    <trkpt lat="42.1378399" lon="2.5778697">
        <ele>510.0</ele>
    </trkpt>
    <trkpt lat="42.1378208" lon="2.5779797">
        <ele>510.0</ele>
    </trkpt>
    <trkpt lat="42.1376988" lon="2.5781598">
        <ele>511.0</ele>
    </trkpt>
    <trkpt lat="42.1375309" lon="2.5783197">
        <ele>511.0</ele>
    </trkpt>
    <trkpt lat="42.137451" lon="2.5784397">
        <ele>513.0</ele>
    </trkpt>
    <trkpt lat="42.1373408" lon="2.5785098">
        <ele>514.0</ele>
    </trkpt>
    <trkpt lat="42.1372488" lon="2.5786099">
        <ele>516.0</ele>
    </trkpt>
    <trkpt lat="42.137218" lon="2.57866">
        <ele>517.0</ele>
    </trkpt>
    <trkpt lat="42.1371687" lon="2.5787899">
        <ele>518.0</ele>
    </trkpt>
    <trkpt lat="42.1371187" lon="2.5788498">
        <ele>517.0</ele>
    </trkpt>
    <trkpt lat="42.1370807" lon="2.5790199">
        <ele>518.0</ele>
    </trkpt>
    <trkpt lat="42.1369399" lon="2.5793399">
        <ele>520.0</ele>
    </trkpt>
    <trkpt lat="42.1368597" lon="2.5794898">
        <ele>521.0</ele>
    </trkpt>
    <trkpt lat="42.1368287" lon="2.5795198">
        <ele>521.0</ele>
    </trkpt>
    <trkpt lat="42.1367908" lon="2.5796197">
        <ele>521.0</ele>
    </trkpt>
    <trkpt lat="42.1366879" lon="2.5797899">
        <ele>522.0</ele>
    </trkpt>
    <trkpt lat="42.1365509" lon="2.5799798">
        <ele>520.0</ele>
    </trkpt>
    <trkpt lat="42.1363907" lon="2.5801598">
        <ele>518.0</ele>
    </trkpt>
    <trkpt lat="42.136299" lon="2.5802197">
        <ele>519.0</ele>
    </trkpt>
    <trkpt lat="42.1361997" lon="2.5802499">
        <ele>522.0</ele>
    </trkpt>
    <trkpt lat="42.136101" lon="2.5803598">
        <ele>521.0</ele>
    </trkpt>
    <trkpt lat="42.1358179" lon="2.5805699">
        <ele>523.0</ele>
    </trkpt>
    <trkpt lat="42.1356888" lon="2.5807099">
        <ele>522.0</ele>
    </trkpt>
    <trkpt lat="42.1355089" lon="2.5808398">
        <ele>523.0</ele>
    </trkpt>
    <trkpt lat="42.1354098" lon="2.5809">
        <ele>522.0</ele>
    </trkpt>
    <trkpt lat="42.135262" lon="2.5808897">
        <ele>521.0</ele>
    </trkpt>
    <trkpt lat="42.13512" lon="2.5808299">
        <ele>520.0</ele>
    </trkpt>
    <trkpt lat="42.1348798" lon="2.5808198">
        <ele>518.0</ele>
    </trkpt>
    <trkpt lat="42.1348187" lon="2.5808099">
        <ele>518.0</ele>
    </trkpt>
    <trkpt lat="42.1347307" lon="2.5809099">
        <ele>515.0</ele>
    </trkpt>
    <trkpt lat="42.1346697" lon="2.5808897">
        <ele>516.0</ele>
    </trkpt>
    <trkpt lat="42.1345208" lon="2.5807799">
        <ele>518.0</ele>
    </trkpt>
    <trkpt lat="42.134369" lon="2.5807397">
        <ele>519.0</ele>
    </trkpt>
    <trkpt lat="42.134232" lon="2.5807498">
        <ele>519.0</ele>
    </trkpt>
    <trkpt lat="42.1340478" lon="2.58067">
        <ele>523.0</ele>
    </trkpt>
    <trkpt lat="42.133881" lon="2.5806799">
        <ele>522.0</ele>
    </trkpt>
    <trkpt lat="42.1337509" lon="2.5806398">
        <ele>523.0</ele>
    </trkpt>
    <trkpt lat="42.1336899" lon="2.5806098">
        <ele>524.0</ele>
    </trkpt>
    <trkpt lat="42.1335978" lon="2.5806398">
        <ele>522.0</ele>
    </trkpt>
    <trkpt lat="42.13348" lon="2.5806497">
        <ele>521.0</ele>
    </trkpt>
    <trkpt lat="42.1333997" lon="2.5807697">
        <ele>520.0</ele>
    </trkpt>
    <trkpt lat="42.1333499" lon="2.58093">
        <ele>518.0</ele>
    </trkpt>
    <trkpt lat="42.133308" lon="2.5810399">
        <ele>518.0</ele>
    </trkpt>
    <trkpt lat="42.1332587" lon="2.58122">
        <ele>518.0</ele>
    </trkpt>
    <trkpt lat="42.1332278" lon="2.5813699">
        <ele>519.0</ele>
    </trkpt>
    <trkpt lat="42.1333009" lon="2.58159">
        <ele>520.0</ele>
    </trkpt>
    <trkpt lat="42.1333997" lon="2.5818498">
        <ele>524.0</ele>
    </trkpt>
    <trkpt lat="42.1335298" lon="2.58225">
        <ele>528.0</ele>
    </trkpt>
    <trkpt lat="42.1335717" lon="2.5824898">
        <ele>531.0</ele>
    </trkpt>
    <trkpt lat="42.1334109" lon="2.58268">
        <ele>539.0</ele>
    </trkpt>
    <trkpt lat="42.132961" lon="2.5828498">
        <ele>535.0</ele>
    </trkpt>
    <trkpt lat="42.1328698" lon="2.5828798">
        <ele>533.0</ele>
    </trkpt>
    <trkpt lat="42.13279" lon="2.5829498">
        <ele>530.0</ele>
    </trkpt>
    <trkpt lat="42.132648" lon="2.5829797">
        <ele>529.0</ele>
    </trkpt>
    <trkpt lat="42.1325189" lon="2.58306">
        <ele>527.0</ele>
    </trkpt>
    <trkpt lat="42.1323699" lon="2.58312">
        <ele>526.0</ele>
    </trkpt>
    <trkpt lat="42.13224" lon="2.5831897">
        <ele>523.0</ele>
    </trkpt>
    <trkpt lat="42.1321719" lon="2.5831399">
        <ele>523.0</ele>
    </trkpt>
    <trkpt lat="42.1321109" lon="2.5830499">
        <ele>524.0</ele>
    </trkpt>
    <trkpt lat="42.1320378" lon="2.5829797">
        <ele>524.0</ele>
    </trkpt>
    <trkpt lat="42.1319008" lon="2.5829498">
        <ele>523.0</ele>
    </trkpt>
    <trkpt lat="42.1318019" lon="2.5828897">
        <ele>523.0</ele>
    </trkpt>
    <trkpt lat="42.131699" lon="2.5828399">
        <ele>522.0</ele>
    </trkpt>
    <trkpt lat="42.1316177" lon="2.5828399">
        <ele>521.0</ele>
    </trkpt>
    <trkpt lat="42.1315308" lon="2.5828598">
        <ele>520.0</ele>
    </trkpt>
    <trkpt lat="42.1314197" lon="2.5827898">
        <ele>522.0</ele>
    </trkpt>
    <trkpt lat="42.1313208" lon="2.5826999">
        <ele>525.0</ele>
    </trkpt>
    <trkpt lat="42.1312477" lon="2.58271">
        <ele>525.0</ele>
    </trkpt>
    <trkpt lat="42.1311677" lon="2.5827898">
        <ele>524.0</ele>
    </trkpt>
    <trkpt lat="42.1309087" lon="2.5827898">
        <ele>522.0</ele>
    </trkpt>
    <trkpt lat="42.1308517" lon="2.5828099">
        <ele>521.0</ele>
    </trkpt>
    <trkpt lat="42.1307599" lon="2.5828">
        <ele>521.0</ele>
    </trkpt>
    <trkpt lat="42.13055" lon="2.5826897">
        <ele>521.0</ele>
    </trkpt>
    <trkpt lat="42.1303478" lon="2.5825899">
        <ele>520.0</ele>
    </trkpt>
    <trkpt lat="42.1302677" lon="2.5824597">
        <ele>522.0</ele>
    </trkpt>
    <trkpt lat="42.1302187" lon="2.5823799">
        <ele>523.0</ele>
    </trkpt>
    <trkpt lat="42.1300509" lon="2.58237">
        <ele>522.0</ele>
    </trkpt>
    <trkpt lat="42.1299589" lon="2.58234">
        <ele>523.0</ele>
    </trkpt>
    <trkpt lat="42.1298479" lon="2.5823497">
        <ele>523.0</ele>
    </trkpt>
    <trkpt lat="42.1296077" lon="2.5824699">
        <ele>522.0</ele>
    </trkpt>
    <trkpt lat="42.1294587" lon="2.5825598">
        <ele>523.0</ele>
    </trkpt>
    <trkpt lat="42.1292917" lon="2.5825598">
        <ele>522.0</ele>
    </trkpt>
    <trkpt lat="42.1291688" lon="2.5826199">
        <ele>521.0</ele>
    </trkpt>
    <trkpt lat="42.1290698" lon="2.5827797">
        <ele>520.0</ele>
    </trkpt>
    <trkpt lat="42.1288907" lon="2.5827698">
        <ele>522.0</ele>
    </trkpt>
    <trkpt lat="42.1288297" lon="2.58283">
        <ele>522.0</ele>
    </trkpt>
    <trkpt lat="42.1287189" lon="2.5828399">
        <ele>523.0</ele>
    </trkpt>
    <trkpt lat="42.1285507" lon="2.5827299">
        <ele>524.0</ele>
    </trkpt>
    <trkpt lat="42.128471" lon="2.5826999">
        <ele>525.0</ele>
    </trkpt>
    <trkpt lat="42.12833" lon="2.5826999">
        <ele>527.0</ele>
    </trkpt>
    <trkpt lat="42.1283109" lon="2.58271">
        <ele>527.0</ele>
    </trkpt>
    <trkpt lat="42.128071" lon="2.58271">
        <ele>528.0</ele>
    </trkpt>
    <trkpt lat="42.1279788" lon="2.5826498">
        <ele>529.0</ele>
    </trkpt>
    <trkpt lat="42.1279107" lon="2.58271">
        <ele>529.0</ele>
    </trkpt>
    <trkpt lat="42.1279298" lon="2.5827898">
        <ele>528.0</ele>
    </trkpt>
    <trkpt lat="42.12796" lon="2.5828498">
        <ele>528.0</ele>
    </trkpt>
    <trkpt lat="42.12796" lon="2.5832999">
        <ele>533.0</ele>
    </trkpt>
    <trkpt lat="42.127899" lon="2.5833297">
        <ele>536.0</ele>
    </trkpt>
    <trkpt lat="42.1275097" lon="2.5832499">
        <ele>548.0</ele>
    </trkpt>
    <trkpt lat="42.1274678" lon="2.5832898">
        <ele>550.0</ele>
    </trkpt>
    <trkpt lat="42.1274678" lon="2.58346">
        <ele>555.0</ele>
    </trkpt>
    <trkpt lat="42.1274598" lon="2.5836298">
        <ele>558.0</ele>
    </trkpt>
    <trkpt lat="42.1274187" lon="2.5837597">
        <ele>563.0</ele>
    </trkpt>
    <trkpt lat="42.1274108" lon="2.5840299">
        <ele>570.0</ele>
    </trkpt>
    <trkpt lat="42.1273798" lon="2.5840799">
        <ele>571.0</ele>
    </trkpt>
    <trkpt lat="42.1272507" lon="2.5841198">
        <ele>572.0</ele>
    </trkpt>
    <trkpt lat="42.1270787" lon="2.5841399">
        <ele>574.0</ele>
    </trkpt>
    <trkpt lat="42.1270899" lon="2.5840499">
        <ele>575.0</ele>
    </trkpt>
    <trkpt lat="42.1270708" lon="2.5839998">
        <ele>575.0</ele>
    </trkpt>
    <trkpt lat="42.1269609" lon="2.5838898">
        <ele>577.0</ele>
    </trkpt>
    <trkpt lat="42.1267889" lon="2.5837999">
        <ele>580.0</ele>
    </trkpt>
    <trkpt lat="42.1266777" lon="2.5838499">
        <ele>582.0</ele>
    </trkpt>
    <trkpt lat="42.126579" lon="2.5837897">
        <ele>584.0</ele>
    </trkpt>
    <trkpt lat="42.1264918" lon="2.5837299">
        <ele>585.0</ele>
    </trkpt>
    <trkpt lat="42.1263619" lon="2.5837798">
        <ele>585.0</ele>
    </trkpt>
    <trkpt lat="42.1262509" lon="2.5837597">
        <ele>585.0</ele>
    </trkpt>
    <trkpt lat="42.1261218" lon="2.5837698">
        <ele>587.0</ele>
    </trkpt>
    <trkpt lat="42.1260298" lon="2.58381">
        <ele>587.0</ele>
    </trkpt>
    <trkpt lat="42.1259798" lon="2.5838598">
        <ele>586.0</ele>
    </trkpt>
    <trkpt lat="42.1258997" lon="2.5837999">
        <ele>587.0</ele>
    </trkpt>
    <trkpt lat="42.1257208" lon="2.58381">
        <ele>587.0</ele>
    </trkpt>
    <trkpt lat="42.1253007" lon="2.5837099">
        <ele>584.0</ele>
    </trkpt>
    <trkpt lat="42.1252099" lon="2.5836999">
        <ele>583.0</ele>
    </trkpt>
    <trkpt lat="42.1250308" lon="2.58372">
        <ele>583.0</ele>
    </trkpt>
    <trkpt lat="42.1249009" lon="2.5837698">
        <ele>582.0</ele>
    </trkpt>
    <trkpt lat="42.1248278" lon="2.5836999">
        <ele>584.0</ele>
    </trkpt>
    <trkpt lat="42.1246989" lon="2.5836797">
        <ele>587.0</ele>
    </trkpt>
    <trkpt lat="42.12439" lon="2.5837798">
        <ele>587.0</ele>
    </trkpt>
    <trkpt lat="42.1241489" lon="2.58381">
        <ele>588.0</ele>
    </trkpt>
    <trkpt lat="42.1239808" lon="2.5839097">
        <ele>587.0</ele>
    </trkpt>
    <trkpt lat="42.1237598" lon="2.5840197">
        <ele>587.0</ele>
    </trkpt>
    <trkpt lat="42.1235008" lon="2.5841198">
        <ele>588.0</ele>
    </trkpt>
    <trkpt lat="42.1233219" lon="2.58418">
        <ele>589.0</ele>
    </trkpt>
    <trkpt lat="42.1232188" lon="2.5841599">
        <ele>590.0</ele>
    </trkpt>
    <trkpt lat="42.1231308" lon="2.5842298">
        <ele>589.0</ele>
    </trkpt>
    <trkpt lat="42.1230197" lon="2.5842899">
        <ele>588.0</ele>
    </trkpt>
    <trkpt lat="42.1226499" lon="2.5843699">
        <ele>589.0</ele>
    </trkpt>
    <trkpt lat="42.12249" lon="2.5844298">
        <ele>589.0</ele>
    </trkpt>
    <trkpt lat="42.1224519" lon="2.5844598">
        <ele>589.0</ele>
    </trkpt>
    <trkpt lat="42.1223597" lon="2.58447">
        <ele>590.0</ele>
    </trkpt>
    <trkpt lat="42.1222687" lon="2.5844199">
        <ele>592.0</ele>
    </trkpt>
    <trkpt lat="42.1221388" lon="2.5844298">
        <ele>592.0</ele>
    </trkpt>
    <trkpt lat="42.1220018" lon="2.5843097">
        <ele>594.0</ele>
    </trkpt>
    <trkpt lat="42.1219599" lon="2.5842899">
        <ele>595.0</ele>
    </trkpt>
    <trkpt lat="42.1218187" lon="2.5842799">
        <ele>595.0</ele>
    </trkpt>
    <trkpt lat="42.1217607" lon="2.5841399">
        <ele>598.0</ele>
    </trkpt>
    <trkpt lat="42.1216087" lon="2.58418">
        <ele>599.0</ele>
    </trkpt>
    <trkpt lat="42.1214709" lon="2.5843097">
        <ele>599.0</ele>
    </trkpt>
    <trkpt lat="42.121429" lon="2.5844497">
        <ele>598.0</ele>
    </trkpt>
    <trkpt lat="42.1213609" lon="2.58458">
        <ele>599.0</ele>
    </trkpt>
    <trkpt lat="42.1212687" lon="2.5846398">
        <ele>600.0</ele>
    </trkpt>
    <trkpt lat="42.12117" lon="2.5846598">
        <ele>602.0</ele>
    </trkpt>
    <trkpt lat="42.121052" lon="2.5847697">
        <ele>601.0</ele>
    </trkpt>
    <trkpt lat="42.1208919" lon="2.5847798">
        <ele>603.0</ele>
    </trkpt>
    <trkpt lat="42.1205789" lon="2.5846797">
        <ele>607.0</ele>
    </trkpt>
    <trkpt lat="42.1202999" lon="2.58484">
        <ele>606.0</ele>
    </trkpt>
    <trkpt lat="42.1195489" lon="2.5851248">
        <ele>631.0</ele>
    </trkpt>
    <trkpt lat="42.1193008" lon="2.5852197">
        <ele>645.0</ele>
    </trkpt>
    <trkpt lat="42.1186899" lon="2.5847">
        <ele>640.0</ele>
    </trkpt>
    <trkpt lat="42.1182588" lon="2.5847897">
        <ele>657.0</ele>
    </trkpt>
    <trkpt lat="42.1178507" lon="2.5849798">
        <ele>685.0</ele>
    </trkpt>
    <trkpt lat="42.1172409" lon="2.5852998">
        <ele>706.0</ele>
    </trkpt>
    <trkpt lat="42.116829" lon="2.5855697">
        <ele>726.0</ele>
    </trkpt>
    <trkpt lat="42.1164699" lon="2.5855697">
        <ele>750.0</ele>
    </trkpt>
    <trkpt lat="42.1163217" lon="2.5858099">
        <ele>755.0</ele>
    </trkpt>
    <trkpt lat="42.116138" lon="2.5866597">
        <ele>769.0</ele>
    </trkpt>
    <trkpt lat="42.116138" lon="2.5879198">
        <ele>800.0</ele>
    </trkpt>
    <trkpt lat="42.1160998" lon="2.5879699">
        <ele>801.0</ele>
    </trkpt>
    <trkpt lat="42.1160698" lon="2.5883198">
        <ele>801.0</ele>
    </trkpt>
    <trkpt lat="42.1159589" lon="2.5884199">
        <ele>798.0</ele>
    </trkpt>
    <trkpt lat="42.1157987" lon="2.5883299">
        <ele>804.0</ele>
    </trkpt>
    <trkpt lat="42.1155819" lon="2.58838">
        <ele>809.0</ele>
    </trkpt>
    <trkpt lat="42.1154587" lon="2.5885399">
        <ele>809.0</ele>
    </trkpt>
    <trkpt lat="42.1153789" lon="2.5885697">
        <ele>814.0</ele>
    </trkpt>
    <trkpt lat="42.1153179" lon="2.58864">
        <ele>817.0</ele>
    </trkpt>
    <trkpt lat="42.1152379" lon="2.5886997">
        <ele>823.0</ele>
    </trkpt>
    <trkpt lat="42.1151499" lon="2.5888299">
        <ele>828.0</ele>
    </trkpt>
    <trkpt lat="42.1149598" lon="2.5890398">
        <ele>840.0</ele>
    </trkpt>
    <trkpt lat="42.1148488" lon="2.5891298">
        <ele>846.0</ele>
    </trkpt>
    <trkpt lat="42.1147608" lon="2.5892398">
        <ele>848.0</ele>
    </trkpt>
    <trkpt lat="42.114731" lon="2.5893199">
        <ele>848.0</ele>
    </trkpt>
    <trkpt lat="42.1147119" lon="2.5894498">
        <ele>846.0</ele>
    </trkpt>
    <trkpt lat="42.1146509" lon="2.5896599">
        <ele>842.0</ele>
    </trkpt>
    <trkpt lat="42.114609" lon="2.5898297">
        <ele>841.0</ele>
    </trkpt>
    <trkpt lat="42.1145518" lon="2.5900198">
        <ele>843.0</ele>
    </trkpt>
    <trkpt lat="42.1144908" lon="2.5901697">
        <ele>843.0</ele>
    </trkpt>
    <trkpt lat="42.1142718" lon="2.5904408">
        <ele>816.0</ele>
    </trkpt>
    <trkpt lat="42.1141129" lon="2.5906897">
        <ele>813.0</ele>
    </trkpt>
    <trkpt lat="42.1138199" lon="2.591227">
        <ele>809.0</ele>
    </trkpt>
    <trkpt lat="42.113753" lon="2.5914997">
        <ele>816.0</ele>
    </trkpt>
    <trkpt lat="42.1136717" lon="2.5917059">
        <ele>821.0</ele>
    </trkpt>
    <trkpt lat="42.1134737" lon="2.5920799">
        <ele>827.0</ele>
    </trkpt>
    <trkpt lat="42.1133669" lon="2.5921289">
        <ele>826.0</ele>
    </trkpt>
    <trkpt lat="42.1132707" lon="2.5921867">
        <ele>825.0</ele>
    </trkpt>
    <trkpt lat="42.1131968" lon="2.5923639">
        <ele>832.0</ele>
    </trkpt>
    <trkpt lat="42.1131188" lon="2.5924697">
        <ele>835.0</ele>
    </trkpt>
    <trkpt lat="42.1130228" lon="2.5924988">
        <ele>833.0</ele>
    </trkpt>
    <trkpt lat="42.1128598" lon="2.5927679">
        <ele>844.0</ele>
    </trkpt>
    <trkpt lat="42.1127289" lon="2.5929119">
        <ele>850.0</ele>
    </trkpt>
    <trkpt lat="42.1124379" lon="2.5929567">
        <ele>845.0</ele>
    </trkpt>
    <trkpt lat="42.1122697" lon="2.5929297">
        <ele>841.0</ele>
    </trkpt>
    <trkpt lat="42.1121457" lon="2.5929397">
        <ele>839.0</ele>
    </trkpt>
    <trkpt lat="42.1119578" lon="2.5929907">
        <ele>835.0</ele>
    </trkpt>
    <trkpt lat="42.1121539" lon="2.5929377">
        <ele>839.0</ele>
    </trkpt>
    <trkpt lat="42.1122707" lon="2.5929189">
        <ele>841.0</ele>
    </trkpt>
    <trkpt lat="42.1124387" lon="2.5929578">
        <ele>845.0</ele>
    </trkpt>
    <trkpt lat="42.1127328" lon="2.5929097">
        <ele>850.0</ele>
    </trkpt>
    <trkpt lat="42.1128588" lon="2.5927637">
        <ele>844.0</ele>
    </trkpt>
    <trkpt lat="42.1130308" lon="2.5925029">
        <ele>834.0</ele>
    </trkpt>
    <trkpt lat="42.1131257" lon="2.5924558">
        <ele>835.0</ele>
    </trkpt>
    <trkpt lat="42.1132038" lon="2.5923548">
        <ele>832.0</ele>
    </trkpt>
    <trkpt lat="42.113293" lon="2.5921718">
        <ele>825.0</ele>
    </trkpt>
    <trkpt lat="42.1133349" lon="2.5921867">
        <ele>828.0</ele>
    </trkpt>
    <trkpt lat="42.1133889" lon="2.5921237">
        <ele>826.0</ele>
    </trkpt>
    <trkpt lat="42.1134769" lon="2.5920658">
        <ele>827.0</ele>
    </trkpt>
    <trkpt lat="42.1136678" lon="2.5917109">
        <ele>821.0</ele>
    </trkpt>
    <trkpt lat="42.1137597" lon="2.5914997">
        <ele>817.0</ele>
    </trkpt>
    <trkpt lat="42.1138157" lon="2.591227">
        <ele>809.0</ele>
    </trkpt>
    <trkpt lat="42.114127" lon="2.5906758">
        <ele>813.0</ele>
    </trkpt>
    <trkpt lat="42.1142718" lon="2.5904448">
        <ele>817.0</ele>
    </trkpt>
    <trkpt lat="42.1144039" lon="2.5903058">
        <ele>825.0</ele>
    </trkpt>
    <trkpt lat="42.1144908" lon="2.5901697">
        <ele>843.0</ele>
    </trkpt>
    <trkpt lat="42.114441" lon="2.59051">
        <ele>840.0</ele>
    </trkpt>
    <trkpt lat="42.1143677" lon="2.5907197">
        <ele>843.0</ele>
    </trkpt>
    <trkpt lat="42.114269" lon="2.5911098">
        <ele>844.0</ele>
    </trkpt>
    <trkpt lat="42.113949" lon="2.5916097">
        <ele>858.0</ele>
    </trkpt>
    <trkpt lat="42.1138918" lon="2.5916699">
        <ele>861.0</ele>
    </trkpt>
    <trkpt lat="42.1138688" lon="2.5917798">
        <ele>861.0</ele>
    </trkpt>
    <trkpt lat="42.1138688" lon="2.5918499">
        <ele>860.0</ele>
    </trkpt>
    <trkpt lat="42.1138987" lon="2.59195">
        <ele>855.0</ele>
    </trkpt>
    <trkpt lat="42.1139909" lon="2.59206">
        <ele>843.0</ele>
    </trkpt>
    <trkpt lat="42.1141008" lon="2.5920999">
        <ele>833.0</ele>
    </trkpt>
    <trkpt lat="42.1142997" lon="2.5922697">
        <ele>823.0</ele>
    </trkpt>
    <trkpt lat="42.1144908" lon="2.5923897">
        <ele>813.0</ele>
    </trkpt>
    <trkpt lat="42.114529" lon="2.5923798">
        <ele>810.0</ele>
    </trkpt>
    <trkpt lat="42.1146509" lon="2.5922697">
        <ele>799.0</ele>
    </trkpt>
    <trkpt lat="42.1147987" lon="2.59218">
        <ele>796.0</ele>
    </trkpt>
    <trkpt lat="42.114868" lon="2.5921899">
        <ele>795.0</ele>
    </trkpt>
    <trkpt lat="42.1150507" lon="2.5923099">
        <ele>794.0</ele>
    </trkpt>
    <trkpt lat="42.1151078" lon="2.59241">
        <ele>793.0</ele>
    </trkpt>
    <trkpt lat="42.1152379" lon="2.5925097">
        <ele>789.0</ele>
    </trkpt>
    <trkpt lat="42.1153179" lon="2.5924898">
        <ele>787.0</ele>
    </trkpt>
    <trkpt lat="42.1159207" lon="2.5920697">
        <ele>776.0</ele>
    </trkpt>
    <trkpt lat="42.1161187" lon="2.59195">
        <ele>774.0</ele>
    </trkpt>
    <trkpt lat="42.1162109" lon="2.5919098">
        <ele>772.0</ele>
    </trkpt>
    <trkpt lat="42.1162899" lon="2.59186">
        <ele>781.0</ele>
    </trkpt>
    <trkpt lat="42.116428" lon="2.5917098">
        <ele>779.0</ele>
    </trkpt>
    <trkpt lat="42.1165938" lon="2.5916798">
        <ele>774.0</ele>
    </trkpt>
    <trkpt lat="42.1166987" lon="2.5915819">
        <ele>771.0</ele>
    </trkpt>
    <trkpt lat="42.116766" lon="2.591574">
        <ele>769.0</ele>
    </trkpt>
    <trkpt lat="42.116913" lon="2.5914469">
        <ele>765.0</ele>
    </trkpt>
    <trkpt lat="42.1170149" lon="2.5913777">
        <ele>762.0</ele>
    </trkpt>
    <trkpt lat="42.117082" lon="2.5914099">
        <ele>760.0</ele>
    </trkpt>
    <trkpt lat="42.1171628" lon="2.5913887">
        <ele>757.0</ele>
    </trkpt>
    <trkpt lat="42.1172058" lon="2.5914087">
        <ele>755.0</ele>
    </trkpt>
    <trkpt lat="42.1172367" lon="2.5917329">
        <ele>755.0</ele>
    </trkpt>
    <trkpt lat="42.1170959" lon="2.5920048">
        <ele>759.0</ele>
    </trkpt>
    <trkpt lat="42.1169968" lon="2.59218">
        <ele>762.0</ele>
    </trkpt>
    <trkpt lat="42.1169768" lon="2.5924279">
        <ele>764.0</ele>
    </trkpt>
    <trkpt lat="42.1170758" lon="2.5923458">
        <ele>761.0</ele>
    </trkpt>
    <trkpt lat="42.1172238" lon="2.5922439">
        <ele>756.0</ele>
    </trkpt>
    <trkpt lat="42.1173317" lon="2.5921498">
        <ele>753.0</ele>
    </trkpt>
    <trkpt lat="42.1174729" lon="2.5919579">
        <ele>748.0</ele>
    </trkpt>
    <trkpt lat="42.1176328" lon="2.5914927">
        <ele>742.0</ele>
    </trkpt>
    <trkpt lat="42.1178149" lon="2.5910937">
        <ele>736.0</ele>
    </trkpt>
    <trkpt lat="42.1179599" lon="2.5908468">
        <ele>734.0</ele>
    </trkpt>
    <trkpt lat="42.1181708" lon="2.5906429">
        <ele>730.0</ele>
    </trkpt>
    <trkpt lat="42.1184568" lon="2.5905777">
        <ele>722.0</ele>
    </trkpt>
    <trkpt lat="42.1186207" lon="2.59028">
        <ele>724.0</ele>
    </trkpt>
    <trkpt lat="42.1188747" lon="2.5901709">
        <ele>717.0</ele>
    </trkpt>
    <trkpt lat="42.1190009" lon="2.5901957">
        <ele>710.0</ele>
    </trkpt>
    <trkpt lat="42.1191139" lon="2.5900688">
        <ele>708.0</ele>
    </trkpt>
    <trkpt lat="42.1194919" lon="2.5893528">
        <ele>699.0</ele>
    </trkpt>
    <trkpt lat="42.1196547" lon="2.5888279">
        <ele>696.0</ele>
    </trkpt>
    <trkpt lat="42.119756" lon="2.5883347">
        <ele>695.0</ele>
    </trkpt>
    <trkpt lat="42.1198669" lon="2.587835">
        <ele>690.0</ele>
    </trkpt>
    <trkpt lat="42.1200488" lon="2.5874987">
        <ele>676.0</ele>
    </trkpt>
    <trkpt lat="42.1201558" lon="2.58717">
        <ele>667.0</ele>
    </trkpt>
    <trkpt lat="42.1202587" lon="2.5868097">
        <ele>654.0</ele>
    </trkpt>
    <trkpt lat="42.1204879" lon="2.5864419">
        <ele>635.0</ele>
    </trkpt>
    <trkpt lat="42.1205668" lon="2.5863019">
        <ele>631.0</ele>
    </trkpt>
    <trkpt lat="42.1205427" lon="2.586082">
        <ele>629.0</ele>
    </trkpt>
    <trkpt lat="42.1204049" lon="2.5856279">
        <ele>628.0</ele>
    </trkpt>
    <trkpt lat="42.1203149" lon="2.5853759">
        <ele>629.0</ele>
    </trkpt>
    <trkpt lat="42.1203938" lon="2.585306">
        <ele>628.0</ele>
    </trkpt>
    <trkpt lat="42.1205727" lon="2.5854629">
        <ele>622.0</ele>
    </trkpt>
    <trkpt lat="42.1208" lon="2.5857828">
        <ele>619.0</ele>
    </trkpt>
    <trkpt lat="42.1209557" lon="2.5860159">
        <ele>615.0</ele>
    </trkpt>
    <trkpt lat="42.1209898" lon="2.5862107">
        <ele>614.0</ele>
    </trkpt>
    <trkpt lat="42.1210347" lon="2.5868677">
        <ele>617.0</ele>
    </trkpt>
    <trkpt lat="42.1208848" lon="2.5871837">
        <ele>626.0</ele>
    </trkpt>
    <trkpt lat="42.1207968" lon="2.5875948">
        <ele>631.0</ele>
    </trkpt>
    <trkpt lat="42.1207598" lon="2.5878038">
        <ele>633.0</ele>
    </trkpt>
    <trkpt lat="42.1208449" lon="2.5878538">
        <ele>629.0</ele>
    </trkpt>
    <trkpt lat="42.121226" lon="2.5878387">
        <ele>612.0</ele>
    </trkpt>
    <trkpt lat="42.1214087" lon="2.5877299">
        <ele>609.0</ele>
    </trkpt>
    <trkpt lat="42.1216477" lon="2.5875389">
        <ele>605.0</ele>
    </trkpt>
    <trkpt lat="42.1218308" lon="2.5873679">
        <ele>601.0</ele>
    </trkpt>
    <trkpt lat="42.1219238" lon="2.5872278">
        <ele>597.0</ele>
    </trkpt>
    <trkpt lat="42.1219329" lon="2.587114">
        <ele>596.0</ele>
    </trkpt>
    <trkpt lat="42.121886" lon="2.5869877">
        <ele>596.0</ele>
    </trkpt>
    <trkpt lat="42.1219889" lon="2.5868677">
        <ele>593.0</ele>
    </trkpt>
    <trkpt lat="42.1220449" lon="2.5868419">
        <ele>592.0</ele>
    </trkpt>
    <trkpt lat="42.1223468" lon="2.5871559">
        <ele>589.0</ele>
    </trkpt>
    <trkpt lat="42.1225677" lon="2.5870907">
        <ele>585.0</ele>
    </trkpt>
    <trkpt lat="42.1227697" lon="2.587197">
        <ele>583.0</ele>
    </trkpt>
    <trkpt lat="42.122813" lon="2.5873049">
        <ele>585.0</ele>
    </trkpt>
    <trkpt lat="42.123038" lon="2.58717">
        <ele>578.0</ele>
    </trkpt>
    <trkpt lat="42.1232447" lon="2.5872637">
        <ele>576.0</ele>
    </trkpt>
    <trkpt lat="42.12341" lon="2.58737">
        <ele>575.0</ele>
    </trkpt>
    <trkpt lat="42.1235" lon="2.5874709">
        <ele>575.0</ele>
    </trkpt>
    <trkpt lat="42.1238579" lon="2.5876578">
        <ele>573.0</ele>
    </trkpt>
    <trkpt lat="42.1239989" lon="2.5876187">
        <ele>570.0</ele>
    </trkpt>
    <trkpt lat="42.1241489" lon="2.5874658">
        <ele>566.0</ele>
    </trkpt>
    <trkpt lat="42.1242988" lon="2.5873389">
        <ele>562.0</ele>
    </trkpt>
    <trkpt lat="42.12451" lon="2.5872808">
        <ele>558.0</ele>
    </trkpt>
    <trkpt lat="42.1247819" lon="2.5870637">
        <ele>553.0</ele>
    </trkpt>
    <trkpt lat="42.1249138" lon="2.5871579">
        <ele>552.0</ele>
    </trkpt>
    <trkpt lat="42.125055" lon="2.587233">
        <ele>552.0</ele>
    </trkpt>
    <trkpt lat="42.1252999" lon="2.587282">
        <ele>550.0</ele>
    </trkpt>
    <trkpt lat="42.1254548" lon="2.5872679">
        <ele>548.0</ele>
    </trkpt>
    <trkpt lat="42.1256147" lon="2.5872737">
        <ele>546.0</ele>
    </trkpt>
    <trkpt lat="42.1260999" lon="2.5876938">
        <ele>543.0</ele>
    </trkpt>
    <trkpt lat="42.1263119" lon="2.5877109">
        <ele>541.0</ele>
    </trkpt>
    <trkpt lat="42.1264997" lon="2.5877099">
        <ele>538.0</ele>
    </trkpt>
    <trkpt lat="42.1267118" lon="2.5879297">
        <ele>535.0</ele>
    </trkpt>
    <trkpt lat="42.1268678" lon="2.5880987">
        <ele>534.0</ele>
    </trkpt>
    <trkpt lat="42.1268687" lon="2.5883327">
        <ele>537.0</ele>
    </trkpt>
    <trkpt lat="42.1268279" lon="2.5886108">
        <ele>541.0</ele>
    </trkpt>
    <trkpt lat="42.127007" lon="2.5888557">
        <ele>537.0</ele>
    </trkpt>
    <trkpt lat="42.1272847" lon="2.5888799">
        <ele>531.0</ele>
    </trkpt>
    <trkpt lat="42.1274118" lon="2.5889038">
        <ele>529.0</ele>
    </trkpt>
    <trkpt lat="42.1276467" lon="2.5890219">
        <ele>526.0</ele>
    </trkpt>
    <trkpt lat="42.1277927" lon="2.588984">
        <ele>524.0</ele>
    </trkpt>
    <trkpt lat="42.128102" lon="2.588843">
        <ele>520.0</ele>
    </trkpt>
    <trkpt lat="42.1283938" lon="2.5888658">
        <ele>518.0</ele>
    </trkpt>
    <trkpt lat="42.1285398" lon="2.5889347">
        <ele>518.0</ele>
    </trkpt>
    <trkpt lat="42.1288128" lon="2.5889769">
        <ele>517.0</ele>
    </trkpt>
    <trkpt lat="42.1291457" lon="2.5889558">
        <ele>513.0</ele>
    </trkpt>
    <trkpt lat="42.1294707" lon="2.5889218">
        <ele>510.0</ele>
    </trkpt>
    <trkpt lat="42.129711" lon="2.5889587">
        <ele>508.0</ele>
    </trkpt>
    <trkpt lat="42.1298969" lon="2.5894058">
        <ele>510.0</ele>
    </trkpt>
    <trkpt lat="42.1301659" lon="2.589442">
        <ele>507.0</ele>
    </trkpt>
    <trkpt lat="42.1303237" lon="2.5894918">
        <ele>506.0</ele>
    </trkpt>
    <trkpt lat="42.1304898" lon="2.589297">
        <ele>504.0</ele>
    </trkpt>
    <trkpt lat="42.1307429" lon="2.5890787">
        <ele>501.0</ele>
    </trkpt>
    <trkpt lat="42.1308509" lon="2.5889699">
        <ele>500.0</ele>
    </trkpt>
    <trkpt lat="42.1310298" lon="2.5890078">
        <ele>499.0</ele>
    </trkpt>
    <trkpt lat="42.1311268" lon="2.5889147">
        <ele>497.0</ele>
    </trkpt>
    <trkpt lat="42.1312418" lon="2.5888437">
        <ele>496.0</ele>
    </trkpt>
    <trkpt lat="42.1314718" lon="2.5888819">
        <ele>494.0</ele>
    </trkpt>
    <trkpt lat="42.1317077" lon="2.5887558">
        <ele>491.0</ele>
    </trkpt>
    <trkpt lat="42.1317929" lon="2.5886237">
        <ele>490.0</ele>
    </trkpt>
    <trkpt lat="42.131983" lon="2.5884688">
        <ele>488.0</ele>
    </trkpt>
    <trkpt lat="42.1321199" lon="2.5883289">
        <ele>487.0</ele>
    </trkpt>
    <trkpt lat="42.1323898" lon="2.5882269">
        <ele>485.0</ele>
    </trkpt>
    <trkpt lat="42.1326368" lon="2.5882169">
        <ele>482.0</ele>
    </trkpt>
    <trkpt lat="42.1328389" lon="2.588239">
        <ele>480.0</ele>
    </trkpt>
    <trkpt lat="42.1330748" lon="2.5882838">
        <ele>478.0</ele>
    </trkpt>
    <trkpt lat="42.1332927" lon="2.5882829">
        <ele>477.0</ele>
    </trkpt>
    <trkpt lat="42.1334649" lon="2.5881957">
        <ele>475.0</ele>
    </trkpt>
    <trkpt lat="42.1336148" lon="2.5881949">
        <ele>474.0</ele>
    </trkpt>
    <trkpt lat="42.1338339" lon="2.5882868">
        <ele>473.0</ele>
    </trkpt>
    <trkpt lat="42.1340059" lon="2.5882618">
        <ele>472.0</ele>
    </trkpt>
    <trkpt lat="42.134167" lon="2.5881758">
        <ele>470.0</ele>
    </trkpt>
    <trkpt lat="42.1342868" lon="2.5879359">
        <ele>468.0</ele>
    </trkpt>
    <trkpt lat="42.1343839" lon="2.5877658">
        <ele>469.0</ele>
    </trkpt>
    <trkpt lat="42.1345438" lon="2.5875867">
        <ele>469.0</ele>
    </trkpt>
    <trkpt lat="42.1347448" lon="2.5875547">
        <ele>467.0</ele>
    </trkpt>
    <trkpt lat="42.1349408" lon="2.5875839">
        <ele>465.0</ele>
    </trkpt>
    <trkpt lat="42.1351017" lon="2.587544">
        <ele>464.0</ele>
    </trkpt>
    <trkpt lat="42.1352279" lon="2.5873887">
        <ele>463.0</ele>
    </trkpt>
    <trkpt lat="42.1353998" lon="2.5873567">
        <ele>461.0</ele>
    </trkpt>
    <trkpt lat="42.1355679" lon="2.5874328">
        <ele>460.0</ele>
    </trkpt>
    <trkpt lat="42.13578" lon="2.5873859">
        <ele>459.0</ele>
    </trkpt>
    <trkpt lat="42.1359458" lon="2.5872068">
        <ele>458.0</ele>
    </trkpt>
    <trkpt lat="42.1361989" lon="2.5870198">
        <ele>457.0</ele>
    </trkpt>
    <trkpt lat="42.1363588" lon="2.5869569">
        <ele>456.0</ele>
    </trkpt>
    <trkpt lat="42.1366297" lon="2.5869939">
        <ele>454.0</ele>
    </trkpt>
    <trkpt lat="42.1368079" lon="2.5869458">
        <ele>453.0</ele>
    </trkpt>
    <trkpt lat="42.1370998" lon="2.5865968">
        <ele>450.0</ele>
    </trkpt>
    <trkpt lat="42.1373118" lon="2.5864639">
        <ele>449.0</ele>
    </trkpt>
    <trkpt lat="42.1375477" lon="2.5865237">
        <ele>448.0</ele>
    </trkpt>
    <trkpt lat="42.137825" lon="2.5866458">
        <ele>449.0</ele>
    </trkpt>
    <trkpt lat="42.1381358" lon="2.5867287">
        <ele>448.0</ele>
    </trkpt>
    <trkpt lat="42.1384178" lon="2.5868117">
        <ele>447.0</ele>
    </trkpt>
    <trkpt lat="42.1386947" lon="2.5870499">
        <ele>445.0</ele>
    </trkpt>
    <trkpt lat="42.1388167" lon="2.5873579">
        <ele>446.0</ele>
    </trkpt>
    <trkpt lat="42.1390179" lon="2.5874187">
        <ele>445.0</ele>
    </trkpt>
    <trkpt lat="42.1392588" lon="2.5872779">
        <ele>443.0</ele>
    </trkpt>
    <trkpt lat="42.1395228" lon="2.587114">
        <ele>440.0</ele>
    </trkpt>
    <trkpt lat="42.1398848" lon="2.5869188">
        <ele>440.0</ele>
    </trkpt>
    <trkpt lat="42.1400737" lon="2.5867468">
        <ele>440.0</ele>
    </trkpt>
    <trkpt lat="42.1404817" lon="2.586629">
        <ele>441.0</ele>
    </trkpt>
    <trkpt lat="42.1408259" lon="2.5865339">
        <ele>441.0</ele>
    </trkpt>
    <trkpt lat="42.1411648" lon="2.5863998">
        <ele>442.0</ele>
    </trkpt>
    <trkpt lat="42.1414867" lon="2.5862128">
        <ele>443.0</ele>
    </trkpt>
    <trkpt lat="42.141935" lon="2.5860399">
        <ele>444.0</ele>
    </trkpt>
    <trkpt lat="42.1421579" lon="2.585938">
        <ele>444.0</ele>
    </trkpt>
    <trkpt lat="42.1421008" lon="2.5858917">
        <ele>445.0</ele>
    </trkpt>
    <trkpt lat="42.1419338" lon="2.5859159">
        <ele>445.0</ele>
    </trkpt>
    <trkpt lat="42.1416577" lon="2.5860109">
        <ele>445.0</ele>
    </trkpt>
    <trkpt lat="42.141451" lon="2.5859968">
        <ele>446.0</ele>
    </trkpt>
    <trkpt lat="42.1413419" lon="2.5858267">
        <ele>448.0</ele>
    </trkpt>
    <trkpt lat="42.1413119" lon="2.5855647">
        <ele>452.0</ele>
    </trkpt>
    <trkpt lat="42.1413858" lon="2.5854019">
        <ele>453.0</ele>
    </trkpt>
    <trkpt lat="42.1414139" lon="2.5852778">
        <ele>457.0</ele>
    </trkpt>
    <trkpt lat="42.1415227" lon="2.5851769">
        <ele>459.0</ele>
    </trkpt>
    <trkpt lat="42.1415107" lon="2.584984">
        <ele>464.0</ele>
    </trkpt>
    <trkpt lat="42.1414808" lon="2.5847598">
        <ele>470.0</ele>
    </trkpt>
    <trkpt lat="42.1417288" lon="2.5845228">
        <ele>474.0</ele>
    </trkpt>
    <trkpt lat="42.1417839" lon="2.5843843">
        <ele>478.0</ele>
    </trkpt>
    <trkpt lat="42.1418947" lon="2.5842564">
        <ele>482.0</ele>
    </trkpt>
    <trkpt lat="42.1420381" lon="2.5841538">
        <ele>483.0</ele>
    </trkpt>
    <trkpt lat="42.1421692" lon="2.5841359">
        <ele>482.0</ele>
    </trkpt>
    <trkpt lat="42.142285" lon="2.5841319">
        <ele>481.0</ele>
    </trkpt>
    <trkpt lat="42.1424186" lon="2.5840599">
        <ele>481.0</ele>
    </trkpt>
    <trkpt lat="42.1425546" lon="2.5839166">
        <ele>483.0</ele>
    </trkpt>
    <trkpt lat="42.1427307" lon="2.5837966">
        <ele>483.0</ele>
    </trkpt>
    <trkpt lat="42.1427505" lon="2.5836947">
        <ele>485.0</ele>
    </trkpt>
    <trkpt lat="42.1428053" lon="2.5835284">
        <ele>487.0</ele>
    </trkpt>
    <trkpt lat="42.1428302" lon="2.5833991">
        <ele>489.0</ele>
    </trkpt>
    <trkpt lat="42.1428804" lon="2.5833616">
        <ele>489.0</ele>
    </trkpt>
    <trkpt lat="42.1429889" lon="2.5833237">
        <ele>487.0</ele>
    </trkpt>
    <trkpt lat="42.1432283" lon="2.5832712">
        <ele>484.0</ele>
    </trkpt>
    <trkpt lat="42.1433141" lon="2.5832808">
        <ele>482.0</ele>
    </trkpt>
    <trkpt lat="42.1433946" lon="2.5831919">
        <ele>481.0</ele>
    </trkpt>
    <trkpt lat="42.1434474" lon="2.5831002">
        <ele>481.0</ele>
    </trkpt>
    <trkpt lat="42.1434724" lon="2.5830187">
        <ele>481.0</ele>
    </trkpt>
    <trkpt lat="42.1434746" lon="2.5828932">
        <ele>482.0</ele>
    </trkpt>
    <trkpt lat="42.1435042" lon="2.5827438">
        <ele>484.0</ele>
    </trkpt>
    <trkpt lat="42.1435619" lon="2.5826689">
        <ele>484.0</ele>
    </trkpt>
    <trkpt lat="42.1436427" lon="2.5826342">
        <ele>483.0</ele>
    </trkpt>
    <trkpt lat="42.1437104" lon="2.5825864">
        <ele>482.0</ele>
    </trkpt>
    <trkpt lat="42.1438636" lon="2.5823886">
        <ele>485.0</ele>
    </trkpt>
    <trkpt lat="42.1440802" lon="2.582265">
        <ele>485.0</ele>
    </trkpt>
    <trkpt lat="42.1441682" lon="2.5821799">
        <ele>486.0</ele>
    </trkpt>
    <trkpt lat="42.1442412" lon="2.5820708">
        <ele>487.0</ele>
    </trkpt>
    <trkpt lat="42.1444371" lon="2.5818391">
        <ele>486.0</ele>
    </trkpt>
    <trkpt lat="42.1445305" lon="2.5818079">
        <ele>485.0</ele>
    </trkpt>
    <trkpt lat="42.1446286" lon="2.5817462">
        <ele>484.0</ele>
    </trkpt>
    <trkpt lat="42.1447367" lon="2.5816268">
        <ele>483.0</ele>
    </trkpt>
    <trkpt lat="42.1448524" lon="2.581541">
        <ele>482.0</ele>
    </trkpt>
    <trkpt lat="42.1449575" lon="2.5814527">
        <ele>482.0</ele>
    </trkpt>
    <trkpt lat="42.1450544" lon="2.5813541">
        <ele>481.0</ele>
    </trkpt>
    <trkpt lat="42.1451999" lon="2.5812458">
        <ele>480.0</ele>
    </trkpt>
    <trkpt lat="42.145356" lon="2.5811794">
        <ele>476.0</ele>
    </trkpt>
    <trkpt lat="42.1454342" lon="2.5811947">
        <ele>475.0</ele>
    </trkpt>
    <trkpt lat="42.145535" lon="2.5811841">
        <ele>473.0</ele>
    </trkpt>
    <trkpt lat="42.1456562" lon="2.5811492">
        <ele>471.0</ele>
    </trkpt>
    <trkpt lat="42.1457444" lon="2.581142">
        <ele>469.0</ele>
    </trkpt>
    <trkpt lat="42.1458453" lon="2.5811209">
        <ele>467.0</ele>
    </trkpt>
    <trkpt lat="42.1458778" lon="2.5810597">
        <ele>465.0</ele>
    </trkpt>
    <trkpt lat="42.1458947" lon="2.5808017">
        <ele>462.0</ele>
    </trkpt>
    <trkpt lat="42.145856" lon="2.5806391">
        <ele>461.0</ele>
    </trkpt>
    <trkpt lat="42.1458279" lon="2.5804596">
        <ele>459.0</ele>
    </trkpt>
    <trkpt lat="42.1457253" lon="2.580067">
        <ele>456.0</ele>
    </trkpt>
    <trkpt lat="42.1456641" lon="2.5798675">
        <ele>454.0</ele>
    </trkpt>
    <trkpt lat="42.1456081" lon="2.5797049">
        <ele>453.0</ele>
    </trkpt>
    <trkpt lat="42.1453838" lon="2.579174">
        <ele>451.0</ele>
    </trkpt>
    <trkpt lat="42.1452872" lon="2.5789845">
        <ele>450.0</ele>
    </trkpt>
    <trkpt lat="42.1451524" lon="2.5786907">
        <ele>449.0</ele>
    </trkpt>
    <trkpt lat="42.1450636" lon="2.5785249">
        <ele>449.0</ele>
    </trkpt>
    <trkpt lat="42.1450076" lon="2.5784338">
        <ele>450.0</ele>
    </trkpt>
    <trkpt lat="42.1449416" lon="2.5782613">
        <ele>450.0</ele>
    </trkpt>
    <trkpt lat="42.1449055" lon="2.5781023">
        <ele>450.0</ele>
    </trkpt>
    <trkpt lat="42.1448671" lon="2.5779769">
        <ele>450.0</ele>
    </trkpt>
    <trkpt lat="42.1447761" lon="2.5779063">
        <ele>451.0</ele>
    </trkpt>
    <trkpt lat="42.1446975" lon="2.5778288">
        <ele>451.0</ele>
    </trkpt>
    <trkpt lat="42.1446847" lon="2.577744">
        <ele>451.0</ele>
    </trkpt>
    <trkpt lat="42.1447903" lon="2.5776315">
        <ele>451.0</ele>
    </trkpt>
    <trkpt lat="42.1448634" lon="2.5776074">
        <ele>451.0</ele>
    </trkpt>
    <trkpt lat="42.1449137" lon="2.5775663">
        <ele>451.0</ele>
    </trkpt>
    <trkpt lat="42.1449536" lon="2.5774542">
        <ele>451.0</ele>
    </trkpt>
    <trkpt lat="42.1449508" lon="2.5773556">
        <ele>451.0</ele>
    </trkpt>
    <trkpt lat="42.1449275" lon="2.5772371">
        <ele>452.0</ele>
    </trkpt>
    <trkpt lat="42.1449323" lon="2.5771117">
        <ele>452.0</ele>
    </trkpt>
    <trkpt lat="42.1449694" lon="2.576959">
        <ele>452.0</ele>
    </trkpt>
    <trkpt lat="42.1450596" lon="2.5767851">
        <ele>453.0</ele>
    </trkpt>
    <trkpt lat="42.1450287" lon="2.5766024">
        <ele>453.0</ele>
    </trkpt>
    <trkpt lat="42.145023" lon="2.5763989">
        <ele>453.0</ele>
    </trkpt>
    <trkpt lat="42.1449997" lon="2.5762463">
        <ele>454.0</ele>
    </trkpt>
    <trkpt lat="42.1449639" lon="2.5761618">
        <ele>454.0</ele>
    </trkpt>
    <trkpt lat="42.1448879" lon="2.5760639">
        <ele>454.0</ele>
    </trkpt>
    <trkpt lat="42.1448193" lon="2.5759255">
        <ele>454.0</ele>
    </trkpt>
    <trkpt lat="42.1447732" lon="2.5757495">
        <ele>454.0</ele>
    </trkpt>
    <trkpt lat="42.1447017" lon="2.5755025">
        <ele>455.0</ele>
    </trkpt>
    <trkpt lat="42.1446405" lon="2.5753094">
        <ele>455.0</ele>
    </trkpt>
    <trkpt lat="42.1445909" lon="2.5748962">
        <ele>457.0</ele>
    </trkpt>
    <trkpt lat="42.1445699" lon="2.5746927">
        <ele>458.0</ele>
    </trkpt>
    <trkpt lat="42.1445603" lon="2.5741198">
        <ele>462.0</ele>
    </trkpt>
    <trkpt lat="42.1445258" lon="2.5736927">
        <ele>465.0</ele>
    </trkpt>
    <trkpt lat="42.1444923" lon="2.5734895">
        <ele>468.0</ele>
    </trkpt>
    <trkpt lat="42.1444811" lon="2.5733234">
        <ele>470.0</ele>
    </trkpt>
    <trkpt lat="42.1445448" lon="2.5732349">
        <ele>471.0</ele>
    </trkpt>
    <trkpt lat="42.1445037" lon="2.5730993">
        <ele>473.0</ele>
    </trkpt>
    <trkpt lat="42.1444676" lon="2.5730433">
        <ele>473.0</ele>
    </trkpt>
    <trkpt lat="42.1443357" lon="2.5727345">
        <ele>478.0</ele>
    </trkpt>
    <trkpt lat="42.1442837" lon="2.5725719">
        <ele>481.0</ele>
    </trkpt>
    <trkpt lat="42.1442397" lon="2.5723881">
        <ele>484.0</ele>
    </trkpt>
    <trkpt lat="42.144177" lon="2.5722569">
        <ele>487.0</ele>
    </trkpt>
    <trkpt lat="42.1440154" lon="2.5719778">
        <ele>491.0</ele>
    </trkpt>
    <trkpt lat="42.1439666" lon="2.5718338">
        <ele>492.0</ele>
    </trkpt>
    <trkpt lat="42.1439381" lon="2.5716583">
        <ele>494.0</ele>
    </trkpt>
    <trkpt lat="42.1439252" lon="2.5715139">
        <ele>495.0</ele>
    </trkpt>
    <trkpt lat="42.1439449" lon="2.5709617">
        <ele>494.0</ele>
    </trkpt>
    <trkpt lat="42.1439693" lon="2.5708509">
        <ele>494.0</ele>
    </trkpt>
    <trkpt lat="42.1440247" lon="2.5707166">
        <ele>492.0</ele>
    </trkpt>
    <trkpt lat="42.1440522" lon="2.5705639">
        <ele>491.0</ele>
    </trkpt>
    <trkpt lat="42.1440521" lon="2.5705031">
        <ele>491.0</ele>
    </trkpt>
    <trkpt lat="42.1439971" lon="2.5704115">
        <ele>491.0</ele>
    </trkpt>
    <trkpt lat="42.1439565" lon="2.5703198">
        <ele>491.0</ele>
    </trkpt>
    <trkpt lat="42.143899" lon="2.570075">
        <ele>489.0</ele>
        <extensions>
        <gpxtpx:TrackPointExtension>
        <gpxtpx:Extensions>
            <surface>paving_stones</surface>
        </gpxtpx:Extensions>
        </gpxtpx:TrackPointExtension>
        </extensions>
    </trkpt>
    <trkpt lat="42.143909" lon="2.570049">
        <ele>488.8</ele>
        <extensions>
        <gpxtpx:TrackPointExtension>
        <gpxtpx:Extensions>
            <surface>paving_stones</surface>
        </gpxtpx:Extensions>
        </gpxtpx:TrackPointExtension>
        </extensions>
    </trkpt>
    <trkpt lat="42.143936" lon="2.570008">
        <ele>488.5</ele>
    </trkpt>
    <trkpt lat="42.144026" lon="2.569871">
        <ele>487.5</ele>
        <extensions>
        <gpxtpx:TrackPointExtension>
        <gpxtpx:Extensions>
            <surface>paving_stones</surface>
        </gpxtpx:Extensions>
        </gpxtpx:TrackPointExtension>
        </extensions>
    </trkpt>
    <trkpt lat="42.1445" lon="2.569157">
        <ele>491.3</ele>
        <extensions>
        <gpxtpx:TrackPointExtension>
        <gpxtpx:Extensions>
            <surface>concrete</surface>
        </gpxtpx:Extensions>
        </gpxtpx:TrackPointExtension>
        </extensions>
    </trkpt>
    <trkpt lat="42.144485" lon="2.569134">
        <ele>491.3</ele>
        <extensions>
        <gpxtpx:TrackPointExtension>
        <gpxtpx:Extensions>
            <surface>concrete</surface>
        </gpxtpx:Extensions>
        </gpxtpx:TrackPointExtension>
        </extensions>
    </trkpt>
    </trkseg>
</trk>
</gpx>