<?xml version="1.0" encoding="UTF-8"?>
<gpx xmlns:xsi="http://www.w3.org/2001/XMLSchema-instance" xmlns="http://www.topografix.com/GPX/1/1" xsi:schemaLocation="http://www.topografix.com/GPX/1/1 http://www.topografix.com/GPX/1/1/gpx.xsd http://www.garmin.com/xmlschemas/GpxExtensions/v3 http://www.garmin.com/xmlschemas/GpxExtensionsv3.xsd http://www.garmin.com/xmlschemas/TrackPointExtension/v1 http://www.garmin.com/xmlschemas/TrackPointExtensionv1.xsd http://www.topografix.com/GPX/gpx_style/0/2 http://www.topografix.com/GPX/gpx_style/0/2/gpx_style.xsd" xmlns:gpxtpx="http://www.garmin.com/xmlschemas/TrackPointExtension/v1" xmlns:gpxx="http://www.garmin.com/xmlschemas/GpxExtensions/v3" xmlns:gpx_style="http://www.topografix.com/GPX/gpx_style/0/2" version="1.1" creator="Wikiloc - https://www.wikiloc.com">
<metadata>
    <name>R9 - Torre òptica del Croscat (b)</name>
    <author>
        <name>gpx.studio</name>
        <link href="https://gpx.studio"></link>
    </author>
</metadata>
<wpt lat="42.154000796664356" lon="2.535979950624707">
    <ele>780.6</ele>
    <name>Torre òptica del Croscat</name>
    <sym>Geographic place name, Man-made</sym>
</wpt>
<wpt lat="42.15410475049932" lon="2.53590240909471">
    <ele>779.9</ele>
    <name>Volcà del Croscat</name>
    <sym>Summit</sym>
</wpt>
<wpt lat="42.15425097808528" lon="2.536966406285384">
    <ele>751.3</ele>
    <name>Mirador</name>
    <sym>Scenic Area</sym>
</wpt>
<wpt lat="42.157184206789346" lon="2.5340437889099126">
    <ele>610.6</ele>
    <name>Grederes del Croscat</name>
    <sym>Scenic Area</sym>
</wpt>
<trk>
    <name>La torre del Croscat</name>
    <type>Running</type>
    <trkseg>
    <trkpt lat="42.149472" lon="2.531594">
        <ele>624.5</ele>
        <time>2019-09-03T18:02:12.998Z</time>
    </trkpt>
    <trkpt lat="42.149501" lon="2.531648">
        <ele>625.1</ele>
        <time>2019-09-03T18:02:16.998Z</time>
    </trkpt>
    <trkpt lat="42.149527" lon="2.531699">
        <ele>624.3</ele>
        <time>2019-09-03T18:02:20.998Z</time>
    </trkpt>
    <trkpt lat="42.149559" lon="2.531762">
        <ele>624.3</ele>
        <time>2019-09-03T18:02:26.998Z</time>
    </trkpt>
    <trkpt lat="42.149586" lon="2.531823">
        <ele>623.1</ele>
        <time>2019-09-03T18:02:29.998Z</time>
    </trkpt>
    <trkpt lat="42.14963" lon="2.53188">
        <ele>621.5</ele>
        <time>2019-09-03T18:02:32.998Z</time>
    </trkpt>
    <trkpt lat="42.149653" lon="2.531933">
        <ele>620.4</ele>
        <time>2019-09-03T18:02:36.998Z</time>
    </trkpt>
    <trkpt lat="42.149676" lon="2.531987">
        <ele>619.7</ele>
        <time>2019-09-03T18:02:39.998Z</time>
    </trkpt>
    <trkpt lat="42.149715" lon="2.532055">
        <ele>620.5</ele>
        <time>2019-09-03T18:02:42.998Z</time>
    </trkpt>
    <trkpt lat="42.149751" lon="2.532102">
        <ele>622.7</ele>
        <time>2019-09-03T18:02:45.998Z</time>
    </trkpt>
    <trkpt lat="42.149797" lon="2.532161">
        <ele>623.7</ele>
        <time>2019-09-03T18:02:50.998Z</time>
    </trkpt>
    <trkpt lat="42.149838" lon="2.532189">
        <ele>624.0</ele>
        <time>2019-09-03T18:02:53.998Z</time>
    </trkpt>
    <trkpt lat="42.149877" lon="2.532237">
        <ele>623.2</ele>
        <time>2019-09-03T18:02:57.998Z</time>
    </trkpt>
    <trkpt lat="42.149935" lon="2.532254">
        <ele>624.6</ele>
        <time>2019-09-03T18:03:06.998Z</time>
    </trkpt>
    <trkpt lat="42.1499" lon="2.532195">
        <ele>628.6</ele>
        <time>2019-09-03T18:03:10.998Z</time>
    </trkpt>
    <trkpt lat="42.149865" lon="2.532155">
        <ele>632.5</ele>
        <time>2019-09-03T18:03:19.998Z</time>
    </trkpt>
    <trkpt lat="42.149915" lon="2.532133">
        <ele>634.1</ele>
        <time>2019-09-03T18:03:25.998Z</time>
    </trkpt>
    <trkpt lat="42.149966" lon="2.532121">
        <ele>635.2</ele>
        <time>2019-09-03T18:03:30.998Z</time>
    </trkpt>
    <trkpt lat="42.150019" lon="2.532115">
        <ele>637.7</ele>
        <time>2019-09-03T18:03:34.998Z</time>
    </trkpt>
    <trkpt lat="42.150068" lon="2.532109">
        <ele>639.3</ele>
        <time>2019-09-03T18:03:38.998Z</time>
    </trkpt>
    <trkpt lat="42.150116" lon="2.532133">
        <ele>641.9</ele>
        <time>2019-09-03T18:03:42.998Z</time>
    </trkpt>
    <trkpt lat="42.150154" lon="2.532191">
        <ele>644.8</ele>
        <time>2019-09-03T18:03:52.998Z</time>
    </trkpt>
    <trkpt lat="42.150202" lon="2.53223">
        <ele>647.8</ele>
        <time>2019-09-03T18:03:56.998Z</time>
    </trkpt>
    <trkpt lat="42.150226" lon="2.532282">
        <ele>650.2</ele>
        <time>2019-09-03T18:03:59.998Z</time>
    </trkpt>
    <trkpt lat="42.150262" lon="2.532322">
        <ele>650.5</ele>
        <time>2019-09-03T18:04:02.998Z</time>
    </trkpt>
    <trkpt lat="42.150329" lon="2.532341">
        <ele>651.3</ele>
        <time>2019-09-03T18:04:05.998Z</time>
    </trkpt>
    <trkpt lat="42.15039" lon="2.532351">
        <ele>652.5</ele>
        <time>2019-09-03T18:04:08.998Z</time>
    </trkpt>
    <trkpt lat="42.150446" lon="2.53235">
        <ele>652.6</ele>
        <time>2019-09-03T18:04:10.998Z</time>
    </trkpt>
    <trkpt lat="42.150506" lon="2.53236">
        <ele>653.9</ele>
        <time>2019-09-03T18:04:15.998Z</time>
    </trkpt>
    <trkpt lat="42.150555" lon="2.53235">
        <ele>655.6</ele>
        <time>2019-09-03T18:04:18.998Z</time>
    </trkpt>
    <trkpt lat="42.1506" lon="2.532324">
        <ele>657.9</ele>
        <time>2019-09-03T18:04:22.998Z</time>
    </trkpt>
    <trkpt lat="42.150641" lon="2.532289">
        <ele>660.2</ele>
        <time>2019-09-03T18:04:27.998Z</time>
    </trkpt>
    <trkpt lat="42.150632" lon="2.53222">
        <ele>662.3</ele>
        <time>2019-09-03T18:04:33.998Z</time>
    </trkpt>
    <trkpt lat="42.150615" lon="2.532158">
        <ele>662.2</ele>
        <time>2019-09-03T18:04:37.998Z</time>
    </trkpt>
    <trkpt lat="42.150617" lon="2.53208">
        <ele>663.5</ele>
        <time>2019-09-03T18:04:40.998Z</time>
    </trkpt>
    <trkpt lat="42.150631" lon="2.532001">
        <ele>664.3</ele>
        <time>2019-09-03T18:04:44.998Z</time>
    </trkpt>
    <trkpt lat="42.150672" lon="2.531941">
        <ele>663.8</ele>
        <time>2019-09-03T18:04:47.998Z</time>
    </trkpt>
    <trkpt lat="42.150706" lon="2.531871">
        <ele>664.1</ele>
        <time>2019-09-03T18:04:52.998Z</time>
    </trkpt>
    <trkpt lat="42.150754" lon="2.531838">
        <ele>663.8</ele>
        <time>2019-09-03T18:04:57.998Z</time>
    </trkpt>
    <trkpt lat="42.150794" lon="2.531807">
        <ele>664.9</ele>
        <time>2019-09-03T18:05:02.998Z</time>
    </trkpt>
    <trkpt lat="42.150843" lon="2.5318">
        <ele>666.5</ele>
        <time>2019-09-03T18:05:06.998Z</time>
    </trkpt>
    <trkpt lat="42.150907" lon="2.53178">
        <ele>666.6</ele>
        <time>2019-09-03T18:05:09.998Z</time>
    </trkpt>
    <trkpt lat="42.150977" lon="2.53179">
        <ele>666.6</ele>
        <time>2019-09-03T18:05:12.998Z</time>
    </trkpt>
    <trkpt lat="42.151041" lon="2.531784">
        <ele>668.8</ele>
        <time>2019-09-03T18:05:15.998Z</time>
    </trkpt>
    <trkpt lat="42.151099" lon="2.531782">
        <ele>671.0</ele>
        <time>2019-09-03T18:05:18.998Z</time>
    </trkpt>
    <trkpt lat="42.15115" lon="2.531777">
        <ele>673.3</ele>
        <time>2019-09-03T18:05:22.998Z</time>
    </trkpt>
    <trkpt lat="42.151194" lon="2.531793">
        <ele>675.3</ele>
        <time>2019-09-03T18:05:28.998Z</time>
    </trkpt>
    <trkpt lat="42.151244" lon="2.531806">
        <ele>676.7</ele>
        <time>2019-09-03T18:05:34.998Z</time>
    </trkpt>
    <trkpt lat="42.151298" lon="2.53182">
        <ele>676.4</ele>
        <time>2019-09-03T18:05:37.998Z</time>
    </trkpt>
    <trkpt lat="42.151362" lon="2.531843">
        <ele>675.6</ele>
        <time>2019-09-03T18:05:41.998Z</time>
    </trkpt>
    <trkpt lat="42.151413" lon="2.531877">
        <ele>676.5</ele>
        <time>2019-09-03T18:05:44.998Z</time>
    </trkpt>
    <trkpt lat="42.151448" lon="2.531947">
        <ele>678.0</ele>
        <time>2019-09-03T18:05:50.998Z</time>
    </trkpt>
    <trkpt lat="42.151465" lon="2.532005">
        <ele>677.6</ele>
        <time>2019-09-03T18:05:53.998Z</time>
    </trkpt>
    <trkpt lat="42.151488" lon="2.532071">
        <ele>676.6</ele>
        <time>2019-09-03T18:05:57.998Z</time>
    </trkpt>
    <trkpt lat="42.151533" lon="2.532092">
        <ele>676.0</ele>
        <time>2019-09-03T18:06:01.998Z</time>
    </trkpt>
    <trkpt lat="42.151566" lon="2.532138">
        <ele>675.3</ele>
        <time>2019-09-03T18:06:05.998Z</time>
    </trkpt>
    <trkpt lat="42.151596" lon="2.532201">
        <ele>675.2</ele>
        <time>2019-09-03T18:06:09.998Z</time>
    </trkpt>
    <trkpt lat="42.151635" lon="2.532251">
        <ele>676.3</ele>
        <time>2019-09-03T18:06:12.998Z</time>
    </trkpt>
    <trkpt lat="42.151672" lon="2.532317">
        <ele>678.4</ele>
        <time>2019-09-03T18:06:16.998Z</time>
    </trkpt>
    <trkpt lat="42.151704" lon="2.532377">
        <ele>680.5</ele>
        <time>2019-09-03T18:06:19.998Z</time>
    </trkpt>
    <trkpt lat="42.151727" lon="2.532434">
        <ele>681.4</ele>
        <time>2019-09-03T18:06:21.998Z</time>
    </trkpt>
    <trkpt lat="42.151753" lon="2.532506">
        <ele>681.5</ele>
        <time>2019-09-03T18:06:25.998Z</time>
    </trkpt>
    <trkpt lat="42.151776" lon="2.532567">
        <ele>682.2</ele>
        <time>2019-09-03T18:06:27.998Z</time>
    </trkpt>
    <trkpt lat="42.151802" lon="2.53264">
        <ele>683.5</ele>
        <time>2019-09-03T18:06:31.998Z</time>
    </trkpt>
    <trkpt lat="42.151824" lon="2.532705">
        <ele>685.8</ele>
        <time>2019-09-03T18:06:34.998Z</time>
    </trkpt>
    <trkpt lat="42.15183" lon="2.532766">
        <ele>687.4</ele>
        <time>2019-09-03T18:06:37.998Z</time>
    </trkpt>
    <trkpt lat="42.151833" lon="2.532843">
        <ele>688.8</ele>
        <time>2019-09-03T18:06:40.998Z</time>
    </trkpt>
    <trkpt lat="42.151857" lon="2.532903">
        <ele>689.7</ele>
        <time>2019-09-03T18:06:44.998Z</time>
    </trkpt>
    <trkpt lat="42.151861" lon="2.53298">
        <ele>691.3</ele>
        <time>2019-09-03T18:06:47.998Z</time>
    </trkpt>
    <trkpt lat="42.15185" lon="2.533059">
        <ele>693.4</ele>
        <time>2019-09-03T18:06:51.998Z</time>
    </trkpt>
    <trkpt lat="42.151852" lon="2.533131">
        <ele>694.8</ele>
        <time>2019-09-03T18:06:56.998Z</time>
    </trkpt>
    <trkpt lat="42.151875" lon="2.533194">
        <ele>696.6</ele>
        <time>2019-09-03T18:07:02.998Z</time>
    </trkpt>
    <trkpt lat="42.151921" lon="2.53323">
        <ele>698.7</ele>
        <time>2019-09-03T18:07:08.998Z</time>
    </trkpt>
    <trkpt lat="42.151944" lon="2.533283">
        <ele>700.5</ele>
        <time>2019-09-03T18:07:11.998Z</time>
    </trkpt>
    <trkpt lat="42.151966" lon="2.533355">
        <ele>702.7</ele>
        <time>2019-09-03T18:07:15.998Z</time>
    </trkpt>
    <trkpt lat="42.15195" lon="2.533412">
        <ele>705.1</ele>
        <time>2019-09-03T18:07:19.998Z</time>
    </trkpt>
    <trkpt lat="42.151946" lon="2.533493">
        <ele>708.3</ele>
        <time>2019-09-03T18:07:25.998Z</time>
    </trkpt>
    <trkpt lat="42.151959" lon="2.53356">
        <ele>709.9</ele>
        <time>2019-09-03T18:07:29.998Z</time>
    </trkpt>
    <trkpt lat="42.151973" lon="2.533632">
        <ele>711.0</ele>
        <time>2019-09-03T18:07:33.998Z</time>
    </trkpt>
    <trkpt lat="42.15202" lon="2.533675">
        <ele>712.9</ele>
        <time>2019-09-03T18:07:37.998Z</time>
    </trkpt>
    <trkpt lat="42.152019" lon="2.533746">
        <ele>715.4</ele>
        <time>2019-09-03T18:07:41.998Z</time>
    </trkpt>
    <trkpt lat="42.151987" lon="2.533799">
        <ele>718.1</ele>
        <time>2019-09-03T18:07:45.998Z</time>
    </trkpt>
    <trkpt lat="42.151979" lon="2.533868">
        <ele>721.4</ele>
        <time>2019-09-03T18:07:52.998Z</time>
    </trkpt>
    <trkpt lat="42.151992" lon="2.533938">
        <ele>723.6</ele>
        <time>2019-09-03T18:07:57.998Z</time>
    </trkpt>
    <trkpt lat="42.152002" lon="2.533999">
        <ele>725.7</ele>
        <time>2019-09-03T18:08:00.998Z</time>
    </trkpt>
    <trkpt lat="42.152006" lon="2.534065">
        <ele>728.2</ele>
        <time>2019-09-03T18:08:03.998Z</time>
    </trkpt>
    <trkpt lat="42.152037" lon="2.534129">
        <ele>730.1</ele>
        <time>2019-09-03T18:08:06.998Z</time>
    </trkpt>
    <trkpt lat="42.152072" lon="2.53417">
        <ele>732.0</ele>
        <time>2019-09-03T18:08:11.998Z</time>
    </trkpt>
    <trkpt lat="42.152114" lon="2.534193">
        <ele>734.4</ele>
        <time>2019-09-03T18:08:14.998Z</time>
    </trkpt>
    <trkpt lat="42.152147" lon="2.534248">
        <ele>735.2</ele>
        <time>2019-09-03T18:08:19.998Z</time>
    </trkpt>
    <trkpt lat="42.152164" lon="2.534311">
        <ele>735.2</ele>
        <time>2019-09-03T18:08:23.998Z</time>
    </trkpt>
    <trkpt lat="42.152175" lon="2.534372">
        <ele>735.2</ele>
        <time>2019-09-03T18:08:27.998Z</time>
    </trkpt>
    <trkpt lat="42.152165" lon="2.534439">
        <ele>737.7</ele>
        <time>2019-09-03T18:08:35.998Z</time>
    </trkpt>
    <trkpt lat="42.152153" lon="2.534498">
        <ele>740.7</ele>
        <time>2019-09-03T18:08:39.998Z</time>
    </trkpt>
    <trkpt lat="42.152128" lon="2.534553">
        <ele>744.7</ele>
        <time>2019-09-03T18:08:44.998Z</time>
    </trkpt>
    <trkpt lat="42.152149" lon="2.534616">
        <ele>747.6</ele>
        <time>2019-09-03T18:08:48.998Z</time>
    </trkpt>
    <trkpt lat="42.152198" lon="2.534649">
        <ele>751.2</ele>
        <time>2019-09-03T18:08:55.998Z</time>
    </trkpt>
    <trkpt lat="42.152208" lon="2.53472">
        <ele>753.8</ele>
        <time>2019-09-03T18:09:00.998Z</time>
    </trkpt>
    <trkpt lat="42.152247" lon="2.534776">
        <ele>754.8</ele>
        <time>2019-09-03T18:09:05.998Z</time>
    </trkpt>
    <trkpt lat="42.152267" lon="2.534844">
        <ele>756.3</ele>
        <time>2019-09-03T18:09:08.998Z</time>
    </trkpt>
    <trkpt lat="42.152274" lon="2.534917">
        <ele>759.1</ele>
        <time>2019-09-03T18:09:14.998Z</time>
    </trkpt>
    <trkpt lat="42.152285" lon="2.534977">
        <ele>760.9</ele>
        <time>2019-09-03T18:09:19.998Z</time>
    </trkpt>
    <trkpt lat="42.152274" lon="2.535046">
        <ele>762.6</ele>
        <time>2019-09-03T18:09:24.998Z</time>
    </trkpt>
    <trkpt lat="42.152305" lon="2.535097">
        <ele>764.8</ele>
        <time>2019-09-03T18:09:28.998Z</time>
    </trkpt>
    <trkpt lat="42.152321" lon="2.535172">
        <ele>765.0</ele>
        <time>2019-09-03T18:09:31.998Z</time>
    </trkpt>
    <trkpt lat="42.152328" lon="2.535233">
        <ele>764.8</ele>
        <time>2019-09-03T18:09:34.998Z</time>
    </trkpt>
    <trkpt lat="42.152334" lon="2.535298">
        <ele>765.1</ele>
        <time>2019-09-03T18:09:37.998Z</time>
    </trkpt>
    <trkpt lat="42.152356" lon="2.535366">
        <ele>765.6</ele>
        <time>2019-09-03T18:09:40.998Z</time>
    </trkpt>
    <trkpt lat="42.152382" lon="2.535416">
        <ele>765.8</ele>
        <time>2019-09-03T18:09:43.998Z</time>
    </trkpt>
    <trkpt lat="42.15243" lon="2.535479">
        <ele>766.5</ele>
        <time>2019-09-03T18:09:46.998Z</time>
    </trkpt>
    <trkpt lat="42.152474" lon="2.535534">
        <ele>768.6</ele>
        <time>2019-09-03T18:09:48.998Z</time>
    </trkpt>
    <trkpt lat="42.152525" lon="2.535591">
        <ele>770.1</ele>
        <time>2019-09-03T18:09:51.998Z</time>
    </trkpt>
    <trkpt lat="42.152579" lon="2.535611">
        <ele>770.4</ele>
        <time>2019-09-03T18:09:53.998Z</time>
    </trkpt>
    <trkpt lat="42.15263" lon="2.535661">
        <ele>770.4</ele>
        <time>2019-09-03T18:09:56.998Z</time>
    </trkpt>
    <trkpt lat="42.152667" lon="2.53571">
        <ele>770.4</ele>
        <time>2019-09-03T18:10:01.998Z</time>
    </trkpt>
    <trkpt lat="42.152694" lon="2.535764">
        <ele>770.3</ele>
        <time>2019-09-03T18:10:04.998Z</time>
    </trkpt>
    <trkpt lat="42.152727" lon="2.53582">
        <ele>769.3</ele>
        <time>2019-09-03T18:10:07.998Z</time>
    </trkpt>
    <trkpt lat="42.152759" lon="2.535863">
        <ele>770.5</ele>
        <time>2019-09-03T18:10:10.998Z</time>
    </trkpt>
    <trkpt lat="42.152808" lon="2.535896">
        <ele>771.1</ele>
        <time>2019-09-03T18:10:13.998Z</time>
    </trkpt>
    <trkpt lat="42.152862" lon="2.535903">
        <ele>770.8</ele>
        <time>2019-09-03T18:10:15.998Z</time>
    </trkpt>
    <trkpt lat="42.152907" lon="2.535921">
        <ele>770.5</ele>
        <time>2019-09-03T18:10:17.998Z</time>
    </trkpt>
    <trkpt lat="42.15295" lon="2.535954">
        <ele>770.4</ele>
        <time>2019-09-03T18:10:21.998Z</time>
    </trkpt>
    <trkpt lat="42.153001" lon="2.535976">
        <ele>772.4</ele>
        <time>2019-09-03T18:10:24.998Z</time>
    </trkpt>
    <trkpt lat="42.15306" lon="2.535965">
        <ele>773.0</ele>
        <time>2019-09-03T18:10:27.998Z</time>
    </trkpt>
    <trkpt lat="42.153105" lon="2.535978">
        <ele>773.3</ele>
        <time>2019-09-03T18:10:30.998Z</time>
    </trkpt>
    <trkpt lat="42.153154" lon="2.535992">
        <ele>773.9</ele>
        <time>2019-09-03T18:10:33.998Z</time>
    </trkpt>
    <trkpt lat="42.153202" lon="2.536011">
        <ele>774.0</ele>
        <time>2019-09-03T18:10:36.998Z</time>
    </trkpt>
    <trkpt lat="42.15325" lon="2.536028">
        <ele>774.3</ele>
        <time>2019-09-03T18:10:39.998Z</time>
    </trkpt>
    <trkpt lat="42.153313" lon="2.53604">
        <ele>772.9</ele>
        <time>2019-09-03T18:10:42.998Z</time>
    </trkpt>
    <trkpt lat="42.153377" lon="2.536056">
        <ele>771.7</ele>
        <time>2019-09-03T18:10:44.998Z</time>
    </trkpt>
    <trkpt lat="42.15343" lon="2.536058">
        <ele>771.2</ele>
        <time>2019-09-03T18:10:47.998Z</time>
    </trkpt>
    <trkpt lat="42.153488" lon="2.536048">
        <ele>771.7</ele>
        <time>2019-09-03T18:10:50.998Z</time>
    </trkpt>
    <trkpt lat="42.153533" lon="2.536044">
        <ele>773.3</ele>
        <time>2019-09-03T18:10:53.998Z</time>
    </trkpt>
    <trkpt lat="42.153578" lon="2.536068">
        <ele>773.7</ele>
        <time>2019-09-03T18:10:56.998Z</time>
    </trkpt>
    <trkpt lat="42.153635" lon="2.53605">
        <ele>773.9</ele>
        <time>2019-09-03T18:10:59.998Z</time>
    </trkpt>
    <trkpt lat="42.153689" lon="2.536062">
        <ele>774.1</ele>
        <time>2019-09-03T18:11:03.998Z</time>
    </trkpt>
    <trkpt lat="42.153738" lon="2.536079">
        <ele>774.3</ele>
        <time>2019-09-03T18:11:08.998Z</time>
    </trkpt>
    <trkpt lat="42.153799" lon="2.536068">
        <ele>772.3</ele>
        <time>2019-09-03T18:11:13.998Z</time>
    </trkpt>
    <trkpt lat="42.153847" lon="2.536063">
        <ele>771.4</ele>
        <time>2019-09-03T18:11:17.998Z</time>
    </trkpt>
    <trkpt lat="42.153898" lon="2.536051">
        <ele>775.5</ele>
        <time>2019-09-03T18:11:23.998Z</time>
    </trkpt>
    <trkpt lat="42.153937" lon="2.536016">
        <ele>779.5</ele>
        <time>2019-09-03T18:11:28.998Z</time>
    </trkpt>
    <trkpt lat="42.153981" lon="2.536034">
        <ele>778.0</ele>
        <time>2019-09-03T18:11:31.998Z</time>
    </trkpt>
    <trkpt lat="42.154036" lon="2.536046">
        <ele>776.4</ele>
        <time>2019-09-03T18:11:35.998Z</time>
    </trkpt>
    <trkpt lat="42.154089" lon="2.536017">
        <ele>773.8</ele>
        <time>2019-09-03T18:11:38.998Z</time>
    </trkpt>
    <trkpt lat="42.154129" lon="2.535958">
        <ele>770.6</ele>
        <time>2019-09-03T18:11:41.998Z</time>
    </trkpt>
    <trkpt lat="42.154127" lon="2.535866">
        <ele>767.5</ele>
        <time>2019-09-03T18:12:49.998Z</time>
    </trkpt>
    <trkpt lat="42.154161" lon="2.535817">
        <ele>766.1</ele>
        <time>2019-09-03T18:12:54.998Z</time>
    </trkpt>
    <trkpt lat="42.154206" lon="2.53581">
        <ele>764.8</ele>
        <time>2019-09-03T18:12:57.998Z</time>
    </trkpt>
    <trkpt lat="42.154255" lon="2.53579">
        <ele>763.1</ele>
        <time>2019-09-03T18:13:00.998Z</time>
    </trkpt>
    <trkpt lat="42.154267" lon="2.535723">
        <ele>763.5</ele>
        <time>2019-09-03T18:13:08.998Z</time>
    </trkpt>
    <trkpt lat="42.154305" lon="2.535668">
        <ele>763.0</ele>
        <time>2019-09-03T18:13:11.998Z</time>
    </trkpt>
    <trkpt lat="42.154328" lon="2.535612">
        <ele>762.2</ele>
        <time>2019-09-03T18:13:15.998Z</time>
    </trkpt>
    <trkpt lat="42.154347" lon="2.535548">
        <ele>762.1</ele>
        <time>2019-09-03T18:13:21.998Z</time>
    </trkpt>
    <trkpt lat="42.154347" lon="2.535481">
        <ele>761.3</ele>
        <time>2019-09-03T18:13:27.998Z</time>
    </trkpt>
    <trkpt lat="42.154382" lon="2.535439">
        <ele>759.3</ele>
        <time>2019-09-03T18:13:34.998Z</time>
    </trkpt>
    <trkpt lat="42.154423" lon="2.535404">
        <ele>758.6</ele>
        <time>2019-09-03T18:13:38.998Z</time>
    </trkpt>
    <trkpt lat="42.154464" lon="2.535365">
        <ele>758.9</ele>
        <time>2019-09-03T18:13:42.998Z</time>
    </trkpt>
    <trkpt lat="42.154508" lon="2.535328">
        <ele>759.3</ele>
        <time>2019-09-03T18:13:45.998Z</time>
    </trkpt>
    <trkpt lat="42.154549" lon="2.53525">
        <ele>759.1</ele>
        <time>2019-09-03T18:13:48.998Z</time>
    </trkpt>
    <trkpt lat="42.154569" lon="2.535177">
        <ele>759.7</ele>
        <time>2019-09-03T18:13:51.998Z</time>
    </trkpt>
    <trkpt lat="42.154566" lon="2.535103">
        <ele>757.3</ele>
        <time>2019-09-03T18:13:54.998Z</time>
    </trkpt>
    <trkpt lat="42.154671" lon="2.534934">
        <ele>753.4</ele>
        <time>2019-09-03T18:14:48.998Z</time>
    </trkpt>
    <trkpt lat="42.154687" lon="2.534876">
        <ele>751.3</ele>
        <time>2019-09-03T18:15:03.998Z</time>
    </trkpt>
    <trkpt lat="42.154735" lon="2.534848">
        <ele>750.1</ele>
        <time>2019-09-03T18:15:08.998Z</time>
    </trkpt>
    <trkpt lat="42.154785" lon="2.534815">
        <ele>749.2</ele>
        <time>2019-09-03T18:15:11.998Z</time>
    </trkpt>
    <trkpt lat="42.154837" lon="2.534802">
        <ele>747.6</ele>
        <time>2019-09-03T18:15:15.998Z</time>
    </trkpt>
    <trkpt lat="42.154869" lon="2.534749">
        <ele>745.8</ele>
        <time>2019-09-03T18:15:26.998Z</time>
    </trkpt>
    <trkpt lat="42.154904" lon="2.534695">
        <ele>744.7</ele>
        <time>2019-09-03T18:15:34.998Z</time>
    </trkpt>
    <trkpt lat="42.154909" lon="2.534632">
        <ele>743.7</ele>
        <time>2019-09-03T18:15:41.998Z</time>
    </trkpt>
    <trkpt lat="42.15494" lon="2.534574">
        <ele>743.0</ele>
        <time>2019-09-03T18:15:47.998Z</time>
    </trkpt>
    <trkpt lat="42.154962" lon="2.534519">
        <ele>742.8</ele>
        <time>2019-09-03T18:15:50.998Z</time>
    </trkpt>
    <trkpt lat="42.154981" lon="2.534463">
        <ele>742.4</ele>
        <time>2019-09-03T18:15:53.998Z</time>
    </trkpt>
    <trkpt lat="42.154994" lon="2.534387">
        <ele>743.0</ele>
        <time>2019-09-03T18:15:56.998Z</time>
    </trkpt>
    <trkpt lat="42.15502" lon="2.534324">
        <ele>742.7</ele>
        <time>2019-09-03T18:16:00.998Z</time>
    </trkpt>
    <trkpt lat="42.155046" lon="2.5342">
        <ele>742.1</ele>
        <time>2019-09-03T18:16:22.998Z</time>
    </trkpt>
    <trkpt lat="42.155069" lon="2.534148">
        <ele>741.4</ele>
        <time>2019-09-03T18:16:28.998Z</time>
    </trkpt>
    <trkpt lat="42.155089" lon="2.534094">
        <ele>739.9</ele>
        <time>2019-09-03T18:16:36.998Z</time>
    </trkpt>
    <trkpt lat="42.155112" lon="2.534041">
        <ele>738.9</ele>
        <time>2019-09-03T18:16:41.998Z</time>
    </trkpt>
    <trkpt lat="42.15512" lon="2.533974">
        <ele>737.2</ele>
        <time>2019-09-03T18:16:47.998Z</time>
    </trkpt>
    <trkpt lat="42.155082" lon="2.533935">
        <ele>735.9</ele>
        <time>2019-09-03T18:16:52.998Z</time>
    </trkpt>
    <trkpt lat="42.155079" lon="2.533869">
        <ele>734.1</ele>
        <time>2019-09-03T18:17:00.998Z</time>
    </trkpt>
    <trkpt lat="42.155083" lon="2.533802">
        <ele>733.2</ele>
        <time>2019-09-03T18:17:05.998Z</time>
    </trkpt>
    <trkpt lat="42.155108" lon="2.533746">
        <ele>732.4</ele>
        <time>2019-09-03T18:17:11.998Z</time>
    </trkpt>
    <trkpt lat="42.155125" lon="2.533681">
        <ele>731.7</ele>
        <time>2019-09-03T18:17:16.998Z</time>
    </trkpt>
    <trkpt lat="42.155126" lon="2.533609">
        <ele>730.5</ele>
        <time>2019-09-03T18:17:21.998Z</time>
    </trkpt>
    <trkpt lat="42.155153" lon="2.533552">
        <ele>730.6</ele>
        <time>2019-09-03T18:17:25.998Z</time>
    </trkpt>
    <trkpt lat="42.155156" lon="2.533484">
        <ele>731.3</ele>
        <time>2019-09-03T18:17:30.998Z</time>
    </trkpt>
    <trkpt lat="42.155149" lon="2.53342">
        <ele>730.3</ele>
        <time>2019-09-03T18:17:35.998Z</time>
    </trkpt>
    <trkpt lat="42.155152" lon="2.533348">
        <ele>729.5</ele>
        <time>2019-09-03T18:17:40.998Z</time>
    </trkpt>
    <trkpt lat="42.155184" lon="2.533303">
        <ele>728.1</ele>
        <time>2019-09-03T18:17:45.998Z</time>
    </trkpt>
    <trkpt lat="42.155192" lon="2.533234">
        <ele>725.8</ele>
        <time>2019-09-03T18:17:51.998Z</time>
    </trkpt>
    <trkpt lat="42.155175" lon="2.533168">
        <ele>724.7</ele>
        <time>2019-09-03T18:18:00.998Z</time>
    </trkpt>
    <trkpt lat="42.15516" lon="2.53311">
        <ele>722.5</ele>
        <time>2019-09-03T18:18:08.998Z</time>
    </trkpt>
    <trkpt lat="42.155178" lon="2.533046">
        <ele>723.1</ele>
        <time>2019-09-03T18:18:13.998Z</time>
    </trkpt>
    <trkpt lat="42.155176" lon="2.532975">
        <ele>722.7</ele>
        <time>2019-09-03T18:18:19.998Z</time>
    </trkpt>
    <trkpt lat="42.155172" lon="2.532906">
        <ele>721.4</ele>
        <time>2019-09-03T18:18:25.998Z</time>
    </trkpt>
    <trkpt lat="42.155157" lon="2.532844">
        <ele>720.0</ele>
        <time>2019-09-03T18:18:31.998Z</time>
    </trkpt>
    <trkpt lat="42.155182" lon="2.532775">
        <ele>717.6</ele>
        <time>2019-09-03T18:18:38.998Z</time>
    </trkpt>
    <trkpt lat="42.155204" lon="2.532721">
        <ele>714.9</ele>
        <time>2019-09-03T18:18:52.998Z</time>
    </trkpt>
    <trkpt lat="42.155231" lon="2.532662">
        <ele>713.7</ele>
        <time>2019-09-03T18:18:57.998Z</time>
    </trkpt>
    <trkpt lat="42.15524" lon="2.532587">
        <ele>713.6</ele>
        <time>2019-09-03T18:19:02.998Z</time>
    </trkpt>
    <trkpt lat="42.155202" lon="2.532554">
        <ele>710.7</ele>
        <time>2019-09-03T18:19:08.998Z</time>
    </trkpt>
    <trkpt lat="42.155178" lon="2.532497">
        <ele>710.0</ele>
        <time>2019-09-03T18:19:12.998Z</time>
    </trkpt>
    <trkpt lat="42.155188" lon="2.532422">
        <ele>708.3</ele>
        <time>2019-09-03T18:19:15.998Z</time>
    </trkpt>
    <trkpt lat="42.155211" lon="2.532357">
        <ele>706.6</ele>
        <time>2019-09-03T18:19:21.998Z</time>
    </trkpt>
    <trkpt lat="42.155171" lon="2.532324">
        <ele>705.9</ele>
        <time>2019-09-03T18:19:25.998Z</time>
    </trkpt>
    <trkpt lat="42.155139" lon="2.532279">
        <ele>707.3</ele>
        <time>2019-09-03T18:19:33.998Z</time>
    </trkpt>
    <trkpt lat="42.155109" lon="2.532233">
        <ele>706.3</ele>
        <time>2019-09-03T18:19:37.998Z</time>
    </trkpt>
    <trkpt lat="42.155096" lon="2.532173">
        <ele>704.8</ele>
        <time>2019-09-03T18:19:41.998Z</time>
    </trkpt>
    <trkpt lat="42.155085" lon="2.532092">
        <ele>702.1</ele>
        <time>2019-09-03T18:19:47.998Z</time>
    </trkpt>
    <trkpt lat="42.155076" lon="2.53203">
        <ele>698.9</ele>
        <time>2019-09-03T18:19:51.998Z</time>
    </trkpt>
    <trkpt lat="42.155078" lon="2.53195">
        <ele>695.1</ele>
        <time>2019-09-03T18:19:55.998Z</time>
    </trkpt>
    <trkpt lat="42.155064" lon="2.531873">
        <ele>691.0</ele>
        <time>2019-09-03T18:20:56.998Z</time>
    </trkpt>
    <trkpt lat="42.155096" lon="2.531818">
        <ele>695.0</ele>
        <time>2019-09-03T18:21:00.998Z</time>
    </trkpt>
    <trkpt lat="42.155049" lon="2.531806">
        <ele>691.2</ele>
        <time>2019-09-03T18:21:10.998Z</time>
    </trkpt>
    <trkpt lat="42.155049" lon="2.531738">
        <ele>689.0</ele>
        <time>2019-09-03T18:21:15.998Z</time>
    </trkpt>
    <trkpt lat="42.155029" lon="2.531683">
        <ele>684.9</ele>
        <time>2019-09-03T18:21:18.998Z</time>
    </trkpt>
    <trkpt lat="42.155007" lon="2.531624">
        <ele>681.0</ele>
        <time>2019-09-03T18:21:21.998Z</time>
    </trkpt>
    <trkpt lat="42.154973" lon="2.531557">
        <ele>677.0</ele>
        <time>2019-09-03T18:21:25.998Z</time>
    </trkpt>
    <trkpt lat="42.154941" lon="2.531506">
        <ele>672.9</ele>
        <time>2019-09-03T18:22:08.998Z</time>
    </trkpt>
    <trkpt lat="42.154925" lon="2.531444">
        <ele>668.9</ele>
        <time>2019-09-03T18:22:11.998Z</time>
    </trkpt>
    <trkpt lat="42.154888" lon="2.531376">
        <ele>665.0</ele>
        <time>2019-09-03T18:22:16.998Z</time>
    </trkpt>
    <trkpt lat="42.154867" lon="2.531307">
        <ele>661.0</ele>
        <time>2019-09-03T18:22:58.998Z</time>
    </trkpt>
    <trkpt lat="42.154858" lon="2.531241">
        <ele>656.9</ele>
        <time>2019-09-03T18:23:06.998Z</time>
    </trkpt>
    <trkpt lat="42.154848" lon="2.531175">
        <ele>653.8</ele>
        <time>2019-09-03T18:23:12.998Z</time>
    </trkpt>
    <trkpt lat="42.15483" lon="2.53111">
        <ele>649.7</ele>
        <time>2019-09-03T18:23:22.998Z</time>
    </trkpt>
    <trkpt lat="42.154879" lon="2.531082">
        <ele>649.8</ele>
        <time>2019-09-03T18:23:28.998Z</time>
    </trkpt>
    <trkpt lat="42.154914" lon="2.531039">
        <ele>649.2</ele>
        <time>2019-09-03T18:23:32.998Z</time>
    </trkpt>
    <trkpt lat="42.154904" lon="2.530967">
        <ele>648.4</ele>
        <time>2019-09-03T18:23:36.998Z</time>
    </trkpt>
    <trkpt lat="42.15491" lon="2.530895">
        <ele>648.2</ele>
        <time>2019-09-03T18:23:38.998Z</time>
    </trkpt>
    <trkpt lat="42.154897" lon="2.530811">
        <ele>647.7</ele>
        <time>2019-09-03T18:23:40.998Z</time>
    </trkpt>
    <trkpt lat="42.154844" lon="2.530709">
        <ele>644.4</ele>
        <time>2019-09-03T18:24:36.998Z</time>
    </trkpt>
    <trkpt lat="42.154878" lon="2.530769">
        <ele>643.5</ele>
        <time>2019-09-03T18:24:39.998Z</time>
    </trkpt>
    <trkpt lat="42.154913" lon="2.530724">
        <ele>643.3</ele>
        <time>2019-09-03T18:24:44.998Z</time>
    </trkpt>
    <trkpt lat="42.154882" lon="2.530663">
        <ele>641.0</ele>
        <time>2019-09-03T18:24:52.998Z</time>
    </trkpt>
    <trkpt lat="42.154907" lon="2.53061">
        <ele>638.3</ele>
        <time>2019-09-03T18:24:55.998Z</time>
    </trkpt>
    <trkpt lat="42.154924" lon="2.530553">
        <ele>635.5</ele>
        <time>2019-09-03T18:24:58.998Z</time>
    </trkpt>
    <trkpt lat="42.154956" lon="2.530495">
        <ele>631.8</ele>
        <time>2019-09-03T18:25:11.998Z</time>
    </trkpt>
    <trkpt lat="42.154913" lon="2.530464">
        <ele>631.2</ele>
        <time>2019-09-03T18:25:13.998Z</time>
    </trkpt>
    <trkpt lat="42.154864" lon="2.530441">
        <ele>630.2</ele>
        <time>2019-09-03T18:25:16.998Z</time>
    </trkpt>
    <trkpt lat="42.154859" lon="2.530381">
        <ele>627.9</ele>
        <time>2019-09-03T18:25:22.998Z</time>
    </trkpt>
    <trkpt lat="42.154893" lon="2.530326">
        <ele>624.0</ele>
        <time>2019-09-03T18:25:31.998Z</time>
    </trkpt>
    <trkpt lat="42.154889" lon="2.530258">
        <ele>620.9</ele>
        <time>2019-09-03T18:25:41.998Z</time>
    </trkpt>
    <trkpt lat="42.154912" lon="2.530202">
        <ele>619.1</ele>
        <time>2019-09-03T18:25:45.998Z</time>
    </trkpt>
    <trkpt lat="42.154933" lon="2.530145">
        <ele>615.9</ele>
        <time>2019-09-03T18:25:55.998Z</time>
    </trkpt>
    <trkpt lat="42.154886" lon="2.530135">
        <ele>613.2</ele>
        <time>2019-09-03T18:25:59.998Z</time>
    </trkpt>
    <trkpt lat="42.154842" lon="2.53011">
        <ele>609.5</ele>
        <time>2019-09-03T18:26:05.998Z</time>
    </trkpt>
    <trkpt lat="42.154809" lon="2.530056">
        <ele>609.4</ele>
        <time>2019-09-03T18:26:10.998Z</time>
    </trkpt>
    <trkpt lat="42.15482" lon="2.52999">
        <ele>609.3</ele>
        <time>2019-09-03T18:26:14.998Z</time>
    </trkpt>
    <trkpt lat="42.154865" lon="2.529956">
        <ele>608.8</ele>
        <time>2019-09-03T18:26:19.998Z</time>
    </trkpt>
    <trkpt lat="42.154911" lon="2.529979">
        <ele>609.5</ele>
        <time>2019-09-03T18:26:22.998Z</time>
    </trkpt>
    <trkpt lat="42.154971" lon="2.529998">
        <ele>610.0</ele>
        <time>2019-09-03T18:26:25.998Z</time>
    </trkpt>
    <trkpt lat="42.155032" lon="2.530015">
        <ele>612.8</ele>
        <time>2019-09-03T18:26:28.998Z</time>
    </trkpt>
    <trkpt lat="42.155073" lon="2.530061">
        <ele>614.3</ele>
        <time>2019-09-03T18:26:32.998Z</time>
    </trkpt>
    <trkpt lat="42.155129" lon="2.530093">
        <ele>615.9</ele>
        <time>2019-09-03T18:26:34.998Z</time>
    </trkpt>
    <trkpt lat="42.15518" lon="2.530133">
        <ele>617.2</ele>
        <time>2019-09-03T18:26:37.998Z</time>
    </trkpt>
    <trkpt lat="42.155227" lon="2.530145">
        <ele>617.6</ele>
        <time>2019-09-03T18:26:39.998Z</time>
    </trkpt>
    <trkpt lat="42.155284" lon="2.530182">
        <ele>617.9</ele>
        <time>2019-09-03T18:26:43.998Z</time>
    </trkpt>
    <trkpt lat="42.155311" lon="2.530235">
        <ele>616.7</ele>
        <time>2019-09-03T18:26:48.998Z</time>
    </trkpt>
    <trkpt lat="42.155352" lon="2.53028">
        <ele>615.2</ele>
        <time>2019-09-03T18:26:51.998Z</time>
    </trkpt>
    <trkpt lat="42.155391" lon="2.530321">
        <ele>614.8</ele>
        <time>2019-09-03T18:26:55.998Z</time>
    </trkpt>
    <trkpt lat="42.155433" lon="2.530369">
        <ele>614.8</ele>
        <time>2019-09-03T18:26:59.998Z</time>
    </trkpt>
    <trkpt lat="42.155467" lon="2.530418">
        <ele>614.8</ele>
        <time>2019-09-03T18:27:04.998Z</time>
    </trkpt>
    <trkpt lat="42.15551" lon="2.530455">
        <ele>614.8</ele>
        <time>2019-09-03T18:27:10.998Z</time>
    </trkpt>
    <trkpt lat="42.15556" lon="2.530494">
        <ele>614.8</ele>
        <time>2019-09-03T18:27:14.998Z</time>
    </trkpt>
    <trkpt lat="42.155614" lon="2.530528">
        <ele>614.2</ele>
        <time>2019-09-03T18:27:18.998Z</time>
    </trkpt>
    <trkpt lat="42.155676" lon="2.530541">
        <ele>613.2</ele>
        <time>2019-09-03T18:27:21.998Z</time>
    </trkpt>
    <trkpt lat="42.155725" lon="2.530587">
        <ele>612.1</ele>
        <time>2019-09-03T18:27:28.998Z</time>
    </trkpt>
    <trkpt lat="42.155764" lon="2.530622">
        <ele>611.6</ele>
        <time>2019-09-03T18:27:31.998Z</time>
    </trkpt>
    <trkpt lat="42.155806" lon="2.53066">
        <ele>610.9</ele>
        <time>2019-09-03T18:27:35.998Z</time>
    </trkpt>
    <trkpt lat="42.155858" lon="2.530684">
        <ele>611.0</ele>
        <time>2019-09-03T18:27:38.998Z</time>
    </trkpt>
    <trkpt lat="42.155898" lon="2.530728">
        <ele>610.3</ele>
        <time>2019-09-03T18:27:42.998Z</time>
    </trkpt>
    <trkpt lat="42.155943" lon="2.530775">
        <ele>609.4</ele>
        <time>2019-09-03T18:27:46.998Z</time>
    </trkpt>
    <trkpt lat="42.155985" lon="2.53082">
        <ele>609.0</ele>
        <time>2019-09-03T18:27:50.998Z</time>
    </trkpt>
    <trkpt lat="42.156043" lon="2.530848">
        <ele>608.5</ele>
        <time>2019-09-03T18:27:53.998Z</time>
    </trkpt>
    <trkpt lat="42.156109" lon="2.530886">
        <ele>607.1</ele>
        <time>2019-09-03T18:27:56.998Z</time>
    </trkpt>
    <trkpt lat="42.156154" lon="2.530934">
        <ele>604.1</ele>
        <time>2019-09-03T18:28:00.998Z</time>
    </trkpt>
    <trkpt lat="42.15621" lon="2.530952">
        <ele>603.0</ele>
        <time>2019-09-03T18:28:02.998Z</time>
    </trkpt>
    <trkpt lat="42.15626" lon="2.530983">
        <ele>602.4</ele>
        <time>2019-09-03T18:28:05.998Z</time>
    </trkpt>
    <trkpt lat="42.156314" lon="2.531014">
        <ele>602.1</ele>
        <time>2019-09-03T18:28:08.998Z</time>
    </trkpt>
    <trkpt lat="42.156329" lon="2.531074">
        <ele>602.3</ele>
        <time>2019-09-03T18:28:13.998Z</time>
    </trkpt>
    <trkpt lat="42.156353" lon="2.531138">
        <ele>600.7</ele>
        <time>2019-09-03T18:28:18.998Z</time>
    </trkpt>
    <trkpt lat="42.156405" lon="2.531145">
        <ele>598.7</ele>
        <time>2019-09-03T18:28:21.998Z</time>
    </trkpt>
    <trkpt lat="42.156457" lon="2.531151">
        <ele>598.7</ele>
        <time>2019-09-03T18:28:24.998Z</time>
    </trkpt>
    <trkpt lat="42.156521" lon="2.531129">
        <ele>598.6</ele>
        <time>2019-09-03T18:28:26.998Z</time>
    </trkpt>
    <trkpt lat="42.156586" lon="2.531116">
        <ele>597.9</ele>
        <time>2019-09-03T18:28:28.998Z</time>
    </trkpt>
    <trkpt lat="42.156637" lon="2.531136">
        <ele>595.5</ele>
        <time>2019-09-03T18:28:32.998Z</time>
    </trkpt>
    <trkpt lat="42.156693" lon="2.531157">
        <ele>593.4</ele>
        <time>2019-09-03T18:28:36.998Z</time>
    </trkpt>
    <trkpt lat="42.156739" lon="2.531163">
        <ele>596.0</ele>
        <time>2019-09-03T18:28:40.998Z</time>
    </trkpt>
    <trkpt lat="42.156789" lon="2.531172">
        <ele>600.0</ele>
        <time>2019-09-03T18:28:44.998Z</time>
    </trkpt>
    <trkpt lat="42.156836" lon="2.53116">
        <ele>604.1</ele>
        <time>2019-09-03T18:28:49.998Z</time>
    </trkpt>
    <trkpt lat="42.156888" lon="2.531152">
        <ele>603.7</ele>
        <time>2019-09-03T18:28:53.998Z</time>
    </trkpt>
    <trkpt lat="42.156942" lon="2.531137">
        <ele>603.0</ele>
        <time>2019-09-03T18:29:01.998Z</time>
    </trkpt>
    <trkpt lat="42.156966" lon="2.531191">
        <ele>604.6</ele>
        <time>2019-09-03T18:29:05.998Z</time>
    </trkpt>
    <trkpt lat="42.156977" lon="2.531259">
        <ele>605.9</ele>
        <time>2019-09-03T18:29:09.998Z</time>
    </trkpt>
    <trkpt lat="42.156962" lon="2.531322">
        <ele>607.6</ele>
        <time>2019-09-03T18:29:13.998Z</time>
    </trkpt>
    <trkpt lat="42.156953" lon="2.531389">
        <ele>607.4</ele>
        <time>2019-09-03T18:29:16.998Z</time>
    </trkpt>
    <trkpt lat="42.156938" lon="2.531452">
        <ele>608.0</ele>
        <time>2019-09-03T18:29:19.998Z</time>
    </trkpt>
    <trkpt lat="42.156946" lon="2.531515">
        <ele>609.6</ele>
        <time>2019-09-03T18:29:23.998Z</time>
    </trkpt>
    <trkpt lat="42.156944" lon="2.531585">
        <ele>611.0</ele>
        <time>2019-09-03T18:29:26.998Z</time>
    </trkpt>
    <trkpt lat="42.156941" lon="2.531649">
        <ele>612.1</ele>
        <time>2019-09-03T18:29:29.998Z</time>
    </trkpt>
    <trkpt lat="42.156928" lon="2.531707">
        <ele>613.1</ele>
        <time>2019-09-03T18:29:31.998Z</time>
    </trkpt>
    <trkpt lat="42.156927" lon="2.531782">
        <ele>614.0</ele>
        <time>2019-09-03T18:29:34.998Z</time>
    </trkpt>
    <trkpt lat="42.156937" lon="2.531849">
        <ele>614.2</ele>
        <time>2019-09-03T18:29:37.998Z</time>
    </trkpt>
    <trkpt lat="42.156951" lon="2.531918">
        <ele>612.6</ele>
        <time>2019-09-03T18:29:40.998Z</time>
    </trkpt>
    <trkpt lat="42.156972" lon="2.531988">
        <ele>611.9</ele>
        <time>2019-09-03T18:29:44.998Z</time>
    </trkpt>
    <trkpt lat="42.156972" lon="2.532053">
        <ele>610.1</ele>
        <time>2019-09-03T18:29:49.998Z</time>
    </trkpt>
    <trkpt lat="42.156979" lon="2.532124">
        <ele>609.1</ele>
        <time>2019-09-03T18:29:53.998Z</time>
    </trkpt>
    <trkpt lat="42.156964" lon="2.532182">
        <ele>605.9</ele>
        <time>2019-09-03T18:29:56.998Z</time>
    </trkpt>
    <trkpt lat="42.157014" lon="2.532196">
        <ele>602.8</ele>
        <time>2019-09-03T18:30:11.998Z</time>
    </trkpt>
    <trkpt lat="42.157003" lon="2.532257">
        <ele>602.3</ele>
        <time>2019-09-03T18:30:15.998Z</time>
    </trkpt>
    <trkpt lat="42.157012" lon="2.532329">
        <ele>602.2</ele>
        <time>2019-09-03T18:30:18.998Z</time>
    </trkpt>
    <trkpt lat="42.157025" lon="2.532392">
        <ele>601.8</ele>
        <time>2019-09-03T18:30:21.998Z</time>
    </trkpt>
    <trkpt lat="42.157012" lon="2.532468">
        <ele>600.5</ele>
        <time>2019-09-03T18:30:25.998Z</time>
    </trkpt>
    <trkpt lat="42.156994" lon="2.532543">
        <ele>599.0</ele>
        <time>2019-09-03T18:30:29.998Z</time>
    </trkpt>
    <trkpt lat="42.156987" lon="2.532614">
        <ele>597.9</ele>
        <time>2019-09-03T18:30:33.998Z</time>
    </trkpt>
    <trkpt lat="42.156986" lon="2.532679">
        <ele>597.4</ele>
        <time>2019-09-03T18:30:36.998Z</time>
    </trkpt>
    <trkpt lat="42.15699" lon="2.532747">
        <ele>597.8</ele>
        <time>2019-09-03T18:30:39.998Z</time>
    </trkpt>
    <trkpt lat="42.156983" lon="2.532816">
        <ele>597.4</ele>
        <time>2019-09-03T18:30:42.998Z</time>
    </trkpt>
    <trkpt lat="42.156981" lon="2.532879">
        <ele>597.2</ele>
        <time>2019-09-03T18:30:44.998Z</time>
    </trkpt>
    <trkpt lat="42.156989" lon="2.532945">
        <ele>597.1</ele>
        <time>2019-09-03T18:30:47.998Z</time>
    </trkpt>
    <trkpt lat="42.156986" lon="2.533007">
        <ele>597.4</ele>
        <time>2019-09-03T18:30:50.998Z</time>
    </trkpt>
    <trkpt lat="42.156981" lon="2.533071">
        <ele>597.4</ele>
        <time>2019-09-03T18:30:53.998Z</time>
    </trkpt>
    <trkpt lat="42.15698" lon="2.533134">
        <ele>597.4</ele>
        <time>2019-09-03T18:30:56.998Z</time>
    </trkpt>
    <trkpt lat="42.156968" lon="2.533207">
        <ele>597.4</ele>
        <time>2019-09-03T18:31:00.998Z</time>
    </trkpt>
    <trkpt lat="42.156975" lon="2.533268">
        <ele>598.0</ele>
        <time>2019-09-03T18:31:03.998Z</time>
    </trkpt>
    <trkpt lat="42.156967" lon="2.533329">
        <ele>598.2</ele>
        <time>2019-09-03T18:31:06.998Z</time>
    </trkpt>
    <trkpt lat="42.156964" lon="2.533405">
        <ele>598.6</ele>
        <time>2019-09-03T18:31:10.998Z</time>
    </trkpt>
    <trkpt lat="42.156968" lon="2.533475">
        <ele>599.3</ele>
        <time>2019-09-03T18:31:13.998Z</time>
    </trkpt>
    <trkpt lat="42.15698" lon="2.533544">
        <ele>601.2</ele>
        <time>2019-09-03T18:31:16.998Z</time>
    </trkpt>
    <trkpt lat="42.157021" lon="2.533581">
        <ele>602.2</ele>
        <time>2019-09-03T18:31:19.998Z</time>
    </trkpt>
    <trkpt lat="42.157028" lon="2.533642">
        <ele>604.0</ele>
        <time>2019-09-03T18:31:22.998Z</time>
    </trkpt>
    <trkpt lat="42.157031" lon="2.533714">
        <ele>605.1</ele>
        <time>2019-09-03T18:31:25.998Z</time>
    </trkpt>
    <trkpt lat="42.157055" lon="2.533786">
        <ele>605.3</ele>
        <time>2019-09-03T18:31:28.998Z</time>
    </trkpt>
    <trkpt lat="42.157063" lon="2.533852">
        <ele>604.5</ele>
        <time>2019-09-03T18:31:31.998Z</time>
    </trkpt>
    <trkpt lat="42.157071" lon="2.533919">
        <ele>604.5</ele>
        <time>2019-09-03T18:31:34.998Z</time>
    </trkpt>
    <trkpt lat="42.157063" lon="2.533993">
        <ele>605.6</ele>
        <time>2019-09-03T18:31:38.998Z</time>
    </trkpt>
    <trkpt lat="42.157065" lon="2.534067">
        <ele>605.1</ele>
        <time>2019-09-03T18:31:42.998Z</time>
    </trkpt>
    <trkpt lat="42.157067" lon="2.53413">
        <ele>603.9</ele>
        <time>2019-09-03T18:31:45.998Z</time>
    </trkpt>
    <trkpt lat="42.157064" lon="2.534201">
        <ele>602.2</ele>
        <time>2019-09-03T18:31:48.998Z</time>
    </trkpt>
    <trkpt lat="42.157076" lon="2.534261">
        <ele>600.5</ele>
        <time>2019-09-03T18:31:51.998Z</time>
    </trkpt>
    <trkpt lat="42.157092" lon="2.534318">
        <ele>600.3</ele>
        <time>2019-09-03T18:31:54.998Z</time>
    </trkpt>
    <trkpt lat="42.15708" lon="2.534385">
        <ele>600.1</ele>
        <time>2019-09-03T18:31:57.998Z</time>
    </trkpt>
    <trkpt lat="42.157067" lon="2.534451">
        <ele>601.3</ele>
        <time>2019-09-03T18:32:00.998Z</time>
    </trkpt>
    <trkpt lat="42.157061" lon="2.534532">
        <ele>603.8</ele>
        <time>2019-09-03T18:32:04.998Z</time>
    </trkpt>
    <trkpt lat="42.157078" lon="2.534605">
        <ele>605.1</ele>
        <time>2019-09-03T18:32:08.998Z</time>
    </trkpt>
    <trkpt lat="42.157078" lon="2.534675">
        <ele>606.1</ele>
        <time>2019-09-03T18:32:11.998Z</time>
    </trkpt>
    <trkpt lat="42.15709" lon="2.534746">
        <ele>605.8</ele>
        <time>2019-09-03T18:32:15.998Z</time>
    </trkpt>
    <trkpt lat="42.157101" lon="2.534824">
        <ele>605.4</ele>
        <time>2019-09-03T18:32:19.998Z</time>
    </trkpt>
    <trkpt lat="42.157109" lon="2.534887">
        <ele>605.9</ele>
        <time>2019-09-03T18:32:22.998Z</time>
    </trkpt>
    <trkpt lat="42.157113" lon="2.534953">
        <ele>605.6</ele>
        <time>2019-09-03T18:32:25.998Z</time>
    </trkpt>
    <trkpt lat="42.157109" lon="2.535014">
        <ele>605.5</ele>
        <time>2019-09-03T18:32:28.998Z</time>
    </trkpt>
    <trkpt lat="42.157104" lon="2.535079">
        <ele>606.1</ele>
        <time>2019-09-03T18:32:31.998Z</time>
    </trkpt>
    <trkpt lat="42.157125" lon="2.535155">
        <ele>607.8</ele>
        <time>2019-09-03T18:32:35.998Z</time>
    </trkpt>
    <trkpt lat="42.157139" lon="2.535222">
        <ele>608.7</ele>
        <time>2019-09-03T18:32:39.998Z</time>
    </trkpt>
    <trkpt lat="42.157133" lon="2.535292">
        <ele>608.9</ele>
        <time>2019-09-03T18:32:42.998Z</time>
    </trkpt>
    <trkpt lat="42.15712" lon="2.535379">
        <ele>610.0</ele>
        <time>2019-09-03T18:32:46.998Z</time>
    </trkpt>
    <trkpt lat="42.157111" lon="2.535444">
        <ele>610.2</ele>
        <time>2019-09-03T18:32:49.998Z</time>
    </trkpt>
    <trkpt lat="42.157102" lon="2.535509">
        <ele>609.3</ele>
        <time>2019-09-03T18:32:51.998Z</time>
    </trkpt>
    <trkpt lat="42.157113" lon="2.535576">
        <ele>608.6</ele>
        <time>2019-09-03T18:32:54.998Z</time>
    </trkpt>
    <trkpt lat="42.157099" lon="2.535637">
        <ele>607.2</ele>
        <time>2019-09-03T18:32:58.998Z</time>
    </trkpt>
    <trkpt lat="42.157099" lon="2.535707">
        <ele>607.1</ele>
        <time>2019-09-03T18:33:01.998Z</time>
    </trkpt>
    <trkpt lat="42.157076" lon="2.535782">
        <ele>606.0</ele>
        <time>2019-09-03T18:33:05.998Z</time>
    </trkpt>
    <trkpt lat="42.157074" lon="2.535856">
        <ele>604.5</ele>
        <time>2019-09-03T18:33:09.998Z</time>
    </trkpt>
    <trkpt lat="42.157096" lon="2.535913">
        <ele>603.8</ele>
        <time>2019-09-03T18:33:12.998Z</time>
    </trkpt>
    <trkpt lat="42.1571" lon="2.535976">
        <ele>603.3</ele>
        <time>2019-09-03T18:33:15.998Z</time>
    </trkpt>
    <trkpt lat="42.157091" lon="2.536049">
        <ele>603.9</ele>
        <time>2019-09-03T18:33:20.998Z</time>
    </trkpt>
    <trkpt lat="42.157098" lon="2.536118">
        <ele>604.8</ele>
        <time>2019-09-03T18:33:24.998Z</time>
    </trkpt>
    <trkpt lat="42.157115" lon="2.536189">
        <ele>605.2</ele>
        <time>2019-09-03T18:33:28.998Z</time>
    </trkpt>
    <trkpt lat="42.157136" lon="2.536265">
        <ele>604.2</ele>
        <time>2019-09-03T18:33:31.998Z</time>
    </trkpt>
    <trkpt lat="42.157159" lon="2.536318">
        <ele>603.3</ele>
        <time>2019-09-03T18:33:33.998Z</time>
    </trkpt>
    <trkpt lat="42.157188" lon="2.536374">
        <ele>602.0</ele>
        <time>2019-09-03T18:33:37.998Z</time>
    </trkpt>
    <trkpt lat="42.157216" lon="2.536433">
        <ele>599.5</ele>
        <time>2019-09-03T18:33:42.998Z</time>
    </trkpt>
    <trkpt lat="42.157267" lon="2.536472">
        <ele>599.5</ele>
        <time>2019-09-03T18:33:45.998Z</time>
    </trkpt>
    <trkpt lat="42.157289" lon="2.53653">
        <ele>598.3</ele>
        <time>2019-09-03T18:33:48.998Z</time>
    </trkpt>
    <trkpt lat="42.157296" lon="2.53659">
        <ele>597.5</ele>
        <time>2019-09-03T18:33:51.998Z</time>
    </trkpt>
    <trkpt lat="42.157311" lon="2.53668">
        <ele>597.4</ele>
        <time>2019-09-03T18:33:54.998Z</time>
    </trkpt>
    <trkpt lat="42.157324" lon="2.536754">
        <ele>596.9</ele>
        <time>2019-09-03T18:33:57.998Z</time>
    </trkpt>
    <trkpt lat="42.157345" lon="2.536828">
        <ele>595.7</ele>
        <time>2019-09-03T18:34:00.998Z</time>
    </trkpt>
    <trkpt lat="42.157358" lon="2.536908">
        <ele>595.4</ele>
        <time>2019-09-03T18:34:04.998Z</time>
    </trkpt>
    <trkpt lat="42.157371" lon="2.53698">
        <ele>595.3</ele>
        <time>2019-09-03T18:34:09.998Z</time>
    </trkpt>
    <trkpt lat="42.157385" lon="2.537049">
        <ele>593.9</ele>
        <time>2019-09-03T18:34:13.998Z</time>
    </trkpt>
    <trkpt lat="42.157393" lon="2.537122">
        <ele>594.9</ele>
        <time>2019-09-03T18:34:17.998Z</time>
    </trkpt>
    <trkpt lat="42.157394" lon="2.537185">
        <ele>596.0</ele>
        <time>2019-09-03T18:34:21.998Z</time>
    </trkpt>
    <trkpt lat="42.15741" lon="2.537257">
        <ele>597.0</ele>
        <time>2019-09-03T18:34:26.998Z</time>
    </trkpt>
    <trkpt lat="42.157418" lon="2.537322">
        <ele>598.6</ele>
        <time>2019-09-03T18:34:29.998Z</time>
    </trkpt>
    <trkpt lat="42.157406" lon="2.537403">
        <ele>600.8</ele>
        <time>2019-09-03T18:34:32.998Z</time>
    </trkpt>
    <trkpt lat="42.157422" lon="2.537483">
        <ele>601.2</ele>
        <time>2019-09-03T18:34:35.998Z</time>
    </trkpt>
    <trkpt lat="42.157439" lon="2.537557">
        <ele>600.9</ele>
        <time>2019-09-03T18:34:38.998Z</time>
    </trkpt>
    <trkpt lat="42.157437" lon="2.53763">
        <ele>600.6</ele>
        <time>2019-09-03T18:34:41.998Z</time>
    </trkpt>
    <trkpt lat="42.15743" lon="2.537722">
        <ele>600.3</ele>
        <time>2019-09-03T18:34:44.998Z</time>
    </trkpt>
    <trkpt lat="42.157426" lon="2.537805">
        <ele>601.6</ele>
        <time>2019-09-03T18:34:47.998Z</time>
    </trkpt>
    <trkpt lat="42.157439" lon="2.537864">
        <ele>600.4</ele>
        <time>2019-09-03T18:34:50.998Z</time>
    </trkpt>
    <trkpt lat="42.157451" lon="2.537926">
        <ele>600.3</ele>
        <time>2019-09-03T18:34:53.998Z</time>
    </trkpt>
    <trkpt lat="42.15747" lon="2.538011">
        <ele>601.7</ele>
        <time>2019-09-03T18:34:58.998Z</time>
    </trkpt>
    <trkpt lat="42.157476" lon="2.538089">
        <ele>602.0</ele>
        <time>2019-09-03T18:35:02.998Z</time>
    </trkpt>
    <trkpt lat="42.157498" lon="2.538154">
        <ele>604.0</ele>
        <time>2019-09-03T18:35:06.998Z</time>
    </trkpt>
    <trkpt lat="42.157494" lon="2.538223">
        <ele>605.1</ele>
        <time>2019-09-03T18:35:10.998Z</time>
    </trkpt>
    <trkpt lat="42.157502" lon="2.538302">
        <ele>606.2</ele>
        <time>2019-09-03T18:35:13.998Z</time>
    </trkpt>
    <trkpt lat="42.157512" lon="2.538375">
        <ele>606.3</ele>
        <time>2019-09-03T18:35:16.998Z</time>
    </trkpt>
    <trkpt lat="42.157532" lon="2.538447">
        <ele>605.6</ele>
        <time>2019-09-03T18:35:19.998Z</time>
    </trkpt>
    <trkpt lat="42.157541" lon="2.53852">
        <ele>605.3</ele>
        <time>2019-09-03T18:35:22.998Z</time>
    </trkpt>
    <trkpt lat="42.15755" lon="2.538597">
        <ele>604.7</ele>
        <time>2019-09-03T18:35:26.998Z</time>
    </trkpt>
    <trkpt lat="42.157546" lon="2.538659">
        <ele>603.8</ele>
        <time>2019-09-03T18:35:29.998Z</time>
    </trkpt>
    <trkpt lat="42.157541" lon="2.538725">
        <ele>605.5</ele>
        <time>2019-09-03T18:35:33.998Z</time>
    </trkpt>
    <trkpt lat="42.15755" lon="2.538787">
        <ele>605.6</ele>
        <time>2019-09-03T18:35:36.998Z</time>
    </trkpt>
    <trkpt lat="42.157554" lon="2.538864">
        <ele>606.0</ele>
        <time>2019-09-03T18:35:39.998Z</time>
    </trkpt>
    <trkpt lat="42.157571" lon="2.538931">
        <ele>605.9</ele>
        <time>2019-09-03T18:35:42.998Z</time>
    </trkpt>
    <trkpt lat="42.15756" lon="2.539014">
        <ele>605.1</ele>
        <time>2019-09-03T18:35:46.998Z</time>
    </trkpt>
    <trkpt lat="42.157538" lon="2.539085">
        <ele>605.8</ele>
        <time>2019-09-03T18:35:50.998Z</time>
    </trkpt>
    <trkpt lat="42.157531" lon="2.539161">
        <ele>609.0</ele>
        <time>2019-09-03T18:35:55.998Z</time>
    </trkpt>
    <trkpt lat="42.157525" lon="2.539231">
        <ele>609.8</ele>
        <time>2019-09-03T18:35:59.998Z</time>
    </trkpt>
    <trkpt lat="42.157508" lon="2.539295">
        <ele>611.7</ele>
        <time>2019-09-03T18:36:02.998Z</time>
    </trkpt>
    <trkpt lat="42.157486" lon="2.53936">
        <ele>613.5</ele>
        <time>2019-09-03T18:36:05.998Z</time>
    </trkpt>
    <trkpt lat="42.157475" lon="2.53942">
        <ele>613.1</ele>
        <time>2019-09-03T18:36:07.998Z</time>
    </trkpt>
    <trkpt lat="42.15746" lon="2.539494">
        <ele>612.4</ele>
        <time>2019-09-03T18:36:09.998Z</time>
    </trkpt>
    <trkpt lat="42.157445" lon="2.53957">
        <ele>610.1</ele>
        <time>2019-09-03T18:36:12.998Z</time>
    </trkpt>
    <trkpt lat="42.157425" lon="2.53963">
        <ele>608.9</ele>
        <time>2019-09-03T18:36:16.998Z</time>
    </trkpt>
    <trkpt lat="42.157406" lon="2.539696">
        <ele>608.3</ele>
        <time>2019-09-03T18:36:19.998Z</time>
    </trkpt>
    <trkpt lat="42.157386" lon="2.539768">
        <ele>608.0</ele>
        <time>2019-09-03T18:36:23.998Z</time>
    </trkpt>
    <trkpt lat="42.157356" lon="2.539836">
        <ele>606.7</ele>
        <time>2019-09-03T18:36:27.998Z</time>
    </trkpt>
    <trkpt lat="42.157328" lon="2.539889">
        <ele>605.8</ele>
        <time>2019-09-03T18:36:30.998Z</time>
    </trkpt>
    <trkpt lat="42.1573" lon="2.539944">
        <ele>606.2</ele>
        <time>2019-09-03T18:36:33.998Z</time>
    </trkpt>
    <trkpt lat="42.157279" lon="2.540005">
        <ele>605.1</ele>
        <time>2019-09-03T18:36:36.998Z</time>
    </trkpt>
    <trkpt lat="42.157273" lon="2.540068">
        <ele>605.3</ele>
        <time>2019-09-03T18:36:39.998Z</time>
    </trkpt>
    <trkpt lat="42.157272" lon="2.540138">
        <ele>604.7</ele>
        <time>2019-09-03T18:36:42.998Z</time>
    </trkpt>
    <trkpt lat="42.157268" lon="2.540213">
        <ele>603.2</ele>
        <time>2019-09-03T18:36:46.998Z</time>
    </trkpt>
    <trkpt lat="42.157237" lon="2.540269">
        <ele>602.6</ele>
        <time>2019-09-03T18:36:49.998Z</time>
    </trkpt>
    <trkpt lat="42.157232" lon="2.540337">
        <ele>602.4</ele>
        <time>2019-09-03T18:36:52.998Z</time>
    </trkpt>
    <trkpt lat="42.15722" lon="2.540407">
        <ele>601.2</ele>
        <time>2019-09-03T18:36:55.998Z</time>
    </trkpt>
    <trkpt lat="42.157213" lon="2.540484">
        <ele>600.6</ele>
        <time>2019-09-03T18:36:59.998Z</time>
    </trkpt>
    <trkpt lat="42.157201" lon="2.540547">
        <ele>601.0</ele>
        <time>2019-09-03T18:37:02.998Z</time>
    </trkpt>
    <trkpt lat="42.157181" lon="2.540616">
        <ele>600.4</ele>
        <time>2019-09-03T18:37:06.998Z</time>
    </trkpt>
    <trkpt lat="42.157161" lon="2.540681">
        <ele>599.4</ele>
        <time>2019-09-03T18:37:10.998Z</time>
    </trkpt>
    <trkpt lat="42.157161" lon="2.540742">
        <ele>600.2</ele>
        <time>2019-09-03T18:37:13.998Z</time>
    </trkpt>
    <trkpt lat="42.157142" lon="2.540803">
        <ele>601.1</ele>
        <time>2019-09-03T18:37:16.998Z</time>
    </trkpt>
    <trkpt lat="42.157111" lon="2.540857">
        <ele>601.7</ele>
        <time>2019-09-03T18:37:19.998Z</time>
    </trkpt>
    <trkpt lat="42.157085" lon="2.540922">
        <ele>602.8</ele>
        <time>2019-09-03T18:37:22.998Z</time>
    </trkpt>
    <trkpt lat="42.157064" lon="2.540994">
        <ele>604.8</ele>
        <time>2019-09-03T18:37:25.998Z</time>
    </trkpt>
    <trkpt lat="42.15704" lon="2.54105">
        <ele>605.2</ele>
        <time>2019-09-03T18:37:28.998Z</time>
    </trkpt>
    <trkpt lat="42.157026" lon="2.541108">
        <ele>605.2</ele>
        <time>2019-09-03T18:37:31.998Z</time>
    </trkpt>
    <trkpt lat="42.156992" lon="2.541161">
        <ele>605.2</ele>
        <time>2019-09-03T18:37:35.998Z</time>
    </trkpt>
    <trkpt lat="42.15697" lon="2.541215">
        <ele>605.3</ele>
        <time>2019-09-03T18:37:39.998Z</time>
    </trkpt>
    <trkpt lat="42.15694" lon="2.541275">
        <ele>604.8</ele>
        <time>2019-09-03T18:37:43.998Z</time>
    </trkpt>
    <trkpt lat="42.156919" lon="2.541339">
        <ele>604.0</ele>
        <time>2019-09-03T18:37:46.998Z</time>
    </trkpt>
    <trkpt lat="42.156892" lon="2.541395">
        <ele>602.6</ele>
        <time>2019-09-03T18:37:49.998Z</time>
    </trkpt>
    <trkpt lat="42.156867" lon="2.541451">
        <ele>602.9</ele>
        <time>2019-09-03T18:37:52.998Z</time>
    </trkpt>
    <trkpt lat="42.156839" lon="2.5415">
        <ele>603.5</ele>
        <time>2019-09-03T18:37:55.998Z</time>
    </trkpt>
    <trkpt lat="42.156811" lon="2.541548">
        <ele>603.9</ele>
        <time>2019-09-03T18:37:58.998Z</time>
    </trkpt>
    <trkpt lat="42.156791" lon="2.541604">
        <ele>604.9</ele>
        <time>2019-09-03T18:38:01.998Z</time>
    </trkpt>
    <trkpt lat="42.156764" lon="2.541663">
        <ele>606.2</ele>
        <time>2019-09-03T18:38:04.998Z</time>
    </trkpt>
    <trkpt lat="42.156737" lon="2.541718">
        <ele>606.8</ele>
        <time>2019-09-03T18:38:07.998Z</time>
    </trkpt>
    <trkpt lat="42.156712" lon="2.541772">
        <ele>606.7</ele>
        <time>2019-09-03T18:38:10.998Z</time>
    </trkpt>
    <trkpt lat="42.156677" lon="2.541828">
        <ele>607.5</ele>
        <time>2019-09-03T18:38:13.998Z</time>
    </trkpt>
    <trkpt lat="42.15664" lon="2.541878">
        <ele>607.0</ele>
        <time>2019-09-03T18:38:16.998Z</time>
    </trkpt>
    <trkpt lat="42.156597" lon="2.541932">
        <ele>606.2</ele>
        <time>2019-09-03T18:38:20.998Z</time>
    </trkpt>
    <trkpt lat="42.156561" lon="2.541981">
        <ele>605.6</ele>
        <time>2019-09-03T18:38:23.998Z</time>
    </trkpt>
    <trkpt lat="42.156523" lon="2.542031">
        <ele>605.4</ele>
        <time>2019-09-03T18:38:26.998Z</time>
    </trkpt>
    <trkpt lat="42.156491" lon="2.542078">
        <ele>605.5</ele>
        <time>2019-09-03T18:38:29.998Z</time>
    </trkpt>
    <trkpt lat="42.156451" lon="2.542137">
        <ele>604.5</ele>
        <time>2019-09-03T18:38:33.998Z</time>
    </trkpt>
    <trkpt lat="42.156406" lon="2.542159">
        <ele>602.0</ele>
        <time>2019-09-03T18:38:36.998Z</time>
    </trkpt>
    <trkpt lat="42.156358" lon="2.542191">
        <ele>599.8</ele>
        <time>2019-09-03T18:38:38.998Z</time>
    </trkpt>
    <trkpt lat="42.156308" lon="2.542242">
        <ele>598.9</ele>
        <time>2019-09-03T18:38:43.998Z</time>
    </trkpt>
    <trkpt lat="42.156277" lon="2.542297">
        <ele>598.8</ele>
        <time>2019-09-03T18:38:46.998Z</time>
    </trkpt>
    <trkpt lat="42.156229" lon="2.542338">
        <ele>598.8</ele>
        <time>2019-09-03T18:38:49.998Z</time>
    </trkpt>
    <trkpt lat="42.156194" lon="2.542386">
        <ele>599.1</ele>
        <time>2019-09-03T18:38:53.998Z</time>
    </trkpt>
    <trkpt lat="42.156159" lon="2.542443">
        <ele>599.1</ele>
        <time>2019-09-03T18:38:57.998Z</time>
    </trkpt>
    <trkpt lat="42.156112" lon="2.542486">
        <ele>598.5</ele>
        <time>2019-09-03T18:39:01.998Z</time>
    </trkpt>
    <trkpt lat="42.156068" lon="2.542516">
        <ele>598.9</ele>
        <time>2019-09-03T18:39:04.998Z</time>
    </trkpt>
    <trkpt lat="42.156031" lon="2.542557">
        <ele>599.4</ele>
        <time>2019-09-03T18:39:07.998Z</time>
    </trkpt>
    <trkpt lat="42.156007" lon="2.542615">
        <ele>601.5</ele>
        <time>2019-09-03T18:39:24.998Z</time>
    </trkpt>
    <trkpt lat="42.155979" lon="2.542693">
        <ele>603.3</ele>
        <time>2019-09-03T18:39:29.998Z</time>
    </trkpt>
    <trkpt lat="42.155919" lon="2.542702">
        <ele>611.5</ele>
        <time>2019-09-03T18:39:34.313Z</time>
        <extensions>
        <gpxtpx:TrackPointExtension>
        <gpxtpx:Extensions>
            <surface>gravel</surface>
        </gpxtpx:Extensions>
        </gpxtpx:TrackPointExtension>
        </extensions>
    </trkpt>
    <trkpt lat="42.15555" lon="2.543093">
        <ele>609.0</ele>
        <time>2019-09-03T18:40:07.855Z</time>
        <extensions>
        <gpxtpx:TrackPointExtension>
        <gpxtpx:Extensions>
            <surface>gravel</surface>
        </gpxtpx:Extensions>
        </gpxtpx:TrackPointExtension>
        </extensions>
    </trkpt>
    <trkpt lat="42.155546" lon="2.543166">
        <ele>608.3</ele>
        <time>2019-09-03T18:40:11.733Z</time>
        <extensions>
        <gpxtpx:TrackPointExtension>
        <gpxtpx:Extensions>
            <surface>gravel</surface>
        </gpxtpx:Extensions>
        </gpxtpx:TrackPointExtension>
        </extensions>
    </trkpt>
    <trkpt lat="42.155531" lon="2.543249">
        <ele>607.3</ele>
        <time>2019-09-03T18:40:16.260Z</time>
        <extensions>
        <gpxtpx:TrackPointExtension>
        <gpxtpx:Extensions>
            <surface>gravel</surface>
        </gpxtpx:Extensions>
        </gpxtpx:TrackPointExtension>
        </extensions>
    </trkpt>
    <trkpt lat="42.15553" lon="2.543252">
        <ele>607.0</ele>
        <time>2019-09-03T18:40:16.434Z</time>
        <extensions>
        <gpxtpx:TrackPointExtension>
        <gpxtpx:Extensions>
            <surface>gravel</surface>
        </gpxtpx:Extensions>
        </gpxtpx:TrackPointExtension>
        </extensions>
    </trkpt>
    <trkpt lat="42.15553" lon="2.54325">
        <ele>607.3</ele>
        <time>2019-09-03T17:46:58.993Z</time>
        <extensions>
        <gpxtpx:TrackPointExtension>
        <gpxtpx:Extensions>
            <surface>gravel</surface>
        </gpxtpx:Extensions>
        </gpxtpx:TrackPointExtension>
        </extensions>
    </trkpt>
    <trkpt lat="42.155527" lon="2.543346">
        <ele>606.3</ele>
        <time>2019-09-03T17:47:03.950Z</time>
        <extensions>
        <gpxtpx:TrackPointExtension>
        <gpxtpx:Extensions>
            <surface>gravel</surface>
        </gpxtpx:Extensions>
        </gpxtpx:TrackPointExtension>
        </extensions>
    </trkpt>
    <trkpt lat="42.155297" lon="2.543375">
        <ele>606.5</ele>
        <time>2019-09-03T17:47:20.028Z</time>
        <extensions>
        <gpxtpx:TrackPointExtension>
        <gpxtpx:Extensions>
            <surface>asphalt</surface>
        </gpxtpx:Extensions>
        </gpxtpx:TrackPointExtension>
        </extensions>
    </trkpt>
    <trkpt lat="42.155139" lon="2.543366">
        <ele>606.5</ele>
        <time>2019-09-03T17:47:31.034Z</time>
        <extensions>
        <gpxtpx:TrackPointExtension>
        <gpxtpx:Extensions>
            <surface>asphalt</surface>
        </gpxtpx:Extensions>
        </gpxtpx:TrackPointExtension>
        </extensions>
    </trkpt>
    <trkpt lat="42.154469" lon="2.543206">
        <ele>609.0</ele>
        <time>2019-09-03T17:48:18.392Z</time>
        <extensions>
        <gpxtpx:TrackPointExtension>
        <gpxtpx:Extensions>
            <surface>asphalt</surface>
        </gpxtpx:Extensions>
        </gpxtpx:TrackPointExtension>
        </extensions>
    </trkpt>
    <trkpt lat="42.154159" lon="2.543085">
        <ele>610.5</ele>
        <time>2019-09-03T17:48:40.853Z</time>
        <extensions>
        <gpxtpx:TrackPointExtension>
        <gpxtpx:Extensions>
            <surface>asphalt</surface>
        </gpxtpx:Extensions>
        </gpxtpx:TrackPointExtension>
        </extensions>
    </trkpt>
    <trkpt lat="42.153911" lon="2.543011">
        <ele>610.3</ele>
        <time>2019-09-03T17:48:58.531Z</time>
        <extensions>
        <gpxtpx:TrackPointExtension>
        <gpxtpx:Extensions>
            <surface>asphalt</surface>
        </gpxtpx:Extensions>
        </gpxtpx:TrackPointExtension>
        </extensions>
    </trkpt>
    <trkpt lat="42.153729" lon="2.542946">
        <ele>610.3</ele>
        <time>2019-09-03T17:49:11.634Z</time>
        <extensions>
        <gpxtpx:TrackPointExtension>
        <gpxtpx:Extensions>
            <surface>asphalt</surface>
        </gpxtpx:Extensions>
        </gpxtpx:TrackPointExtension>
        </extensions>
    </trkpt>
    <trkpt lat="42.153551" lon="2.54286">
        <ele>610.8</ele>
        <time>2019-09-03T17:49:24.793Z</time>
        <extensions>
        <gpxtpx:TrackPointExtension>
        <gpxtpx:Extensions>
            <surface>asphalt</surface>
        </gpxtpx:Extensions>
        </gpxtpx:TrackPointExtension>
        </extensions>
    </trkpt>
    <trkpt lat="42.153348" lon="2.542734">
        <ele>611.5</ele>
        <time>2019-09-03T17:49:40.346Z</time>
        <extensions>
        <gpxtpx:TrackPointExtension>
        <gpxtpx:Extensions>
            <surface>asphalt</surface>
        </gpxtpx:Extensions>
        </gpxtpx:TrackPointExtension>
        </extensions>
    </trkpt>
    <trkpt lat="42.153087" lon="2.542609">
        <ele>615.3</ele>
        <time>2019-09-03T17:49:59.623Z</time>
        <extensions>
        <gpxtpx:TrackPointExtension>
        <gpxtpx:Extensions>
            <surface>asphalt</surface>
        </gpxtpx:Extensions>
        </gpxtpx:TrackPointExtension>
        </extensions>
    </trkpt>
    <trkpt lat="42.152846" lon="2.542511">
        <ele>617.8</ele>
        <time>2019-09-03T17:50:17.142Z</time>
        <extensions>
        <gpxtpx:TrackPointExtension>
        <gpxtpx:Extensions>
            <surface>asphalt</surface>
        </gpxtpx:Extensions>
        </gpxtpx:TrackPointExtension>
        </extensions>
    </trkpt>
    <trkpt lat="42.152656" lon="2.542451">
        <ele>619.0</ele>
        <time>2019-09-03T17:50:30.723Z</time>
        <extensions>
        <gpxtpx:TrackPointExtension>
        <gpxtpx:Extensions>
            <surface>asphalt</surface>
        </gpxtpx:Extensions>
        </gpxtpx:TrackPointExtension>
        </extensions>
    </trkpt>
    <trkpt lat="42.152657" lon="2.54231">
        <ele>616.5</ele>
        <time>2019-09-03T17:50:37.998Z</time>
    </trkpt>
    <trkpt lat="42.152644" lon="2.542241">
        <ele>615.9</ele>
        <time>2019-09-03T17:50:40.998Z</time>
    </trkpt>
    <trkpt lat="42.152638" lon="2.542171">
        <ele>615.5</ele>
        <time>2019-09-03T17:50:43.998Z</time>
    </trkpt>
    <trkpt lat="42.152641" lon="2.542098">
        <ele>615.6</ele>
        <time>2019-09-03T17:50:46.998Z</time>
    </trkpt>
    <trkpt lat="42.152639" lon="2.542025">
        <ele>616.4</ele>
        <time>2019-09-03T17:50:51.998Z</time>
    </trkpt>
    <trkpt lat="42.152645" lon="2.54192">
        <ele>617.2</ele>
        <time>2019-09-03T17:51:03.998Z</time>
    </trkpt>
    <trkpt lat="42.15264" lon="2.541848">
        <ele>617.8</ele>
        <time>2019-09-03T17:51:07.998Z</time>
    </trkpt>
    <trkpt lat="42.152659" lon="2.54179">
        <ele>617.3</ele>
        <time>2019-09-03T17:51:10.998Z</time>
    </trkpt>
    <trkpt lat="42.152689" lon="2.541744">
        <ele>617.5</ele>
        <time>2019-09-03T17:51:15.998Z</time>
    </trkpt>
    <trkpt lat="42.152712" lon="2.541676">
        <ele>618.3</ele>
        <time>2019-09-03T17:51:19.998Z</time>
    </trkpt>
    <trkpt lat="42.152713" lon="2.541605">
        <ele>618.9</ele>
        <time>2019-09-03T17:51:25.998Z</time>
    </trkpt>
    <trkpt lat="42.15272" lon="2.541542">
        <ele>620.5</ele>
        <time>2019-09-03T17:51:30.998Z</time>
    </trkpt>
    <trkpt lat="42.152722" lon="2.541473">
        <ele>622.0</ele>
        <time>2019-09-03T17:51:34.998Z</time>
    </trkpt>
    <trkpt lat="42.152739" lon="2.541402">
        <ele>622.5</ele>
        <time>2019-09-03T17:51:37.998Z</time>
    </trkpt>
    <trkpt lat="42.15275" lon="2.541322">
        <ele>622.7</ele>
        <time>2019-09-03T17:51:40.998Z</time>
    </trkpt>
    <trkpt lat="42.152759" lon="2.541262">
        <ele>625.0</ele>
        <time>2019-09-03T17:51:43.998Z</time>
    </trkpt>
    <trkpt lat="42.152773" lon="2.541194">
        <ele>626.1</ele>
        <time>2019-09-03T17:51:46.998Z</time>
    </trkpt>
    <trkpt lat="42.152791" lon="2.54112">
        <ele>626.6</ele>
        <time>2019-09-03T17:51:49.998Z</time>
    </trkpt>
    <trkpt lat="42.152799" lon="2.541042">
        <ele>626.8</ele>
        <time>2019-09-03T17:51:53.998Z</time>
    </trkpt>
    <trkpt lat="42.152806" lon="2.540979">
        <ele>627.2</ele>
        <time>2019-09-03T17:51:56.998Z</time>
    </trkpt>
    <trkpt lat="42.152798" lon="2.54091">
        <ele>626.6</ele>
        <time>2019-09-03T17:51:59.998Z</time>
    </trkpt>
    <trkpt lat="42.152795" lon="2.540849">
        <ele>627.5</ele>
        <time>2019-09-03T17:52:01.998Z</time>
    </trkpt>
    <trkpt lat="42.152826" lon="2.540771">
        <ele>627.6</ele>
        <time>2019-09-03T17:52:03.998Z</time>
    </trkpt>
    <trkpt lat="42.152825" lon="2.540685">
        <ele>628.7</ele>
        <time>2019-09-03T17:52:06.998Z</time>
    </trkpt>
    <trkpt lat="42.152817" lon="2.540625">
        <ele>629.6</ele>
        <time>2019-09-03T17:52:09.998Z</time>
    </trkpt>
    <trkpt lat="42.152822" lon="2.540541">
        <ele>630.7</ele>
        <time>2019-09-03T17:52:12.998Z</time>
    </trkpt>
    <trkpt lat="42.152814" lon="2.540479">
        <ele>631.0</ele>
        <time>2019-09-03T17:52:15.998Z</time>
    </trkpt>
    <trkpt lat="42.152822" lon="2.540414">
        <ele>632.0</ele>
        <time>2019-09-03T17:52:19.998Z</time>
    </trkpt>
    <trkpt lat="42.152832" lon="2.540348">
        <ele>632.5</ele>
        <time>2019-09-03T17:52:23.998Z</time>
    </trkpt>
    <trkpt lat="42.152839" lon="2.540274">
        <ele>632.0</ele>
        <time>2019-09-03T17:52:29.998Z</time>
    </trkpt>
    <trkpt lat="42.152848" lon="2.540205">
        <ele>631.9</ele>
        <time>2019-09-03T17:52:34.998Z</time>
    </trkpt>
    <trkpt lat="42.152854" lon="2.540129">
        <ele>631.5</ele>
        <time>2019-09-03T17:52:37.998Z</time>
    </trkpt>
    <trkpt lat="42.152869" lon="2.540071">
        <ele>630.8</ele>
        <time>2019-09-03T17:52:39.998Z</time>
    </trkpt>
    <trkpt lat="42.152878" lon="2.539984">
        <ele>630.3</ele>
        <time>2019-09-03T17:52:42.998Z</time>
    </trkpt>
    <trkpt lat="42.152883" lon="2.539921">
        <ele>630.1</ele>
        <time>2019-09-03T17:52:44.998Z</time>
    </trkpt>
    <trkpt lat="42.152877" lon="2.539838">
        <ele>629.4</ele>
        <time>2019-09-03T17:52:47.998Z</time>
    </trkpt>
    <trkpt lat="42.152878" lon="2.539766">
        <ele>629.2</ele>
        <time>2019-09-03T17:52:52.998Z</time>
    </trkpt>
    <trkpt lat="42.152917" lon="2.539684">
        <ele>626.5</ele>
        <time>2019-09-03T17:52:56.998Z</time>
    </trkpt>
    <trkpt lat="42.152937" lon="2.539623">
        <ele>624.4</ele>
        <time>2019-09-03T17:52:59.998Z</time>
    </trkpt>
    <trkpt lat="42.15294" lon="2.53956">
        <ele>622.5</ele>
        <time>2019-09-03T17:53:02.998Z</time>
    </trkpt>
    <trkpt lat="42.152917" lon="2.539497">
        <ele>622.6</ele>
        <time>2019-09-03T17:53:06.998Z</time>
    </trkpt>
    <trkpt lat="42.152892" lon="2.539441">
        <ele>623.5</ele>
        <time>2019-09-03T17:53:10.998Z</time>
    </trkpt>
    <trkpt lat="42.152834" lon="2.539409">
        <ele>625.1</ele>
        <time>2019-09-03T17:53:13.998Z</time>
    </trkpt>
    <trkpt lat="42.152784" lon="2.539394">
        <ele>628.9</ele>
        <time>2019-09-03T17:53:15.998Z</time>
    </trkpt>
    <trkpt lat="42.152742" lon="2.539353">
        <ele>632.9</ele>
        <time>2019-09-03T17:53:18.998Z</time>
    </trkpt>
    <trkpt lat="42.152723" lon="2.539295">
        <ele>634.6</ele>
        <time>2019-09-03T17:53:24.998Z</time>
    </trkpt>
    <trkpt lat="42.152682" lon="2.539261">
        <ele>635.4</ele>
        <time>2019-09-03T17:53:28.998Z</time>
    </trkpt>
    <trkpt lat="42.152638" lon="2.539209">
        <ele>636.0</ele>
        <time>2019-09-03T17:53:33.998Z</time>
    </trkpt>
    <trkpt lat="42.152592" lon="2.539189">
        <ele>640.1</ele>
        <time>2019-09-03T17:53:36.998Z</time>
    </trkpt>
    <trkpt lat="42.152531" lon="2.539159">
        <ele>644.0</ele>
        <time>2019-09-03T17:53:40.998Z</time>
    </trkpt>
    <trkpt lat="42.152479" lon="2.539121">
        <ele>648.1</ele>
        <time>2019-09-03T17:53:43.998Z</time>
    </trkpt>
    <trkpt lat="42.152422" lon="2.539088">
        <ele>652.0</ele>
        <time>2019-09-03T17:53:48.998Z</time>
    </trkpt>
    <trkpt lat="42.152383" lon="2.539056">
        <ele>656.0</ele>
        <time>2019-09-03T17:53:52.998Z</time>
    </trkpt>
    <trkpt lat="42.152331" lon="2.539033">
        <ele>655.9</ele>
        <time>2019-09-03T17:53:58.998Z</time>
    </trkpt>
    <trkpt lat="42.152279" lon="2.539005">
        <ele>655.5</ele>
        <time>2019-09-03T17:54:03.998Z</time>
    </trkpt>
    <trkpt lat="42.152233" lon="2.538963">
        <ele>654.3</ele>
        <time>2019-09-03T17:54:07.998Z</time>
    </trkpt>
    <trkpt lat="42.152191" lon="2.53893">
        <ele>654.3</ele>
        <time>2019-09-03T17:54:10.998Z</time>
    </trkpt>
    <trkpt lat="42.152154" lon="2.538892">
        <ele>653.1</ele>
        <time>2019-09-03T17:54:13.998Z</time>
    </trkpt>
    <trkpt lat="42.152091" lon="2.538853">
        <ele>652.2</ele>
        <time>2019-09-03T17:54:16.998Z</time>
    </trkpt>
    <trkpt lat="42.152035" lon="2.538821">
        <ele>652.1</ele>
        <time>2019-09-03T17:54:20.998Z</time>
    </trkpt>
    <trkpt lat="42.151981" lon="2.538801">
        <ele>650.5</ele>
        <time>2019-09-03T17:54:25.998Z</time>
    </trkpt>
    <trkpt lat="42.151922" lon="2.538798">
        <ele>650.1</ele>
        <time>2019-09-03T17:54:33.998Z</time>
    </trkpt>
    <trkpt lat="42.151877" lon="2.538783">
        <ele>649.3</ele>
        <time>2019-09-03T17:54:36.998Z</time>
    </trkpt>
    <trkpt lat="42.151831" lon="2.53876">
        <ele>649.1</ele>
        <time>2019-09-03T17:54:38.998Z</time>
    </trkpt>
    <trkpt lat="42.151785" lon="2.538737">
        <ele>649.0</ele>
        <time>2019-09-03T17:54:41.998Z</time>
    </trkpt>
    <trkpt lat="42.151742" lon="2.538692">
        <ele>649.5</ele>
        <time>2019-09-03T17:54:45.998Z</time>
    </trkpt>
    <trkpt lat="42.151715" lon="2.538637">
        <ele>648.3</ele>
        <time>2019-09-03T17:54:49.998Z</time>
    </trkpt>
    <trkpt lat="42.151676" lon="2.538588">
        <ele>646.9</ele>
        <time>2019-09-03T17:54:54.998Z</time>
    </trkpt>
    <trkpt lat="42.151632" lon="2.538563">
        <ele>645.3</ele>
        <time>2019-09-03T17:54:59.998Z</time>
    </trkpt>
    <trkpt lat="42.151585" lon="2.538545">
        <ele>644.0</ele>
        <time>2019-09-03T17:55:02.998Z</time>
    </trkpt>
    <trkpt lat="42.151542" lon="2.538513">
        <ele>642.3</ele>
        <time>2019-09-03T17:55:06.998Z</time>
    </trkpt>
    <trkpt lat="42.151487" lon="2.53849">
        <ele>639.6</ele>
        <time>2019-09-03T17:55:10.998Z</time>
    </trkpt>
    <trkpt lat="42.151437" lon="2.538462">
        <ele>637.2</ele>
        <time>2019-09-03T17:55:14.998Z</time>
    </trkpt>
    <trkpt lat="42.151396" lon="2.538423">
        <ele>634.9</ele>
        <time>2019-09-03T17:55:19.998Z</time>
    </trkpt>
    <trkpt lat="42.15137" lon="2.538367">
        <ele>634.6</ele>
        <time>2019-09-03T17:55:23.998Z</time>
    </trkpt>
    <trkpt lat="42.151335" lon="2.538319">
        <ele>635.4</ele>
        <time>2019-09-03T17:55:26.998Z</time>
    </trkpt>
    <trkpt lat="42.151286" lon="2.538269">
        <ele>634.7</ele>
        <time>2019-09-03T17:55:30.998Z</time>
    </trkpt>
    <trkpt lat="42.151269" lon="2.538211">
        <ele>634.3</ele>
        <time>2019-09-03T17:55:36.998Z</time>
    </trkpt>
    <trkpt lat="42.151267" lon="2.538144">
        <ele>633.4</ele>
        <time>2019-09-03T17:55:40.998Z</time>
    </trkpt>
    <trkpt lat="42.151235" lon="2.538094">
        <ele>632.5</ele>
        <time>2019-09-03T17:55:43.998Z</time>
    </trkpt>
    <trkpt lat="42.151204" lon="2.53803">
        <ele>631.9</ele>
        <time>2019-09-03T17:55:47.998Z</time>
    </trkpt>
    <trkpt lat="42.151163" lon="2.537966">
        <ele>630.7</ele>
        <time>2019-09-03T17:55:51.998Z</time>
    </trkpt>
    <trkpt lat="42.151146" lon="2.537909">
        <ele>629.6</ele>
        <time>2019-09-03T17:55:54.998Z</time>
    </trkpt>
    <trkpt lat="42.151113" lon="2.537849">
        <ele>629.6</ele>
        <time>2019-09-03T17:55:57.998Z</time>
    </trkpt>
    <trkpt lat="42.151075" lon="2.537796">
        <ele>629.6</ele>
        <time>2019-09-03T17:56:00.998Z</time>
    </trkpt>
    <trkpt lat="42.151006" lon="2.53775">
        <ele>630.2</ele>
        <time>2019-09-03T17:56:03.998Z</time>
    </trkpt>
    <trkpt lat="42.15096" lon="2.5377">
        <ele>630.6</ele>
        <time>2019-09-03T17:56:07.998Z</time>
    </trkpt>
    <trkpt lat="42.150932" lon="2.537647">
        <ele>631.2</ele>
        <time>2019-09-03T17:56:10.998Z</time>
    </trkpt>
    <trkpt lat="42.150895" lon="2.537597">
        <ele>631.6</ele>
        <time>2019-09-03T17:56:12.998Z</time>
    </trkpt>
    <trkpt lat="42.150839" lon="2.537541">
        <ele>631.7</ele>
        <time>2019-09-03T17:56:14.998Z</time>
    </trkpt>
    <trkpt lat="42.150801" lon="2.537478">
        <ele>631.0</ele>
        <time>2019-09-03T17:56:18.998Z</time>
    </trkpt>
    <trkpt lat="42.15077" lon="2.537417">
        <ele>630.8</ele>
        <time>2019-09-03T17:56:23.998Z</time>
    </trkpt>
    <trkpt lat="42.150728" lon="2.537369">
        <ele>631.0</ele>
        <time>2019-09-03T17:56:26.998Z</time>
    </trkpt>
    <trkpt lat="42.150706" lon="2.537301">
        <ele>630.5</ele>
        <time>2019-09-03T17:56:30.998Z</time>
    </trkpt>
    <trkpt lat="42.150692" lon="2.537236">
        <ele>629.8</ele>
        <time>2019-09-03T17:56:35.998Z</time>
    </trkpt>
    <trkpt lat="42.150667" lon="2.537177">
        <ele>628.7</ele>
        <time>2019-09-03T17:56:41.998Z</time>
    </trkpt>
    <trkpt lat="42.150648" lon="2.537113">
        <ele>628.7</ele>
        <time>2019-09-03T17:56:44.998Z</time>
    </trkpt>
    <trkpt lat="42.150615" lon="2.537058">
        <ele>629.6</ele>
        <time>2019-09-03T17:56:48.998Z</time>
    </trkpt>
    <trkpt lat="42.150558" lon="2.537015">
        <ele>631.5</ele>
        <time>2019-09-03T17:56:52.998Z</time>
    </trkpt>
    <trkpt lat="42.15053" lon="2.536961">
        <ele>632.1</ele>
        <time>2019-09-03T17:56:55.998Z</time>
    </trkpt>
    <trkpt lat="42.150499" lon="2.536915">
        <ele>631.8</ele>
        <time>2019-09-03T17:56:58.998Z</time>
    </trkpt>
    <trkpt lat="42.150469" lon="2.536848">
        <ele>631.4</ele>
        <time>2019-09-03T17:57:02.998Z</time>
    </trkpt>
    <trkpt lat="42.150438" lon="2.536795">
        <ele>631.3</ele>
        <time>2019-09-03T17:57:05.998Z</time>
    </trkpt>
    <trkpt lat="42.150412" lon="2.536727">
        <ele>631.7</ele>
        <time>2019-09-03T17:57:09.998Z</time>
    </trkpt>
    <trkpt lat="42.150399" lon="2.536667">
        <ele>632.6</ele>
        <time>2019-09-03T17:57:13.998Z</time>
    </trkpt>
    <trkpt lat="42.150368" lon="2.536603">
        <ele>634.5</ele>
        <time>2019-09-03T17:57:17.998Z</time>
    </trkpt>
    <trkpt lat="42.150351" lon="2.536544">
        <ele>635.0</ele>
        <time>2019-09-03T17:57:20.998Z</time>
    </trkpt>
    <trkpt lat="42.150323" lon="2.536491">
        <ele>635.2</ele>
        <time>2019-09-03T17:57:23.998Z</time>
    </trkpt>
    <trkpt lat="42.15029" lon="2.536443">
        <ele>635.5</ele>
        <time>2019-09-03T17:57:26.998Z</time>
    </trkpt>
    <trkpt lat="42.150277" lon="2.536371">
        <ele>635.5</ele>
        <time>2019-09-03T17:57:30.998Z</time>
    </trkpt>
    <trkpt lat="42.150272" lon="2.536307">
        <ele>635.4</ele>
        <time>2019-09-03T17:57:33.998Z</time>
    </trkpt>
    <trkpt lat="42.150275" lon="2.536233">
        <ele>634.6</ele>
        <time>2019-09-03T17:57:36.998Z</time>
    </trkpt>
    <trkpt lat="42.150275" lon="2.536171">
        <ele>634.0</ele>
        <time>2019-09-03T17:57:39.998Z</time>
    </trkpt>
    <trkpt lat="42.150271" lon="2.536106">
        <ele>633.0</ele>
        <time>2019-09-03T17:57:42.998Z</time>
    </trkpt>
    <trkpt lat="42.150273" lon="2.53604">
        <ele>632.7</ele>
        <time>2019-09-03T17:57:45.998Z</time>
    </trkpt>
    <trkpt lat="42.15026" lon="2.535963">
        <ele>632.8</ele>
        <time>2019-09-03T17:57:49.998Z</time>
    </trkpt>
    <trkpt lat="42.150239" lon="2.535899">
        <ele>633.7</ele>
        <time>2019-09-03T17:57:52.998Z</time>
    </trkpt>
    <trkpt lat="42.150225" lon="2.535818">
        <ele>635.0</ele>
        <time>2019-09-03T17:57:56.998Z</time>
    </trkpt>
    <trkpt lat="42.15019" lon="2.535776">
        <ele>636.7</ele>
        <time>2019-09-03T17:57:59.998Z</time>
    </trkpt>
    <trkpt lat="42.150149" lon="2.535719">
        <ele>637.2</ele>
        <time>2019-09-03T17:58:03.998Z</time>
    </trkpt>
    <trkpt lat="42.150159" lon="2.535651">
        <ele>637.7</ele>
        <time>2019-09-03T17:58:06.998Z</time>
    </trkpt>
    <trkpt lat="42.150168" lon="2.535589">
        <ele>638.4</ele>
        <time>2019-09-03T17:58:09.998Z</time>
    </trkpt>
    <trkpt lat="42.150151" lon="2.535516">
        <ele>638.9</ele>
        <time>2019-09-03T17:58:12.998Z</time>
    </trkpt>
    <trkpt lat="42.150123" lon="2.535441">
        <ele>638.9</ele>
        <time>2019-09-03T17:58:16.998Z</time>
    </trkpt>
    <trkpt lat="42.150127" lon="2.535372">
        <ele>638.5</ele>
        <time>2019-09-03T17:58:19.998Z</time>
    </trkpt>
    <trkpt lat="42.150133" lon="2.535296">
        <ele>637.1</ele>
        <time>2019-09-03T17:58:23.998Z</time>
    </trkpt>
    <trkpt lat="42.150137" lon="2.53523">
        <ele>636.9</ele>
        <time>2019-09-03T17:58:26.998Z</time>
    </trkpt>
    <trkpt lat="42.150141" lon="2.535159">
        <ele>637.1</ele>
        <time>2019-09-03T17:58:30.998Z</time>
    </trkpt>
    <trkpt lat="42.150152" lon="2.535096">
        <ele>636.7</ele>
        <time>2019-09-03T17:58:33.998Z</time>
    </trkpt>
    <trkpt lat="42.150154" lon="2.535031">
        <ele>636.2</ele>
        <time>2019-09-03T17:58:36.998Z</time>
    </trkpt>
    <trkpt lat="42.150159" lon="2.534949">
        <ele>635.3</ele>
        <time>2019-09-03T17:58:40.998Z</time>
    </trkpt>
    <trkpt lat="42.150153" lon="2.534888">
        <ele>634.5</ele>
        <time>2019-09-03T17:58:43.998Z</time>
    </trkpt>
    <trkpt lat="42.15015" lon="2.534805">
        <ele>633.1</ele>
        <time>2019-09-03T17:58:46.998Z</time>
    </trkpt>
    <trkpt lat="42.150162" lon="2.534707">
        <ele>632.1</ele>
        <time>2019-09-03T17:58:49.998Z</time>
    </trkpt>
    <trkpt lat="42.150167" lon="2.534646">
        <ele>630.5</ele>
        <time>2019-09-03T17:58:53.998Z</time>
    </trkpt>
    <trkpt lat="42.15014" lon="2.534585">
        <ele>630.5</ele>
        <time>2019-09-03T17:58:57.998Z</time>
    </trkpt>
    <trkpt lat="42.150102" lon="2.534535">
        <ele>631.9</ele>
        <time>2019-09-03T17:59:00.998Z</time>
    </trkpt>
    <trkpt lat="42.150052" lon="2.534492">
        <ele>633.6</ele>
        <time>2019-09-03T17:59:03.998Z</time>
    </trkpt>
    <trkpt lat="42.150007" lon="2.53443">
        <ele>634.2</ele>
        <time>2019-09-03T17:59:07.998Z</time>
    </trkpt>
    <trkpt lat="42.149975" lon="2.534387">
        <ele>634.1</ele>
        <time>2019-09-03T17:59:10.998Z</time>
    </trkpt>
    <trkpt lat="42.149932" lon="2.534343">
        <ele>633.6</ele>
        <time>2019-09-03T17:59:13.998Z</time>
    </trkpt>
    <trkpt lat="42.149893" lon="2.534309">
        <ele>632.9</ele>
        <time>2019-09-03T17:59:16.998Z</time>
    </trkpt>
    <trkpt lat="42.149845" lon="2.534259">
        <ele>631.1</ele>
        <time>2019-09-03T17:59:20.998Z</time>
    </trkpt>
    <trkpt lat="42.149798" lon="2.534222">
        <ele>630.2</ele>
        <time>2019-09-03T17:59:25.998Z</time>
    </trkpt>
    <trkpt lat="42.149753" lon="2.534202">
        <ele>629.4</ele>
        <time>2019-09-03T17:59:29.998Z</time>
    </trkpt>
    <trkpt lat="42.149704" lon="2.534173">
        <ele>629.1</ele>
        <time>2019-09-03T17:59:35.998Z</time>
    </trkpt>
    <trkpt lat="42.149703" lon="2.534111">
        <ele>629.6</ele>
        <time>2019-09-03T17:59:40.998Z</time>
    </trkpt>
    <trkpt lat="42.149664" lon="2.53406">
        <ele>630.2</ele>
        <time>2019-09-03T17:59:43.998Z</time>
    </trkpt>
    <trkpt lat="42.14963" lon="2.534004">
        <ele>631.3</ele>
        <time>2019-09-03T17:59:46.998Z</time>
    </trkpt>
    <trkpt lat="42.149598" lon="2.533949">
        <ele>632.6</ele>
        <time>2019-09-03T17:59:51.998Z</time>
    </trkpt>
    <trkpt lat="42.14955" lon="2.533964">
        <ele>633.1</ele>
        <time>2019-09-03T18:00:02.998Z</time>
    </trkpt>
    <trkpt lat="42.149537" lon="2.533903">
        <ele>632.8</ele>
        <time>2019-09-03T18:00:06.998Z</time>
    </trkpt>
    <trkpt lat="42.14951" lon="2.533838">
        <ele>632.3</ele>
        <time>2019-09-03T18:00:09.998Z</time>
    </trkpt>
    <trkpt lat="42.149502" lon="2.533769">
        <ele>632.2</ele>
        <time>2019-09-03T18:00:13.998Z</time>
    </trkpt>
    <trkpt lat="42.149477" lon="2.533716">
        <ele>631.8</ele>
        <time>2019-09-03T18:00:16.998Z</time>
    </trkpt>
    <trkpt lat="42.14945" lon="2.53364">
        <ele>631.3</ele>
        <time>2019-09-03T18:00:20.998Z</time>
    </trkpt>
    <trkpt lat="42.149472" lon="2.533579">
        <ele>630.6</ele>
        <time>2019-09-03T18:00:23.998Z</time>
    </trkpt>
    <trkpt lat="42.14948" lon="2.533509">
        <ele>630.5</ele>
        <time>2019-09-03T18:00:26.998Z</time>
    </trkpt>
    <trkpt lat="42.149463" lon="2.533443">
        <ele>630.0</ele>
        <time>2019-09-03T18:00:29.998Z</time>
    </trkpt>
    <trkpt lat="42.149438" lon="2.533377">
        <ele>630.2</ele>
        <time>2019-09-03T18:00:33.998Z</time>
    </trkpt>
    <trkpt lat="42.149416" lon="2.53332">
        <ele>630.7</ele>
        <time>2019-09-03T18:00:36.998Z</time>
    </trkpt>
    <trkpt lat="42.149398" lon="2.533261">
        <ele>631.5</ele>
        <time>2019-09-03T18:00:39.998Z</time>
    </trkpt>
    <trkpt lat="42.149404" lon="2.5332">
        <ele>631.6</ele>
        <time>2019-09-03T18:00:42.998Z</time>
    </trkpt>
    <trkpt lat="42.14941" lon="2.53314">
        <ele>631.8</ele>
        <time>2019-09-03T18:00:45.998Z</time>
    </trkpt>
    <trkpt lat="42.1494" lon="2.533073">
        <ele>631.9</ele>
        <time>2019-09-03T18:00:48.998Z</time>
    </trkpt>
    <trkpt lat="42.149392" lon="2.533003">
        <ele>632.2</ele>
        <time>2019-09-03T18:00:51.998Z</time>
    </trkpt>
    <trkpt lat="42.149379" lon="2.532928">
        <ele>633.4</ele>
        <time>2019-09-03T18:00:56.998Z</time>
    </trkpt>
    <trkpt lat="42.149383" lon="2.532866">
        <ele>632.8</ele>
        <time>2019-09-03T18:01:00.998Z</time>
    </trkpt>
    <trkpt lat="42.149351" lon="2.532805">
        <ele>631.0</ele>
        <time>2019-09-03T18:01:04.998Z</time>
    </trkpt>
    <trkpt lat="42.149309" lon="2.532759">
        <ele>630.6</ele>
        <time>2019-09-03T18:01:08.998Z</time>
    </trkpt>
    <trkpt lat="42.149289" lon="2.532693">
        <ele>629.5</ele>
        <time>2019-09-03T18:01:12.998Z</time>
    </trkpt>
    <trkpt lat="42.149287" lon="2.532616">
        <ele>628.7</ele>
        <time>2019-09-03T18:01:16.998Z</time>
    </trkpt>
    <trkpt lat="42.149278" lon="2.532545">
        <ele>628.2</ele>
        <time>2019-09-03T18:01:19.998Z</time>
    </trkpt>
    <trkpt lat="42.149293" lon="2.532484">
        <ele>628.1</ele>
        <time>2019-09-03T18:01:23.998Z</time>
    </trkpt>
    <trkpt lat="42.149316" lon="2.532428">
        <ele>627.3</ele>
        <time>2019-09-03T18:01:26.998Z</time>
    </trkpt>
    <trkpt lat="42.149337" lon="2.532374">
        <ele>626.7</ele>
        <time>2019-09-03T18:01:29.998Z</time>
    </trkpt>
    <trkpt lat="42.149337" lon="2.532296">
        <ele>625.5</ele>
        <time>2019-09-03T18:01:32.998Z</time>
    </trkpt>
    <trkpt lat="42.149316" lon="2.532231">
        <ele>623.5</ele>
        <time>2019-09-03T18:01:35.998Z</time>
    </trkpt>
    <trkpt lat="42.149322" lon="2.532146">
        <ele>621.6</ele>
        <time>2019-09-03T18:01:39.998Z</time>
    </trkpt>
    <trkpt lat="42.149344" lon="2.532091">
        <ele>621.1</ele>
        <time>2019-09-03T18:01:42.998Z</time>
    </trkpt>
    <trkpt lat="42.14937" lon="2.532012">
        <ele>620.9</ele>
        <time>2019-09-03T18:01:46.998Z</time>
    </trkpt>
    <trkpt lat="42.149377" lon="2.531937">
        <ele>620.5</ele>
        <time>2019-09-03T18:01:49.998Z</time>
    </trkpt>
    <trkpt lat="42.149388" lon="2.531849">
        <ele>620.5</ele>
        <time>2019-09-03T18:01:52.998Z</time>
    </trkpt>
    <trkpt lat="42.149413" lon="2.531782">
        <ele>620.6</ele>
        <time>2019-09-03T18:01:56.998Z</time>
    </trkpt>
    <trkpt lat="42.149423" lon="2.53172">
        <ele>621.4</ele>
        <time>2019-09-03T18:02:00.998Z</time>
    </trkpt>
    <trkpt lat="42.149445" lon="2.531651">
        <ele>622.8</ele>
        <time>2019-09-03T18:02:06.998Z</time>
    </trkpt>
    <trkpt lat="42.149472" lon="2.531594">
        <ele>624.5</ele>
        <time>2019-09-03T18:02:12.998Z</time>
    </trkpt>
    </trkseg>
</trk>
</gpx>