<?xml version="1.0" encoding="UTF-8"?>
<gpx xmlns:xsi="http://www.w3.org/2001/XMLSchema-instance" xmlns="http://www.topografix.com/GPX/1/1" xsi:schemaLocation="http://www.topografix.com/GPX/1/1 http://www.topografix.com/GPX/1/1/gpx.xsd http://www.garmin.com/xmlschemas/GpxExtensions/v3 http://www.garmin.com/xmlschemas/GpxExtensionsv3.xsd http://www.garmin.com/xmlschemas/TrackPointExtension/v1 http://www.garmin.com/xmlschemas/TrackPointExtensionv1.xsd http://www.topografix.com/GPX/gpx_style/0/2 http://www.topografix.com/GPX/gpx_style/0/2/gpx_style.xsd" xmlns:gpxtpx="http://www.garmin.com/xmlschemas/TrackPointExtension/v1" xmlns:gpxx="http://www.garmin.com/xmlschemas/GpxExtensions/v3" xmlns:gpx_style="http://www.topografix.com/GPX/gpx_style/0/2" version="1.1" creator="GPX Viewer PRO 1.46 - https://vecturagames.com/gpxviewerpro">
<metadata>
    <name>R9 - Torre òptica del Croscat</name>
    <author>
        <name>Alexis Tudela i Casanovas</name>
    </author>
</metadata>
<wpt lat="42.148308" lon="2.530165">
    <ele>618.3</ele>
    <name>Parking</name>
    <sym>Parking Area</sym>
</wpt>
<wpt lat="42.15345678092032" lon="2.5312801669625844">
    <ele>628.8</ele>
    <name>Clot Sagolla</name>
    <sym>Geographic place name, land</sym>
</wpt>
<wpt lat="42.154096" lon="2.535908">
    <ele>780.0</ele>
    <name>Volcà del Croscat</name>
    <sym>Summit</sym>
</wpt>
<wpt lat="42.154007" lon="2.535984">
    <ele>780.6</ele>
    <name>Torre del Croscat de Telegrafia Òptica</name>
    <sym>Geographic place name, Man-made</sym>
</wpt>
<wpt lat="42.154263" lon="2.536967">
    <ele>751.1</ele>
    <name>Mirardor</name>
    <sym>Scenic Area</sym>
</wpt>
<wpt lat="42.14814" lon="2.530837">
    <ele>619.2</ele>
    <name>Parking</name>
    <cmt>access: customers, amenity: parking, name: Can Xel, name:ca: Can Xel</cmt>
    <sym>Parking Area</sym>
</wpt>
<wpt lat="42.147879" lon="2.531301">
    <ele>618.9</ele>
    <name>Font</name>
    <cmt>amenity: drinking_water</cmt>
    <sym>Drinking Water</sym>
</wpt>
<wpt lat="42.15485" lon="2.529897">
    <ele>626.3</ele>
    <name>Trencant a la dreta</name>
    <cmt>Senda començament pujada</cmt>
    <desc>Senda començament pujada</desc>
    <sym>Intersection</sym>
</wpt>
<wpt lat="42.15312854142402" lon="2.539698160067525">
    <ele>650.9</ele>
    <name>Trencant a la dreta</name>
    <desc>Trencant a la dreta</desc>
    <sym>Intersection</sym>
</wpt>
<wpt lat="42.15405846135733" lon="2.5360983610153203">
    <ele>780.3</ele>
    <name>Mirador</name>
    <sym>Scenic Area</sym>
</wpt>
<wpt lat="42.1478785" lon="2.5313014">
    <ele>618.9</ele>
    <name>Font</name>
    <cmt>amenity: drinking_water</cmt>
    <sym>Drinking Water</sym>
</wpt>
<wpt lat="42.14837525389303" lon="2.5309297442436223">
    <ele>620.0</ele>
    <name>Can Xel</name>
    <sym>Restaurant</sym>
</wpt>
<wpt lat="42.14952267453702" lon="2.529041469097138">
    <ele>616.7</ele>
    <name>Can Bastants</name>
    <sym>Restaurant</sym>
</wpt>
<trk>
    <name>R9 - Torre òptica del Croscat</name>
    <type>Running</type>
    <extensions>
        <gpx_style:line>
        <color>0000ff</color>
        <opacity>0.7</opacity>
        <weight>3</weight>
        </gpx_style:line>
    </extensions>
    <trkseg>
    <trkpt lat="42.148233" lon="2.53066">
        <ele>619.8</ele>
        <time>2019-12-01T10:26:37.378Z</time>
    </trkpt>
    <trkpt lat="42.148328" lon="2.530705">
        <ele>619.8</ele>
        <time>2019-12-01T10:26:50.269Z</time>
    </trkpt>
    <trkpt lat="42.148382" lon="2.530608">
        <ele>619.8</ele>
        <time>2019-12-01T10:27:01.783Z</time>
    </trkpt>
    <trkpt lat="42.148437" lon="2.530543">
        <ele>619.5</ele>
        <time>2019-12-01T10:27:11.145Z</time>
    </trkpt>
    <trkpt lat="42.149337" lon="2.529888">
        <ele>620.4</ele>
        <time>2019-12-01T10:29:22.074Z</time>
    </trkpt>
    <trkpt lat="42.149424" lon="2.529816">
        <ele>621.0</ele>
        <time>2019-12-01T10:29:35.266Z</time>
    </trkpt>
    <trkpt lat="42.149442" lon="2.529918">
        <ele>621.4</ele>
        <time>2019-12-01T10:29:45.312Z</time>
    </trkpt>
    <trkpt lat="42.149502" lon="2.529866">
        <ele>621.7</ele>
        <time>2019-12-01T10:29:54.529Z</time>
    </trkpt>
    <trkpt lat="42.149574" lon="2.529785">
        <ele>621.6</ele>
        <time>2019-12-01T10:30:06.646Z</time>
    </trkpt>
    <trkpt lat="42.149672" lon="2.529613">
        <ele>620.8</ele>
        <time>2019-12-01T10:30:27.431Z</time>
    </trkpt>
    <trkpt lat="42.149772" lon="2.529384">
        <ele>619.2</ele>
        <time>2019-12-01T10:30:52.897Z</time>
    </trkpt>
    <trkpt lat="42.149984" lon="2.528707">
        <ele>617.5</ele>
        <time>2019-12-01T10:32:03.316Z</time>
    </trkpt>
    <trkpt lat="42.150034" lon="2.52862">
        <ele>616.6</ele>
        <time>2019-12-01T10:32:13.863Z</time>
    </trkpt>
    <trkpt lat="42.150051" lon="2.528614">
        <ele>616.5</ele>
        <time>2019-12-01T10:32:16.134Z</time>
    </trkpt>
    <trkpt lat="42.15011" lon="2.528619">
        <ele>616.8</ele>
        <time>2019-12-01T10:32:23.774Z</time>
    </trkpt>
    <trkpt lat="42.150263" lon="2.52871">
        <ele>617.4</ele>
        <time>2019-12-01T10:32:45.385Z</time>
    </trkpt>
    <trkpt lat="42.150358" lon="2.528837">
        <ele>618.2</ele>
        <time>2019-12-01T10:33:02.671Z</time>
    </trkpt>
    <trkpt lat="42.150416" lon="2.528879">
        <ele>618.9</ele>
        <time>2019-12-01T10:33:11.179Z</time>
    </trkpt>
    <trkpt lat="42.150615" lon="2.528873">
        <ele>619.4</ele>
        <time>2019-12-01T10:33:36.904Z</time>
    </trkpt>
    <trkpt lat="42.150673" lon="2.52883">
        <ele>619.3</ele>
        <time>2019-12-01T10:33:45.457Z</time>
    </trkpt>
    <trkpt lat="42.150807" lon="2.528549">
        <ele>618.7</ele>
        <time>2019-12-01T10:34:17.470Z</time>
    </trkpt>
    <trkpt lat="42.150889" lon="2.528487">
        <ele>618.4</ele>
        <time>2019-12-01T10:34:29.619Z</time>
    </trkpt>
    <trkpt lat="42.151124" lon="2.528406">
        <ele>618.3</ele>
        <time>2019-12-01T10:35:00.967Z</time>
    </trkpt>
    <trkpt lat="42.151218" lon="2.528374">
        <ele>618.4</ele>
        <time>2019-12-01T10:35:13.496Z</time>
    </trkpt>
    <trkpt lat="42.151394" lon="2.528378">
        <ele>618.6</ele>
        <time>2019-12-01T10:35:36.246Z</time>
    </trkpt>
    <trkpt lat="42.151515" lon="2.528358">
        <ele>618.6</ele>
        <time>2019-12-01T10:35:52.001Z</time>
    </trkpt>
    <trkpt lat="42.151648" lon="2.528291">
        <ele>618.3</ele>
        <time>2019-12-01T10:36:10.350Z</time>
    </trkpt>
    <trkpt lat="42.151774" lon="2.528195">
        <ele>617.7</ele>
        <time>2019-12-01T10:36:29.053Z</time>
    </trkpt>
    <trkpt lat="42.151842" lon="2.52812">
        <ele>616.7</ele>
        <time>2019-12-01T10:36:40.405Z</time>
    </trkpt>
    <trkpt lat="42.151975" lon="2.527894">
        <ele>615.4</ele>
        <time>2019-12-01T10:37:08.052Z</time>
    </trkpt>
    <trkpt lat="42.152079" lon="2.527764">
        <ele>614.3</ele>
        <time>2019-12-01T10:37:26.377Z</time>
    </trkpt>
    <trkpt lat="42.152146" lon="2.527725">
        <ele>613.6</ele>
        <time>2019-12-01T10:37:35.808Z</time>
    </trkpt>
    <trkpt lat="42.152276" lon="2.527754">
        <ele>613.2</ele>
        <time>2019-12-01T10:37:52.837Z</time>
    </trkpt>
    <trkpt lat="42.152451" lon="2.527738">
        <ele>613.3</ele>
        <time>2019-12-01T10:38:15.506Z</time>
    </trkpt>
    <trkpt lat="42.152574" lon="2.527975">
        <ele>614.4</ele>
        <time>2019-12-01T10:38:43.225Z</time>
    </trkpt>
    <trkpt lat="42.152954" lon="2.528532">
        <ele>616.1</ele>
        <time>2019-12-01T10:39:55.753Z</time>
    </trkpt>
    <trkpt lat="42.15309" lon="2.528787">
        <ele>616.8</ele>
        <time>2019-12-01T10:40:25.851Z</time>
    </trkpt>
    <trkpt lat="42.153317" lon="2.529074">
        <ele>616.6</ele>
        <time>2019-12-01T10:41:06.062Z</time>
    </trkpt>
    <trkpt lat="42.153367" lon="2.529172">
        <ele>616.7</ele>
        <time>2019-12-01T10:41:17.460Z</time>
    </trkpt>
    <trkpt lat="42.153413" lon="2.529339">
        <ele>618.0</ele>
        <time>2019-12-01T10:41:34.529Z</time>
    </trkpt>
    <trkpt lat="42.153438" lon="2.52966">
        <ele>620.3</ele>
        <time>2019-12-01T10:42:05.454Z</time>
    </trkpt>
    <trkpt lat="42.153507" lon="2.529986">
        <ele>622.8</ele>
        <time>2019-12-01T10:42:37.937Z</time>
    </trkpt>
    <trkpt lat="42.153486" lon="2.53022">
        <ele>625.4</ele>
        <time>2019-12-01T10:43:00.521Z</time>
    </trkpt>
    <trkpt lat="42.153398" lon="2.53083">
        <ele>628.1</ele>
        <time>2019-12-01T10:44:00.064Z</time>
    </trkpt>
    <trkpt lat="42.153376" lon="2.531016">
        <ele>630.3</ele>
        <time>2019-12-01T10:44:18.110Z</time>
    </trkpt>
    <trkpt lat="42.153401" lon="2.53115">
        <ele>631.9</ele>
        <time>2019-12-01T10:44:31.349Z</time>
    </trkpt>
    <trkpt lat="42.153441" lon="2.531263">
        <ele>631.5</ele>
        <time>2019-12-01T10:44:43.346Z</time>
    </trkpt>
    <trkpt lat="42.153516" lon="2.531328">
        <ele>624.5</ele>
        <time>2019-12-01T10:44:54.867Z</time>
    </trkpt>
    <trkpt lat="42.153679" lon="2.531266">
        <ele>612.4</ele>
        <time>2019-12-01T10:45:16.755Z</time>
    </trkpt>
    <trkpt lat="42.153916" lon="2.530899">
        <ele>605.8</ele>
        <time>2019-12-01T10:45:56.755Z</time>
    </trkpt>
    <trkpt lat="42.154765" lon="2.529962">
        <ele>605.7</ele>
        <time>2019-12-01T10:47:47.755Z</time>
    </trkpt>
    <trkpt lat="42.154888" lon="2.529971">
        <ele>606.6</ele>
        <time>2019-12-01T10:48:19.755Z</time>
    </trkpt>
    <trkpt lat="42.154924" lon="2.530299">
        <ele>606.8</ele>
        <time>2019-12-01T10:48:50.755Z</time>
    </trkpt>
    <trkpt lat="42.154849" lon="2.530512">
        <ele>611.3</ele>
        <time>2019-12-01T10:50:56.755Z</time>
    </trkpt>
    <trkpt lat="42.154901" lon="2.530836">
        <ele>633.1</ele>
        <time>2019-12-01T10:52:13.755Z</time>
    </trkpt>
    <trkpt lat="42.154908" lon="2.531554">
        <ele>672.3</ele>
        <time>2019-12-01T11:04:41.755Z</time>
    </trkpt>
    <trkpt lat="42.155041" lon="2.531753">
        <ele>702.2</ele>
        <time>2019-12-01T11:05:54.755Z</time>
    </trkpt>
    <trkpt lat="42.155111" lon="2.5326">
        <ele>712.9</ele>
        <time>2019-12-01T11:05:54.755Z</time>
    </trkpt>
    <trkpt lat="42.155219" lon="2.532879">
        <ele>716.6</ele>
        <time>2019-12-01T11:06:07.755Z</time>
    </trkpt>
    <trkpt lat="42.155122" lon="2.533165">
        <ele>722.3</ele>
        <time>2019-12-01T11:06:49.755Z</time>
    </trkpt>
    <trkpt lat="42.155149" lon="2.533584">
        <ele>730.2</ele>
        <time>2019-12-01T11:09:59.755Z</time>
    </trkpt>
    <trkpt lat="42.155117" lon="2.533903">
        <ele>735.3</ele>
        <time>2019-12-01T11:09:59.755Z</time>
    </trkpt>
    <trkpt lat="42.155016" lon="2.53418">
        <ele>738.8</ele>
        <time>2019-12-01T11:09:59.755Z</time>
    </trkpt>
    <trkpt lat="42.154979" lon="2.534457">
        <ele>743.2</ele>
        <time>2019-12-01T11:12:14.755Z</time>
    </trkpt>
    <trkpt lat="42.154858" lon="2.534771">
        <ele>748.4</ele>
        <time>2019-12-01T11:12:14.755Z</time>
    </trkpt>
    <trkpt lat="42.154636" lon="2.535052">
        <ele>758.0</ele>
        <time>2019-12-01T11:13:05.755Z</time>
    </trkpt>
    <trkpt lat="42.154055" lon="2.536106">
        <ele>771.0</ele>
        <time>2019-12-01T11:18:58.755Z</time>
    </trkpt>
    <trkpt lat="42.154005" lon="2.535965">
        <ele>778.1</ele>
        <time>2019-12-01T11:19:47.755Z</time>
    </trkpt>
    <trkpt lat="42.154018" lon="2.536111">
        <ele>779.6</ele>
        <time>2019-12-01T11:20:44.755Z</time>
    </trkpt>
    <trkpt lat="42.153966" lon="2.53606">
        <ele>779.4</ele>
        <time>2019-12-01T11:23:44.755Z</time>
    </trkpt>
    <trkpt lat="42.153964" lon="2.536284">
        <ele>775.4</ele>
        <time>2019-12-01T11:24:24.755Z</time>
    </trkpt>
    <trkpt lat="42.154152" lon="2.536718">
        <ele>766.2</ele>
        <time>2019-12-01T11:29:33.755Z</time>
    </trkpt>
    <trkpt lat="42.1542" lon="2.536935">
        <ele>757.0</ele>
        <time>2019-12-01T11:29:55.402Z</time>
    </trkpt>
    <trkpt lat="42.154206" lon="2.536957">
        <ele>752.0</ele>
        <time>2019-12-01T11:29:57.642Z</time>
    </trkpt>
    <trkpt lat="42.15428" lon="2.53697">
        <ele>749.4</ele>
        <time>2019-12-01T11:30:07.264Z</time>
    </trkpt>
    <trkpt lat="42.154287" lon="2.536972">
        <ele>747.9</ele>
        <time>2019-12-01T11:30:08.186Z</time>
    </trkpt>
    <trkpt lat="42.154128" lon="2.537135">
        <ele>745.9</ele>
        <time>2019-12-01T11:30:33.937Z</time>
    </trkpt>
    <trkpt lat="42.153875" lon="2.53723">
        <ele>742.6</ele>
        <time>2019-12-01T11:31:07.800Z</time>
    </trkpt>
    <trkpt lat="42.153439" lon="2.53709">
        <ele>739.6</ele>
        <time>2019-12-01T11:31:31.800Z</time>
    </trkpt>
    <trkpt lat="42.153385" lon="2.537174">
        <ele>736.0</ele>
        <time>2019-12-01T11:32:18.800Z</time>
    </trkpt>
    <trkpt lat="42.153657" lon="2.537666">
        <ele>729.1</ele>
        <time>2019-12-01T11:33:39.800Z</time>
    </trkpt>
    <trkpt lat="42.153879" lon="2.537857">
        <ele>720.9</ele>
        <time>2019-12-01T11:34:49.800Z</time>
    </trkpt>
    <trkpt lat="42.154074" lon="2.537946">
        <ele>714.7</ele>
        <time>2019-12-01T11:35:25.800Z</time>
    </trkpt>
    <trkpt lat="42.154085" lon="2.538022">
        <ele>716.5</ele>
        <time>2019-12-01T11:35:32.398Z</time>
    </trkpt>
    <trkpt lat="42.154092" lon="2.538026">
        <ele>716.5</ele>
        <time>2019-12-01T11:35:33.271Z</time>
    </trkpt>
    <trkpt lat="42.154045" lon="2.538088">
        <ele>714.0</ele>
        <time>2019-12-01T11:35:40.827Z</time>
    </trkpt>
    <trkpt lat="42.153706" lon="2.538155">
        <ele>709.3</ele>
        <time>2019-12-01T11:36:20.208Z</time>
    </trkpt>
    <trkpt lat="42.153352" lon="2.538109">
        <ele>708.5</ele>
        <time>2019-12-01T11:37:01.085Z</time>
    </trkpt>
    <trkpt lat="42.153254" lon="2.538061">
        <ele>708.5</ele>
        <time>2019-12-01T11:37:13.068Z</time>
    </trkpt>
    <trkpt lat="42.153289" lon="2.538171">
        <ele>705.3</ele>
        <time>2019-12-01T11:37:23.268Z</time>
    </trkpt>
    <trkpt lat="42.15345" lon="2.538379">
        <ele>699.3</ele>
        <time>2019-12-01T11:37:48.892Z</time>
    </trkpt>
    <trkpt lat="42.15379" lon="2.538753">
        <ele>689.5</ele>
        <time>2019-12-01T11:38:39.319Z</time>
    </trkpt>
    <trkpt lat="42.153825" lon="2.538825">
        <ele>687.3</ele>
        <time>2019-12-01T11:38:46.633Z</time>
    </trkpt>
    <trkpt lat="42.153849" lon="2.538874">
        <ele>686.0</ele>
        <time>2019-12-01T11:38:51.622Z</time>
    </trkpt>
    <trkpt lat="42.153661" lon="2.538942">
        <ele>682.5</ele>
        <time>2019-12-01T11:39:13.927Z</time>
    </trkpt>
    <trkpt lat="42.153122" lon="2.538933">
        <ele>676.8</ele>
        <time>2019-12-01T11:40:15.700Z</time>
    </trkpt>
    <trkpt lat="42.152724" lon="2.538885">
        <ele>671.0</ele>
        <time>2019-12-01T11:41:01.492Z</time>
    </trkpt>
    <trkpt lat="42.152624" lon="2.538933">
        <ele>667.8</ele>
        <time>2019-12-01T11:41:13.655Z</time>
    </trkpt>
    <trkpt lat="42.152613" lon="2.539057">
        <ele>664.0</ele>
        <time>2019-12-01T11:41:24.265Z</time>
    </trkpt>
    <trkpt lat="42.152699" lon="2.539178">
        <ele>662.0</ele>
        <time>2019-12-01T11:41:38.506Z</time>
    </trkpt>
    <trkpt lat="42.153085" lon="2.539564">
        <ele>658.0</ele>
        <time>2019-12-01T11:42:33.571Z</time>
    </trkpt>
    <trkpt lat="42.153177" lon="2.539705">
        <ele>655.5</ele>
        <time>2019-12-01T11:42:49.528Z</time>
        <extensions>
        <gpxtpx:TrackPointExtension>
        <gpxtpx:Extensions>
            <surface>unpaved</surface>
        </gpxtpx:Extensions>
        </gpxtpx:TrackPointExtension>
        </extensions>
    </trkpt>
    <trkpt lat="42.153129" lon="2.539698">
        <ele>655.0</ele>
        <time>2019-12-01T11:42:55.060Z</time>
    </trkpt>
    <trkpt lat="42.153019" lon="2.539616">
        <ele>655.8</ele>
        <time>2019-12-01T11:43:09.462Z</time>
    </trkpt>
    <trkpt lat="42.152887" lon="2.539536">
        <ele>656.3</ele>
        <time>2019-12-01T11:43:26.045Z</time>
    </trkpt>
    <trkpt lat="42.152778" lon="2.539405">
        <ele>657.8</ele>
        <time>2019-12-01T11:43:42.775Z</time>
    </trkpt>
    <trkpt lat="42.152128" lon="2.538789">
        <ele>661.0</ele>
        <time>2019-12-01T11:45:13.810Z</time>
    </trkpt>
    <trkpt lat="42.152067" lon="2.538757">
        <ele>660.3</ele>
        <time>2019-12-01T11:45:21.310Z</time>
    </trkpt>
    <trkpt lat="42.151991" lon="2.538792">
        <ele>657.8</ele>
        <time>2019-12-01T11:45:30.513Z</time>
    </trkpt>
    <trkpt lat="42.151909" lon="2.538803">
        <ele>655.5</ele>
        <time>2019-12-01T11:45:39.956Z</time>
    </trkpt>
    <trkpt lat="42.151609" lon="2.538537">
        <ele>653.0</ele>
        <time>2019-12-01T11:46:21.098Z</time>
    </trkpt>
    <trkpt lat="42.151389" lon="2.538366">
        <ele>649.8</ele>
        <time>2019-12-01T11:46:50.196Z</time>
    </trkpt>
    <trkpt lat="42.151202" lon="2.538172">
        <ele>647.5</ele>
        <time>2019-12-01T11:47:17.231Z</time>
    </trkpt>
    <trkpt lat="42.150842" lon="2.53744">
        <ele>641.8</ele>
        <time>2019-12-01T11:48:31.861Z</time>
    </trkpt>
    <trkpt lat="42.150716" lon="2.537317">
        <ele>641.3</ele>
        <time>2019-12-01T11:48:49.685Z</time>
    </trkpt>
    <trkpt lat="42.150559" lon="2.53715">
        <ele>640.3</ele>
        <time>2019-12-01T11:49:12.598Z</time>
    </trkpt>
    <trkpt lat="42.15044" lon="2.536823">
        <ele>642.0</ele>
        <time>2019-12-01T11:49:43.546Z</time>
    </trkpt>
    <trkpt lat="42.150291" lon="2.536225">
        <ele>643.8</ele>
        <time>2019-12-01T11:50:37.145Z</time>
    </trkpt>
    <trkpt lat="42.150229" lon="2.535844">
        <ele>645.8</ele>
        <time>2019-12-01T11:51:10.286Z</time>
    </trkpt>
    <trkpt lat="42.150175" lon="2.535428">
        <ele>646.5</ele>
        <time>2019-12-01T11:51:46.167Z</time>
    </trkpt>
    <trkpt lat="42.150116" lon="2.535037">
        <ele>646.8</ele>
        <time>2019-12-01T11:52:20.068Z</time>
    </trkpt>
    <trkpt lat="42.150112" lon="2.534895">
        <ele>646.8</ele>
        <time>2019-12-01T11:52:32.141Z</time>
    </trkpt>
    <trkpt lat="42.150118" lon="2.534653">
        <ele>646.8</ele>
        <time>2019-12-01T11:52:52.713Z</time>
    </trkpt>
    <trkpt lat="42.150076" lon="2.534492">
        <ele>645.0</ele>
        <time>2019-12-01T11:53:07.213Z</time>
    </trkpt>
    <trkpt lat="42.150012" lon="2.534356">
        <ele>643.0</ele>
        <time>2019-12-01T11:53:20.899Z</time>
    </trkpt>
    <trkpt lat="42.149861" lon="2.534237">
        <ele>640.8</ele>
        <time>2019-12-01T11:53:40.940Z</time>
    </trkpt>
    <trkpt lat="42.149847" lon="2.534241">
        <ele>639.9</ele>
        <time>2019-12-01T11:53:42.170Z</time>
    </trkpt>
    <trkpt lat="42.149737386699776" lon="2.534068398818558">
        <ele>638.4</ele>
        <time>2019-12-01T11:53:56.658Z</time>
    </trkpt>
    <trkpt lat="42.149627773209716" lon="2.533895797637116">
        <ele>636.4</ele>
        <time>2019-12-01T11:54:11.433Z</time>
    </trkpt>
    <trkpt lat="42.14954340664511" lon="2.533760580970353">
        <ele>634.5</ele>
        <time>2019-12-01T11:54:22.922Z</time>
    </trkpt>
    <trkpt lat="42.14945903996804" lon="2.5336253643035893">
        <ele>633.4</ele>
        <time>2019-12-01T11:54:34.411Z</time>
    </trkpt>
    <trkpt lat="42.14943453121156" lon="2.5336263182851426">
        <ele>633.1</ele>
        <time>2019-12-01T11:54:36.561Z</time>
    </trkpt>
    <trkpt lat="42.149410022445586" lon="2.533627272266697">
        <ele>632.8</ele>
        <time>2019-12-01T11:54:38.711Z</time>
    </trkpt>
    <trkpt lat="42.149358" lon="2.533597">
        <ele>632.0</ele>
        <time>2019-12-01T11:54:43.679Z</time>
    </trkpt>
    <trkpt lat="42.14918" lon="2.533256">
        <ele>631.0</ele>
        <time>2019-12-01T11:55:18.309Z</time>
    </trkpt>
    <trkpt lat="42.149016" lon="2.532893">
        <ele>628.8</ele>
        <time>2019-12-01T11:55:53.607Z</time>
    </trkpt>
    <trkpt lat="42.148819" lon="2.532455">
        <ele>625.8</ele>
        <time>2019-12-01T11:56:36.147Z</time>
    </trkpt>
    <trkpt lat="42.148798" lon="2.532174">
        <ele>625.0</ele>
        <time>2019-12-01T11:56:59.599Z</time>
    </trkpt>
    <trkpt lat="42.148795" lon="2.53206">
        <ele>624.8</ele>
        <time>2019-12-01T11:57:09.071Z</time>
    </trkpt>
    <trkpt lat="42.148731" lon="2.531869">
        <ele>624.0</ele>
        <time>2019-12-01T11:57:26.476Z</time>
    </trkpt>
    <trkpt lat="42.14862" lon="2.531747">
        <ele>623.0</ele>
        <time>2019-12-01T11:57:42.513Z</time>
    </trkpt>
    <trkpt lat="42.148568" lon="2.531727">
        <ele>622.5</ele>
        <time>2019-12-01T11:57:48.569Z</time>
    </trkpt>
    <trkpt lat="42.148384" lon="2.531751">
        <ele>620.8</ele>
        <time>2019-12-01T11:58:09.273Z</time>
    </trkpt>
    <trkpt lat="42.148322" lon="2.53176">
        <ele>620.8</ele>
        <time>2019-12-01T11:58:16.257Z</time>
    </trkpt>
    <trkpt lat="42.148292" lon="2.531114">
        <ele>620.3</ele>
        <time>2019-12-01T11:58:59.456Z</time>
    </trkpt>
    <trkpt lat="42.148244" lon="2.531082">
        <ele>620.3</ele>
        <time>2019-12-01T11:59:04.275Z</time>
    </trkpt>
    <trkpt lat="42.148174" lon="2.531008">
        <ele>620.3</ele>
        <time>2019-12-01T11:59:12.281Z</time>
    </trkpt>
    <trkpt lat="42.148167" lon="2.530844">
        <ele>620.0</ele>
        <time>2019-12-01T11:59:23.244Z</time>
    </trkpt>
    <trkpt lat="42.148226" lon="2.530677">
        <ele>619.8</ele>
        <time>2019-12-01T11:59:42.924Z</time>
    </trkpt>
    </trkseg>
</trk>
</gpx>