{"type":"FeatureCollection","features":[{"type":"Feature","geometry":{"type":"LineString","coordinates":[[2.51789,42.15375],[2.51761,42.15345],[2.51732,42.15359],[2.51718,42.15355],[2.51704,42.15363],[2.51691,42.15362],[2.51709,42.15325],[2.51662,42.15262],[2.51652,42.15226],[2.51631,42.15218],[2.51638,42.15211],[2.51629,42.15201],[2.516,42.15184],[2.51599,42.15173],[2.51584,42.15153],[2.51552,42.15142],[2.51528,42.15118],[2.51494,42.15112],[2.51467,42.15115],[2.51462,42.15105],[2.51471,42.15075],[2.5146,42.15074],[2.51458,42.15066],[2.51445,42.15062],[2.51452,42.15038],[2.51441,42.1503],[2.51414,42.15031],[2.51397,42.15022],[2.51257,42.14922],[2.51228,42.14868],[2.51257,42.1483],[2.51304,42.14804],[2.51363,42.14754],[2.51512,42.14578],[2.51577,42.14491],[2.51628,42.14336],[2.51619,42.14271],[2.51582,42.14198],[2.51576,42.14141],[2.51623,42.14085],[2.5172,42.14022],[2.51794,42.13961],[2.51852,42.13941],[2.5193,42.13947],[2.51945,42.13993],[2.51929,42.1412],[2.51973,42.1416],[2.51991,42.14167],[2.52026,42.1411],[2.52044,42.14067],[2.5207,42.1404],[2.52107,42.14015],[2.52139,42.14029],[2.52162,42.14026],[2.52208,42.14037],[2.52251,42.14032],[2.52347,42.13975],[2.52356,42.13962],[2.52337,42.13873],[2.52366,42.13827],[2.52376,42.13822],[2.52529,42.13839],[2.52567,42.13831],[2.52604,42.13835],[2.52673,42.1382],[2.52693,42.13835],[2.52797,42.13857],[2.52973,42.1391],[2.52992,42.13911],[2.52999,42.13925],[2.53025,42.13934],[2.5304,42.13924],[2.53075,42.13929],[2.53123,42.13915],[2.53184,42.13913],[2.53184,42.13908],[2.53233,42.13884],[2.53267,42.13882],[2.53314,42.13895],[2.53335,42.1392],[2.53337,42.13937],[2.53387,42.13937],[2.53484,42.13955],[2.53569,42.13954],[2.53597,42.13981],[2.53691,42.13986],[2.53757,42.13967],[2.53793,42.13947],[2.53824,42.13914],[2.53876,42.13876],[2.53963,42.13835],[2.54025,42.13825],[2.54052,42.13799],[2.54098,42.1378],[2.54138,42.13799],[2.54175,42.138],[2.54122,42.13857],[2.54181,42.13856],[2.54188,42.13863],[2.54175,42.13876],[2.54113,42.13909],[2.54108,42.13919],[2.54092,42.13928],[2.54081,42.13924],[2.54044,42.13953],[2.54001,42.1401],[2.5401,42.14016],[2.54008,42.14045],[2.53995,42.14077],[2.53927,42.14186],[2.53918,42.1421],[2.53973,42.1425],[2.54002,42.14298],[2.54021,42.14275],[2.54002,42.14198],[2.54023,42.14156],[2.54068,42.14108],[2.541,42.14099],[2.54186,42.14094],[2.54218,42.14105],[2.54228,42.14111],[2.5424,42.14148],[2.54253,42.14162],[2.54242,42.14216],[2.54217,42.14262],[2.54173,42.14304],[2.5413,42.14324],[2.54142,42.14326],[2.54129,42.14333],[2.54144,42.14346],[2.54103,42.14353],[2.5412,42.1437],[2.54178,42.14404],[2.5425,42.14434],[2.54261,42.14453],[2.54347,42.145],[2.54348,42.14531],[2.54326,42.14558],[2.5427,42.14586],[2.54257,42.14605],[2.54257,42.14633],[2.54295,42.14655],[2.54319,42.14639],[2.54482,42.14583],[2.54529,42.1458],[2.54549,42.14585],[2.5456,42.14595],[2.54435,42.14711],[2.5437,42.14746],[2.54363,42.14755],[2.54361,42.14793],[2.54345,42.14819],[2.54339,42.14871],[2.54366,42.14884],[2.54323,42.14947],[2.54316,42.15021],[2.54266,42.15105],[2.5424,42.15242],[2.54228,42.15255],[2.5418,42.15266],[2.54258,42.15445],[2.54226,42.15461],[2.54224,42.15494],[2.54215,42.15512],[2.54185,42.15535],[2.54122,42.1556]]},"properties":{"nom":"R1 - La Fageda i els volcans"}},{"type":"Feature","geometry":{"type":"LineString","coordinates":[[2.54123,42.15559],[2.53989,42.1562],[2.53911,42.15584],[2.53845,42.15573],[2.53807,42.15588],[2.53789,42.15587],[2.53778,42.15602],[2.53791,42.15625],[2.53828,42.15617],[2.53864,42.15622],[2.53889,42.15633],[2.53899,42.15656],[2.53858,42.15699],[2.53859,42.15709],[2.53867,42.15713],[2.53943,42.1568],[2.53989,42.1562],[2.54115,42.15561]]},"properties":{"nom":"R1 - La Fageda i els volcans"}},{"type":"Feature","geometry":{"type":"LineString","coordinates":[[2.54124,42.15562],[2.54082,42.15601],[2.53999,42.1564],[2.53992,42.15653],[2.53997,42.1568],[2.53983,42.15701],[2.53932,42.15716],[2.53871,42.15724],[2.53873,42.15734],[2.53894,42.15746],[2.53886,42.1575],[2.53684,42.15734],[2.53614,42.15712],[2.53511,42.15713],[2.53269,42.15699],[2.53101,42.15699],[2.53049,42.15678],[2.52964,42.15625],[2.5279,42.15479],[2.52765,42.15443],[2.52732,42.15422],[2.52648,42.15438],[2.52583,42.15433],[2.52449,42.15446],[2.52386,42.15439],[2.52336,42.15408],[2.52275,42.15403],[2.52197,42.15409],[2.52159,42.15418],[2.52118,42.15457],[2.5211,42.15457],[2.52089,42.15374],[2.52107,42.15354],[2.52111,42.15339],[2.52127,42.15327],[2.52107,42.15321],[2.51954,42.15315],[2.51841,42.15348],[2.51809,42.15369]]},"properties":{"nom":"R1 - La Fageda i els volcans"}},{"type":"Feature","geometry":{"type":"LineString","coordinates":[[2.54368,42.14834],[2.54351,42.14824],[2.5436,42.14798],[2.54431,42.14731],[2.54429,42.14717],[2.54557,42.14599],[2.54548,42.14586],[2.54507,42.14577],[2.54297,42.14643],[2.54274,42.14642],[2.54261,42.14634],[2.54257,42.14619],[2.54265,42.14594],[2.54314,42.14571],[2.54336,42.14547],[2.5433,42.14522],[2.54249,42.14446],[2.54185,42.14408],[2.54111,42.1435],[2.54145,42.14341],[2.54138,42.14323],[2.54173,42.14305],[2.54232,42.14242],[2.5425,42.14189],[2.54251,42.14158],[2.54246,42.14148],[2.54192,42.14145],[2.54185,42.14158],[2.54175,42.14159],[2.54162,42.1415],[2.54169,42.14144],[2.54182,42.14144],[2.54188,42.14151],[2.54192,42.14145],[2.54246,42.14148],[2.54236,42.14121],[2.5419,42.1407],[2.54154,42.14056],[2.54062,42.14117],[2.54028,42.14153],[2.54004,42.142],[2.54007,42.14227],[2.54019,42.14251],[2.54019,42.14266],[2.54004,42.14299],[2.53957,42.14225],[2.53973,42.1413],[2.53992,42.14075],[2.54009,42.14047],[2.54015,42.13999],[2.54061,42.13944],[2.54144,42.139],[2.54166,42.1388],[2.54184,42.1385],[2.54144,42.13855],[2.5413,42.1385],[2.54131,42.13845],[2.54164,42.1381],[2.54205,42.13796],[2.54199,42.1378],[2.54162,42.13774],[2.54098,42.13781],[2.5405,42.13802],[2.5403,42.13822],[2.53933,42.13848],[2.53848,42.13896],[2.5379,42.13951],[2.53691,42.13986],[2.53629,42.13987],[2.53603,42.13977],[2.53571,42.13953],[2.53486,42.13954],[2.53444,42.13951],[2.53393,42.13936],[2.53364,42.13939],[2.53355,42.13932],[2.53344,42.13905],[2.53319,42.13887],[2.53303,42.13883],[2.53239,42.13882],[2.53171,42.13916],[2.53124,42.13915],[2.53035,42.13927],[2.52988,42.13906],[2.52926,42.13895],[2.52901,42.13868],[2.52876,42.13852],[2.52847,42.13847],[2.52804,42.13814],[2.5278,42.13817],[2.52724,42.13847],[2.52695,42.13819],[2.52676,42.13816],[2.52562,42.13829],[2.52433,42.13822],[2.52385,42.13826],[2.52368,42.1382],[2.52339,42.13873],[2.52355,42.1397],[2.52272,42.14023],[2.52235,42.14034],[2.52198,42.14035],[2.52111,42.14016],[2.52048,42.14067],[2.52028,42.14112],[2.51991,42.14162],[2.51984,42.14219],[2.52006,42.14257],[2.52016,42.14296],[2.5205,42.1437],[2.52032,42.14396],[2.51975,42.14423],[2.51974,42.14431],[2.52011,42.14512],[2.52093,42.14577],[2.52079,42.1459],[2.52011,42.14611],[2.52015,42.14635],[2.51989,42.14656],[2.51974,42.14715],[2.51978,42.14796],[2.51956,42.14822],[2.51904,42.1483],[2.51876,42.14822],[2.51836,42.14825],[2.51815,42.14878],[2.51842,42.14912],[2.51845,42.14926],[2.51834,42.14935],[2.51835,42.14951],[2.51814,42.14968],[2.51855,42.15048],[2.51881,42.15053],[2.51893,42.15077],[2.51888,42.15095],[2.51857,42.15093],[2.51838,42.15109],[2.51827,42.1513],[2.51819,42.15149],[2.51825,42.15186],[2.51835,42.15196],[2.51729,42.15221],[2.51714,42.15244],[2.5166,42.15262],[2.51652,42.15281],[2.51654,42.15295],[2.51661,42.15308],[2.51722,42.15352],[2.51751,42.15341],[2.51762,42.15344],[2.51797,42.15382],[2.51825,42.15392],[2.51883,42.15346],[2.51926,42.15328],[2.51962,42.1532],[2.52045,42.15316],[2.52059,42.15348],[2.52052,42.15379],[2.52067,42.15404],[2.52102,42.1544],[2.52099,42.15466],[2.52105,42.15497],[2.52112,42.15482],[2.52153,42.15456],[2.52194,42.15451],[2.52209,42.15445],[2.52225,42.15428],[2.52272,42.15418],[2.5231,42.15416],[2.52417,42.15443],[2.52441,42.15444],[2.52483,42.15436],[2.52563,42.15436],[2.52592,42.15421],[2.52649,42.15429],[2.527,42.15447],[2.52744,42.15425],[2.52761,42.15428],[2.52774,42.15464],[2.52857,42.15535],[2.52881,42.15563],[2.52977,42.15639],[2.53026,42.15663],[2.53072,42.15698],[2.53174,42.15707],[2.53374,42.15704],[2.53456,42.15712],[2.53572,42.15711],[2.53636,42.15719],[2.53693,42.15737],[2.5378,42.15746],[2.53918,42.1575],[2.53966,42.15745],[2.54096,42.1571],[2.54168,42.15675],[2.54311,42.15557],[2.54336,42.15546],[2.54337,42.15514],[2.54321,42.15447],[2.54295,42.15373],[2.54251,42.15285],[2.5424,42.1524],[2.54263,42.15114],[2.54305,42.15035],[2.54319,42.14991],[2.5432,42.14963],[2.5431,42.14951],[2.54378,42.14857]]},"properties":{"nom":"R1 - La Fageda i els volcans"}}]}