{"type":"FeatureCollection","features":[{"type":"Feature","properties":{"nom":"Santa Pau","codi":"171848","area_km2":48.57,"vigent_des_de":"2010-07-22","font":"Mapa municipal de Catalunya v2.0, DGAL i ICGC, CC BY 4.0"},"geometry":{"type":"Polygon","coordinates":[[[2.591592,42.19452],[2.591991,42.194462],[2.592672,42.188142],[2.593194,42.188324],[2.596006,42.18838],[2.60625,42.179754],[2.605325,42.178853],[2.605328,42.178718],[2.605532,42.178454],[2.605918,42.178187],[2.606162,42.177658],[2.607022,42.17716],[2.607516,42.175928],[2.607873,42.1759],[2.608238,42.176171],[2.609111,42.176171],[2.609924,42.176555],[2.612409,42.176639],[2.61397,42.176357],[2.61421,42.176144],[2.614468,42.175724],[2.615073,42.175537],[2.616025,42.175638],[2.616751,42.175617],[2.617615,42.175819],[2.618559,42.175657],[2.619927,42.175585],[2.620412,42.175743],[2.621201,42.175871],[2.619207,42.171004],[2.619712,42.170902],[2.620343,42.170598],[2.621354,42.170364],[2.625358,42.170016],[2.627159,42.169486],[2.627865,42.169575],[2.629265,42.169466],[2.626751,42.159361],[2.629666,42.151798],[2.628816,42.151526],[2.62846,42.151293],[2.627878,42.151144],[2.627585,42.150818],[2.626906,42.150618],[2.626424,42.150146],[2.625462,42.14997],[2.624614,42.149638],[2.621926,42.149933],[2.621439,42.149889],[2.620303,42.149439],[2.61995,42.149195],[2.619668,42.148928],[2.619463,42.148236],[2.619283,42.148046],[2.617788,42.147301],[2.617186,42.14573],[2.617405,42.145],[2.617435,42.144146],[2.617009,42.143246],[2.616499,42.142595],[2.616514,42.142419],[2.616971,42.141832],[2.617151,42.141393],[2.617082,42.141291],[2.616829,42.141257],[2.615578,42.14134],[2.614668,42.140948],[2.614547,42.14081],[2.614243,42.140115],[2.613538,42.139384],[2.613243,42.138067],[2.612606,42.136601],[2.612127,42.13606],[2.612,42.135298],[2.611584,42.134385],[2.61161,42.134092],[2.611314,42.133227],[2.61036,42.131956],[2.609977,42.131627],[2.609065,42.131124],[2.608864,42.130897],[2.608569,42.130425],[2.608438,42.129926],[2.606285,42.130621],[2.604907,42.130632],[2.604169,42.130843],[2.602655,42.130564],[2.601985,42.130119],[2.601324,42.129803],[2.600741,42.130551],[2.599519,42.131294],[2.599536,42.13172],[2.599338,42.132388],[2.599337,42.132842],[2.598969,42.133644],[2.598863,42.133836],[2.597995,42.13457],[2.597328,42.134303],[2.596229,42.133562],[2.594958,42.133493],[2.593529,42.133615],[2.593272,42.131687],[2.593399,42.131361],[2.59344,42.130422],[2.593852,42.129782],[2.594104,42.129023],[2.594641,42.128477],[2.594722,42.128105],[2.594586,42.126706],[2.594154,42.124933],[2.594159,42.124356],[2.593677,42.123258],[2.592564,42.122014],[2.592536,42.121577],[2.592608,42.121039],[2.593307,42.119653],[2.593682,42.118171],[2.594075,42.117518],[2.59394,42.116748],[2.577404,42.12006],[2.57712,42.120453],[2.576379,42.12071],[2.575705,42.121053],[2.574533,42.122239],[2.573728,42.123404],[2.573684,42.123887],[2.573251,42.125097],[2.57311,42.125226],[2.572427,42.12538],[2.571032,42.125277],[2.568634,42.126039],[2.568307,42.126076],[2.56778,42.125924],[2.566702,42.125061],[2.566393,42.124945],[2.565577,42.124849],[2.565076,42.124678],[2.564141,42.124582],[2.562509,42.124628],[2.562126,42.124695],[2.561445,42.125033],[2.560836,42.125114],[2.560257,42.125028],[2.559572,42.125217],[2.558775,42.125217],[2.558162,42.125569],[2.557201,42.12553],[2.556394,42.12589],[2.555827,42.125969],[2.555549,42.125892],[2.554055,42.124591],[2.553245,42.123716],[2.552964,42.123092],[2.552588,42.122941],[2.55227,42.122673],[2.551342,42.122636],[2.550375,42.123243],[2.549097,42.123913],[2.548161,42.124668],[2.547798,42.12486],[2.547351,42.124907],[2.546567,42.12478],[2.545931,42.124775],[2.544203,42.125047],[2.544015,42.125143],[2.543496,42.125947],[2.543072,42.12716],[2.542513,42.127463],[2.541871,42.128],[2.541703,42.128813],[2.541355,42.129576],[2.539767,42.129589],[2.538675,42.130413],[2.537967,42.131081],[2.537313,42.131254],[2.53598,42.13144],[2.535602,42.131568],[2.535078,42.131923],[2.534658,42.132079],[2.533789,42.132192],[2.533115,42.132181],[2.531689,42.13243],[2.530664,42.132488],[2.529086,42.132875],[2.528298,42.132533],[2.526533,42.132446],[2.525731,42.132166],[2.525177,42.132063],[2.524582,42.131543],[2.524058,42.131221],[2.523178,42.13111],[2.522008,42.131353],[2.521813,42.131048],[2.520494,42.130266],[2.519409,42.130178],[2.518918,42.129961],[2.518531,42.130277],[2.517567,42.130543],[2.516333,42.131241],[2.515327,42.131578],[2.514731,42.131626],[2.51393,42.132116],[2.513105,42.132351],[2.512695,42.132581],[2.512311,42.132663],[2.511793,42.132477],[2.511354,42.132533],[2.510516,42.132889],[2.510182,42.13328],[2.509555,42.13361],[2.50915,42.133749],[2.508244,42.133831],[2.507534,42.134121],[2.507171,42.134538],[2.506663,42.134729],[2.505505,42.134839],[2.505313,42.134822],[2.504994,42.134627],[2.504675,42.134576],[2.504306,42.134615],[2.503731,42.134512],[2.503124,42.134665],[2.502705,42.13445],[2.502402,42.134377],[2.502155,42.134423],[2.501492,42.134776],[2.500369,42.135152],[2.499679,42.135615],[2.498644,42.136127],[2.498296,42.136398],[2.495217,42.141116],[2.494202,42.144392],[2.49602,42.150006],[2.498523,42.154577],[2.501835,42.156482],[2.505848,42.159176],[2.507333,42.159933],[2.511142,42.161626],[2.515197,42.157211],[2.515344,42.156804],[2.515558,42.155413],[2.51645,42.155027],[2.517434,42.154451],[2.519063,42.155023],[2.520016,42.154752],[2.520613,42.154681],[2.521034,42.154741],[2.522341,42.155882],[2.524787,42.156599],[2.530546,42.156656],[2.536043,42.154023],[2.543157,42.155616],[2.541798,42.158235],[2.541797,42.161012],[2.542749,42.167489],[2.544947,42.169958],[2.54896,42.172605],[2.54952,42.172663],[2.551107,42.173343],[2.552047,42.17328],[2.553228,42.173703],[2.554131,42.173797],[2.554461,42.174252],[2.555093,42.174715],[2.555904,42.174754],[2.557189,42.175217],[2.55848,42.174636],[2.559349,42.174553],[2.56016,42.173832],[2.560933,42.173643],[2.561344,42.173367],[2.561761,42.173247],[2.561968,42.17277],[2.562442,42.172365],[2.563146,42.172211],[2.563295,42.172085],[2.565209,42.173359],[2.566724,42.173281],[2.568183,42.173354],[2.568469,42.173297],[2.568845,42.173343],[2.570135,42.173719],[2.571558,42.173786],[2.571979,42.173741],[2.572787,42.173959],[2.573556,42.174278],[2.57391,42.174337],[2.574775,42.174265],[2.575348,42.174528],[2.575701,42.174518],[2.576188,42.174621],[2.576795,42.174906],[2.57764,42.174936],[2.578848,42.174281],[2.580166,42.176097],[2.580057,42.176646],[2.580112,42.176911],[2.579942,42.177307],[2.58036,42.178026],[2.580552,42.178676],[2.580909,42.179099],[2.581133,42.17978],[2.58114,42.180315],[2.58201,42.18224],[2.582028,42.182708],[2.582365,42.182997],[2.582499,42.183398],[2.582663,42.183488],[2.582528,42.183682],[2.582622,42.183937],[2.582508,42.184115],[2.582702,42.184444],[2.582689,42.184784],[2.582827,42.184978],[2.582862,42.18526],[2.583061,42.185514],[2.58304,42.185647],[2.582201,42.186555],[2.582357,42.18722],[2.582227,42.187652],[2.581724,42.188152],[2.581669,42.188678],[2.581559,42.18885],[2.581664,42.189406],[2.582058,42.18984],[2.582369,42.189914],[2.582591,42.190072],[2.582579,42.190432],[2.583472,42.190585],[2.584561,42.190955],[2.585065,42.190949],[2.585709,42.19132],[2.587179,42.19179],[2.586714,42.192059],[2.586701,42.192675],[2.587742,42.193],[2.589456,42.194081],[2.590026,42.194245],[2.590891,42.194273],[2.591592,42.19452]]]}}]}