<?xml version="1.0" encoding="UTF-8"?>
<gpx xmlns:xsi="http://www.w3.org/2001/XMLSchema-instance" xmlns="http://www.topografix.com/GPX/1/1" xsi:schemaLocation="http://www.topografix.com/GPX/1/1 http://www.topografix.com/GPX/1/1/gpx.xsd http://www.garmin.com/xmlschemas/GpxExtensions/v3 http://www.garmin.com/xmlschemas/GpxExtensionsv3.xsd http://www.garmin.com/xmlschemas/TrackPointExtension/v1 http://www.garmin.com/xmlschemas/TrackPointExtensionv1.xsd http://www.topografix.com/GPX/gpx_style/0/2 http://www.topografix.com/GPX/gpx_style/0/2/gpx_style.xsd" xmlns:gpxtpx="http://www.garmin.com/xmlschemas/TrackPointExtension/v1" xmlns:gpxx="http://www.garmin.com/xmlschemas/GpxExtensions/v3" xmlns:gpx_style="http://www.topografix.com/GPX/gpx_style/0/2" version="1.1" creator="@alexistudela">
	<metadata>
		<name>SantaPau_Coves</name>
		<author>
			<name>Alexis Tudela i Casanovas</name>
		</author>
	</metadata>
	
	<!-- Coves -->
	<wpt lat="42.09248940954829" lon="2.5769282877445225">
		<ele>622.2</ele>
		<name>Cova dels Carlins</name>
		<desc>Catalogada al terme de Sant Aniol de Finestres (Cataleg Espeleologic de Catalunya, vol.3). Recorregut 19 m.</desc>
		<sym>Square, Red</sym>
		<type>cova</type>
	</wpt>
	
	<wpt lat="42.11618" lon="2.57705">
		<ele>949.7</ele>
		<name>Avenc Pujolar</name>
		<desc>Catalogat al terme de Sant Aniol de Finestres. Recorregut 19 m, desnivell 14 m.</desc>
		<sym>Square, Red</sym>
		<type>cova</type>
	</wpt>
	
	<wpt lat="42.11701390475437" lon="2.5722831472608214">
		<ele>908.0</ele>
		<name>Cova del Llop</name>
		<desc>Catalogada al terme de Sant Aniol de Finestres. Recorregut 116 m, desnivell 17 m.</desc>
		<sym>Square, Red</sym>
		<type>cova</type>
	</wpt>
	
	<wpt lat="42.11787050316126" lon="2.577466070652008">
		<ele>917.8</ele>
		<name>Avenc dels Troncs</name>
		<desc>Catalogat al terme de Sant Aniol de Finestres. Recorregut 5 m.</desc>
		<sym>Square, Red</sym>
		<type>cova</type>
	</wpt>
	
	<wpt lat="42.11791427375937" lon="2.5721794366836552">
		<ele>876.0</ele>
		<name>Cova de les Angúnies</name>
		<desc>Catalogada al terme de Sant Aniol de Finestres. Recorregut 190 m, desnivell 40 m.</desc>
		<sym>Square, Red</sym>
		<type>cova</type>
	</wpt>
	
	<wpt lat="42.13389116073739" lon="2.4980233504640204">
		<ele>816.6</ele>
		<name>Cova de Rocalladre</name>
		<desc>Es la Cova de Roca Lladre, serra del Corb, catalogada al terme de Sant Feliu de Pallerols. Recorregut 80 m.</desc>
		<sym>Square, Red</sym>
		<type>cova</type>
	</wpt>
	
	<wpt lat="42.167855" lon="2.573429">
		<ele>618.8</ele>
		<name>Balma de la Feu</name>
		<desc>Santa Pau. Torrent de Sallent. Amplada 44 m, fondaria maxima 14 m. Espeleologicament inedita fins al 2024.</desc>
		<sym>Square, Red</sym>
		<type>cova</type>
	</wpt>


	<!-- Afegida 2026-08-24. Posicio APROXIMADA (±200 m), deduida de la
	     descripcio del Grup d'Espeleologia de Badalona: uns 600 m a ponent
	     de Sant Julia del Mont (31TDG652694) i uns 200 m de la cova dels
	     Encantats. Cal comprovar-la sobre el terreny. -->
	<wpt lat="42.172769" lon="2.570873">
		<ele>706</ele>
		<name>Bauma dels Monjos</name>
		<desc>Tambe dita bauma de la Font dels Monjos. Amplada 26 m, fondaria 11 m. Coordenada de la fitxa d espeleoworld.com (dades del Grup d Espeleologia de Badalona, 30-9-2024). A 606 m a ponent del monestir de Sant Julia del Mont i a uns 200 m de la cova dels Encantats, que ja es de Sant Joan les Fonts. El cami que uneix les esglesies del sector es el cami dels Monjos, i d aqui li ve el nom.</desc>
		<sym>Cave</sym>
		<type>cova</type>
	</wpt>
</gpx>