<?xml version="1.0" encoding="UTF-8"?>
<gpx xmlns:xsi="http://www.w3.org/2001/XMLSchema-instance" xmlns="http://www.topografix.com/GPX/1/1" xsi:schemaLocation="http://www.topografix.com/GPX/1/1 http://www.topografix.com/GPX/1/1/gpx.xsd http://www.garmin.com/xmlschemas/GpxExtensions/v3 http://www.garmin.com/xmlschemas/GpxExtensionsv3.xsd http://www.garmin.com/xmlschemas/TrackPointExtension/v1 http://www.garmin.com/xmlschemas/TrackPointExtensionv1.xsd http://www.topografix.com/GPX/gpx_style/0/2 http://www.topografix.com/GPX/gpx_style/0/2/gpx_style.xsd" xmlns:gpxtpx="http://www.garmin.com/xmlschemas/TrackPointExtension/v1" xmlns:gpxx="http://www.garmin.com/xmlschemas/GpxExtensions/v3" xmlns:gpx_style="http://www.topografix.com/GPX/gpx_style/0/2" version="1.1" creator="@alexistudela">
	<metadata>
		<name>SantaPau_Arbres</name>
		<author>
			<name>Alexis Tudela i Casanovas</name>
		</author>
	</metadata>
	
	<!-- Arbres -->
	<wpt lat="42.14478" lon="2.60336">
		<ele>389.3</ele>
		<name>Alzina Rodona</name>
		<sym>Forest</sym>
		<type>arbre</type>
	</wpt>
	
	<wpt lat="42.14478" lon="2.6016">
		<ele>420.5</ele>
		<name>Els Càdecs</name>
		<sym>Forest</sym>
		<type>arbre</type>
	</wpt>
	
	<wpt lat="42.11462712214485" lon="2.57787245157612">
		<ele>1016.3</ele>
		<name>Faig Rodó</name>
		<sym>Forest</sym>
		<type>arbre</type>
	</wpt>
	
	<wpt lat="42.12546012811296" lon="2.544076790363388">
		<ele>891.6</ele>
		<name>Beços de Fontpobra</name>
		<sym>Forest</sym>
		<type>arbre</type>
	</wpt>
	
	<wpt lat="42.12620626708704" lon="2.544000148773194">
		<ele>886.5</ele>
		<name>Avet del volcà de Fontpobra</name>
		<sym>Forest</sym>
		<type>arbre</type>
	</wpt>
	
	<wpt lat="42.14588545854318" lon="2.542997002601624">
		<ele>673.0</ele>
		<name>Castanyers de Caselles</name>
		<sym>Forest</sym>
		<type>arbre</type>
	</wpt>
	
	<wpt lat="42.122386673679415" lon="2.5462102890014653">
		<ele>856.7</ele>
		<name>Tell de Can Tià</name>
		<sym>Forest</sym>
		<type>arbre</type>
	</wpt>

</gpx>